<?xml version="1.0" encoding="UTF-8"?><gpx version="1.1" creator="Heripia 3.7.332" xmlns="http://www.topografix.com/GPX/1/1" xmlns:xsi="http://www.w3.org/2001/XMLSchema-instance" xsi:schemaLocation="http://www.topografix.com/GPX/1/1 http://www.topografix.com/GPX/1/1/gpx.xsd">
    <metadata>
        <name>Circuit de SplashWorld AQI Venus Beach à Medina de Yasmine</name>
        <desc>Circuit généré par Heripia — heripia.com</desc>
        <link href="https://heripia.com/">
            <text>Heripia [HW-ID:HW-01KVR6T565KS5Y9VS01WT0RZH7]</text>
        </link>
    </metadata>
    <wpt lat="36.389997621471394" lon="10.556869634681318">
      <name>SplashWorld AQI Venus Beach</name>
      <desc></desc>
    </wpt>
    <wpt lat="36.37906442651327" lon="10.537887961607131">
      <name>Mosquée Bilal</name>
      <desc></desc>
    </wpt>
    <wpt lat="36.3684609" lon="10.5355097">
      <name>Les éléphants d&apos;Hannibal</name>
      <desc></desc>
    </wpt>
    <wpt lat="36.3688994" lon="10.5347265">
      <name>Carthage Land</name>
      <desc></desc>
    </wpt>
    <wpt lat="36.367525710635114" lon="10.533293982045407">
      <name>Medina de Yasmine</name>
      <desc></desc>
    </wpt><trk><name>Circuit de SplashWorld AQI Venus Beach à Medina de Yasmine</name><desc><![CDATA[

Circuit généré par Heripia — heripia.com]]></desc><trkseg><trkpt lat="36.390299" lon="10.556663"><ele>0</ele></trkpt>
      <trkpt lat="36.39032" lon="10.556689"><ele>0</ele></trkpt>
      <trkpt lat="36.390348" lon="10.556698"><ele>0</ele></trkpt>
      <trkpt lat="36.390376" lon="10.556689"><ele>0</ele></trkpt>
      <trkpt lat="36.390397" lon="10.556663"><ele>0</ele></trkpt>
      <trkpt lat="36.390404" lon="10.556628"><ele>0</ele></trkpt>
      <trkpt lat="36.390397" lon="10.556593"><ele>0</ele></trkpt>
      <trkpt lat="36.390679" lon="10.556393"><ele>0</ele></trkpt>
      <trkpt lat="36.39147" lon="10.555771"><ele>0</ele></trkpt>
      <trkpt lat="36.391464" lon="10.555736"><ele>0</ele></trkpt>
      <trkpt lat="36.391467" lon="10.555698"><ele>0</ele></trkpt>
      <trkpt lat="36.391479" lon="10.555663"><ele>0</ele></trkpt>
      <trkpt lat="36.3915" lon="10.555634"><ele>0</ele></trkpt>
      <trkpt lat="36.391527" lon="10.555616"><ele>0</ele></trkpt>
      <trkpt lat="36.391543" lon="10.555611"><ele>0</ele></trkpt>
      <trkpt lat="36.391583" lon="10.555367"><ele>0</ele></trkpt>
      <trkpt lat="36.391621" lon="10.555233"><ele>0</ele></trkpt>
      <trkpt lat="36.391587" lon="10.555169"><ele>0</ele></trkpt>
      <trkpt lat="36.39134" lon="10.554694"><ele>0</ele></trkpt>
      <trkpt lat="36.391294" lon="10.554676"><ele>0</ele></trkpt>
      <trkpt lat="36.391177" lon="10.554668"><ele>0</ele></trkpt>
      <trkpt lat="36.391053" lon="10.554689"><ele>0</ele></trkpt>
      <trkpt lat="36.39084" lon="10.55469"><ele>0</ele></trkpt>
      <trkpt lat="36.389971" lon="10.554606"><ele>0</ele></trkpt>
      <trkpt lat="36.38956" lon="10.554627"><ele>0</ele></trkpt>
      <trkpt lat="36.389439" lon="10.554626"><ele>0</ele></trkpt>
      <trkpt lat="36.389312" lon="10.554642"><ele>0</ele></trkpt>
      <trkpt lat="36.389127" lon="10.554691"><ele>0</ele></trkpt>
      <trkpt lat="36.388991" lon="10.554759"><ele>0</ele></trkpt>
      <trkpt lat="36.388874" lon="10.554857"><ele>0</ele></trkpt>
      <trkpt lat="36.388721" lon="10.555011"><ele>0</ele></trkpt>
      <trkpt lat="36.38859" lon="10.555185"><ele>0</ele></trkpt>
      <trkpt lat="36.388465" lon="10.555419"><ele>0</ele></trkpt>
      <trkpt lat="36.388337" lon="10.555729"><ele>0</ele></trkpt>
      <trkpt lat="36.38829" lon="10.555936"><ele>0</ele></trkpt>
      <trkpt lat="36.388233" lon="10.556324"><ele>0</ele></trkpt>
      <trkpt lat="36.388171" lon="10.556504"><ele>0</ele></trkpt>
      <trkpt lat="36.388058" lon="10.556781"><ele>0</ele></trkpt>
      <trkpt lat="36.387947" lon="10.557003"><ele>0</ele></trkpt>
      <trkpt lat="36.3879" lon="10.557068"><ele>0</ele></trkpt>
      <trkpt lat="36.387831" lon="10.557143"><ele>0</ele></trkpt>
      <trkpt lat="36.387561" lon="10.557409"><ele>0</ele></trkpt>
      <trkpt lat="36.38746" lon="10.557522"><ele>0</ele></trkpt>
      <trkpt lat="36.387224" lon="10.557749"><ele>0</ele></trkpt>
      <trkpt lat="36.387212" lon="10.557752"><ele>0</ele></trkpt>
      <trkpt lat="36.387196" lon="10.557743"><ele>0</ele></trkpt>
      <trkpt lat="36.38716" lon="10.557684"><ele>0</ele></trkpt>
      <trkpt lat="36.387281" lon="10.557572"><ele>0</ele></trkpt>
      <trkpt lat="36.387355" lon="10.557432"><ele>0</ele></trkpt>
      <trkpt lat="36.387381" lon="10.557394"><ele>0</ele></trkpt>
      <trkpt lat="36.387519" lon="10.557243"><ele>0</ele></trkpt>
      <trkpt lat="36.38758" lon="10.557185"><ele>0</ele></trkpt>
      <trkpt lat="36.387608" lon="10.557151"><ele>0</ele></trkpt>
      <trkpt lat="36.387639" lon="10.557082"><ele>0</ele></trkpt>
      <trkpt lat="36.387571" lon="10.557039"><ele>0</ele></trkpt>
      <trkpt lat="36.387254" lon="10.556709"><ele>0</ele></trkpt>
      <trkpt lat="36.387181" lon="10.556619"><ele>0</ele></trkpt>
      <trkpt lat="36.387166" lon="10.556583"><ele>0</ele></trkpt>
      <trkpt lat="36.387165" lon="10.556551"><ele>0</ele></trkpt>
      <trkpt lat="36.387203" lon="10.556463"><ele>0</ele></trkpt>
      <trkpt lat="36.387289" lon="10.556311"><ele>0</ele></trkpt>
      <trkpt lat="36.387379" lon="10.556119"><ele>0</ele></trkpt>
      <trkpt lat="36.387407" lon="10.556008"><ele>0</ele></trkpt>
      <trkpt lat="36.387581" lon="10.555049"><ele>0</ele></trkpt>
      <trkpt lat="36.387612" lon="10.554968"><ele>0</ele></trkpt>
      <trkpt lat="36.387671" lon="10.554879"><ele>0</ele></trkpt>
      <trkpt lat="36.387801" lon="10.554716"><ele>0</ele></trkpt>
      <trkpt lat="36.388475" lon="10.553926"><ele>0</ele></trkpt>
      <trkpt lat="36.388315" lon="10.553733"><ele>0</ele></trkpt>
      <trkpt lat="36.388337" lon="10.553698"><ele>0</ele></trkpt>
      <trkpt lat="36.388347" lon="10.553655"><ele>0</ele></trkpt>
      <trkpt lat="36.388344" lon="10.55361"><ele>0</ele></trkpt>
      <trkpt lat="36.388323" lon="10.553561"><ele>0</ele></trkpt>
      <trkpt lat="36.388288" lon="10.553528"><ele>0</ele></trkpt>
      <trkpt lat="36.389273" lon="10.552384"><ele>0</ele></trkpt>
      <trkpt lat="36.389381" lon="10.552237"><ele>0</ele></trkpt>
      <trkpt lat="36.38937" lon="10.552186"><ele>0</ele></trkpt>
      <trkpt lat="36.389364" lon="10.552094"><ele>0</ele></trkpt>
      <trkpt lat="36.389377" lon="10.552022"><ele>0</ele></trkpt>
      <trkpt lat="36.389354" lon="10.551951"><ele>0</ele></trkpt>
      <trkpt lat="36.389264" lon="10.551767"><ele>0</ele></trkpt>
      <trkpt lat="36.388997" lon="10.551195"><ele>0</ele></trkpt>
      <trkpt lat="36.389071" lon="10.551137"><ele>0</ele></trkpt>
      <trkpt lat="36.388726" lon="10.550387"><ele>0</ele></trkpt>
      <trkpt lat="36.388683" lon="10.550247"><ele>0</ele></trkpt>
      <trkpt lat="36.38867" lon="10.550114"><ele>0</ele></trkpt>
      <trkpt lat="36.388653" lon="10.550002"><ele>0</ele></trkpt>
      <trkpt lat="36.38876" lon="10.549971"><ele>0</ele></trkpt>
      <trkpt lat="36.388886" lon="10.549956"><ele>0</ele></trkpt>
      <trkpt lat="36.389377" lon="10.549954"><ele>0</ele></trkpt>
      <trkpt lat="36.390357" lon="10.549914"><ele>0</ele></trkpt>
      <trkpt lat="36.390515" lon="10.549895"><ele>0</ele></trkpt>
      <trkpt lat="36.390616" lon="10.54987"><ele>0</ele></trkpt>
      <trkpt lat="36.390744" lon="10.549811"><ele>0</ele></trkpt>
      <trkpt lat="36.39078" lon="10.549777"><ele>0</ele></trkpt>
      <trkpt lat="36.390809" lon="10.549734"><ele>0</ele></trkpt>
      <trkpt lat="36.390905" lon="10.549556"><ele>0</ele></trkpt>
      <trkpt lat="36.390898" lon="10.549508"><ele>0</ele></trkpt>
      <trkpt lat="36.390901" lon="10.549455"><ele>0</ele></trkpt>
      <trkpt lat="36.390914" lon="10.549405"><ele>0</ele></trkpt>
      <trkpt lat="36.390937" lon="10.549361"><ele>0</ele></trkpt>
      <trkpt lat="36.390968" lon="10.549325"><ele>0</ele></trkpt>
      <trkpt lat="36.391005" lon="10.549299"><ele>0</ele></trkpt>
      <trkpt lat="36.391047" lon="10.549286"><ele>0</ele></trkpt>
      <trkpt lat="36.39112" lon="10.549295"><ele>0</ele></trkpt>
      <trkpt lat="36.391326" lon="10.549058"><ele>0</ele></trkpt>
      <trkpt lat="36.391421" lon="10.548963"><ele>0</ele></trkpt>
      <trkpt lat="36.391502" lon="10.548918"><ele>0</ele></trkpt>
      <trkpt lat="36.391621" lon="10.548871"><ele>0</ele></trkpt>
      <trkpt lat="36.391698" lon="10.548806"><ele>0</ele></trkpt>
      <trkpt lat="36.391804" lon="10.548683"><ele>0</ele></trkpt>
      <trkpt lat="36.392068" lon="10.548252"><ele>0</ele></trkpt>
      <trkpt lat="36.39229" lon="10.547914"><ele>0</ele></trkpt>
      <trkpt lat="36.392351" lon="10.547784"><ele>0</ele></trkpt>
      <trkpt lat="36.392372" lon="10.547614"><ele>0</ele></trkpt>
      <trkpt lat="36.392358" lon="10.547433"><ele>0</ele></trkpt>
      <trkpt lat="36.392319" lon="10.547292"><ele>0</ele></trkpt>
      <trkpt lat="36.392226" lon="10.547138"><ele>0</ele></trkpt>
      <trkpt lat="36.392043" lon="10.546902"><ele>0</ele></trkpt>
      <trkpt lat="36.391837" lon="10.546612"><ele>0</ele></trkpt>
      <trkpt lat="36.391707" lon="10.54638"><ele>0</ele></trkpt>
      <trkpt lat="36.391597" lon="10.54614"><ele>0</ele></trkpt>
      <trkpt lat="36.391533" lon="10.545892"><ele>0</ele></trkpt>
      <trkpt lat="36.391496" lon="10.545646"><ele>0</ele></trkpt>
      <trkpt lat="36.391515" lon="10.545519"><ele>0</ele></trkpt>
      <trkpt lat="36.391551" lon="10.545067"><ele>0</ele></trkpt>
      <trkpt lat="36.391557" lon="10.544906"><ele>0</ele></trkpt>
      <trkpt lat="36.39158" lon="10.544324"><ele>0</ele></trkpt>
      <trkpt lat="36.391613" lon="10.54376"><ele>0</ele></trkpt>
      <trkpt lat="36.391633" lon="10.543426"><ele>0</ele></trkpt>
      <trkpt lat="36.391648" lon="10.543166"><ele>0</ele></trkpt>
      <trkpt lat="36.391695" lon="10.542352"><ele>0</ele></trkpt>
      <trkpt lat="36.392289" lon="10.542071"><ele>0</ele></trkpt>
      <trkpt lat="36.392652" lon="10.541886"><ele>0</ele></trkpt>
      <trkpt lat="36.39238" lon="10.541422"><ele>0</ele></trkpt>
      <trkpt lat="36.392294" lon="10.541166"><ele>0</ele></trkpt>
      <trkpt lat="36.392267" lon="10.541006"><ele>0</ele></trkpt>
      <trkpt lat="36.392254" lon="10.540845"><ele>0</ele></trkpt>
      <trkpt lat="36.392262" lon="10.540541"><ele>0</ele></trkpt>
      <trkpt lat="36.391915" lon="10.540179"><ele>0</ele></trkpt>
      <trkpt lat="36.391743" lon="10.540025"><ele>0</ele></trkpt>
      <trkpt lat="36.391525" lon="10.539912"><ele>0</ele></trkpt>
      <trkpt lat="36.391555" lon="10.53968"><ele>0</ele></trkpt>
      <trkpt lat="36.391678" lon="10.538971"><ele>0</ele></trkpt>
      <trkpt lat="36.391633" lon="10.538918"><ele>0</ele></trkpt>
      <trkpt lat="36.391533" lon="10.53876"><ele>0</ele></trkpt>
      <trkpt lat="36.391474" lon="10.538682"><ele>0</ele></trkpt>
      <trkpt lat="36.391409" lon="10.538623"><ele>0</ele></trkpt>
      <trkpt lat="36.391332" lon="10.53857"><ele>0</ele></trkpt>
      <trkpt lat="36.391037" lon="10.53833"><ele>0</ele></trkpt>
      <trkpt lat="36.390739" lon="10.537986"><ele>0</ele></trkpt>
      <trkpt lat="36.390092" lon="10.537355"><ele>0</ele></trkpt>
      <trkpt lat="36.389893" lon="10.537129"><ele>0</ele></trkpt>
      <trkpt lat="36.389417" lon="10.536619"><ele>0</ele></trkpt>
      <trkpt lat="36.388912" lon="10.536136"><ele>0</ele></trkpt>
      <trkpt lat="36.388729" lon="10.535979"><ele>0</ele></trkpt>
      <trkpt lat="36.38851" lon="10.535823"><ele>0</ele></trkpt>
      <trkpt lat="36.388423" lon="10.535745"><ele>0</ele></trkpt>
      <trkpt lat="36.388102" lon="10.53541"><ele>0</ele></trkpt>
      <trkpt lat="36.38766" lon="10.534971"><ele>0</ele></trkpt>
      <trkpt lat="36.387077" lon="10.53435"><ele>0</ele></trkpt>
      <trkpt lat="36.386446" lon="10.533724"><ele>0</ele></trkpt>
      <trkpt lat="36.38599" lon="10.533216"><ele>0</ele></trkpt>
      <trkpt lat="36.385736" lon="10.532962"><ele>0</ele></trkpt>
      <trkpt lat="36.38513" lon="10.532412"><ele>0</ele></trkpt>
      <trkpt lat="36.384669" lon="10.531954"><ele>0</ele></trkpt>
      <trkpt lat="36.384554" lon="10.531829"><ele>0</ele></trkpt>
      <trkpt lat="36.384256" lon="10.531468"><ele>0</ele></trkpt>
      <trkpt lat="36.383894" lon="10.531057"><ele>0</ele></trkpt>
      <trkpt lat="36.383164" lon="10.530271"><ele>0</ele></trkpt>
      <trkpt lat="36.38295" lon="10.529965"><ele>0</ele></trkpt>
      <trkpt lat="36.382883" lon="10.529888"><ele>0</ele></trkpt>
      <trkpt lat="36.382781" lon="10.529818"><ele>0</ele></trkpt>
      <trkpt lat="36.382742" lon="10.529771"><ele>0</ele></trkpt>
      <trkpt lat="36.38269" lon="10.529723"><ele>0</ele></trkpt>
      <trkpt lat="36.382586" lon="10.529638"><ele>0</ele></trkpt>
      <trkpt lat="36.382438" lon="10.529539"><ele>0</ele></trkpt>
      <trkpt lat="36.382319" lon="10.529431"><ele>0</ele></trkpt>
      <trkpt lat="36.382171" lon="10.529256"><ele>0</ele></trkpt>
      <trkpt lat="36.381827" lon="10.528814"><ele>0</ele></trkpt>
      <trkpt lat="36.381732" lon="10.528714"><ele>0</ele></trkpt>
      <trkpt lat="36.381613" lon="10.52857"><ele>0</ele></trkpt>
      <trkpt lat="36.381214" lon="10.528061"><ele>0</ele></trkpt>
      <trkpt lat="36.380308" lon="10.526984"><ele>0</ele></trkpt>
      <trkpt lat="36.379663" lon="10.526197"><ele>0</ele></trkpt>
      <trkpt lat="36.379119" lon="10.525549"><ele>0</ele></trkpt>
      <trkpt lat="36.378957" lon="10.525295"><ele>0</ele></trkpt>
      <trkpt lat="36.378856" lon="10.525162"><ele>0</ele></trkpt>
      <trkpt lat="36.378715" lon="10.525004"><ele>0</ele></trkpt>
      <trkpt lat="36.378608" lon="10.524866"><ele>0</ele></trkpt>
      <trkpt lat="36.37837" lon="10.524615"><ele>0</ele></trkpt>
      <trkpt lat="36.378164" lon="10.524357"><ele>0</ele></trkpt>
      <trkpt lat="36.377684" lon="10.523693"><ele>0</ele></trkpt>
      <trkpt lat="36.377645" lon="10.523603"><ele>0</ele></trkpt>
      <trkpt lat="36.377633" lon="10.523462"><ele>0</ele></trkpt>
      <trkpt lat="36.377656" lon="10.523376"><ele>0</ele></trkpt>
      <trkpt lat="36.377698" lon="10.523268"><ele>0</ele></trkpt>
      <trkpt lat="36.377972" lon="10.522816"><ele>0</ele></trkpt>
      <trkpt lat="36.378003" lon="10.522743"><ele>0</ele></trkpt>
      <trkpt lat="36.378019" lon="10.522682"><ele>0</ele></trkpt>
      <trkpt lat="36.378017" lon="10.522608"><ele>0</ele></trkpt>
      <trkpt lat="36.377985" lon="10.522543"><ele>0</ele></trkpt>
      <trkpt lat="36.377662" lon="10.522915"><ele>0</ele></trkpt>
      <trkpt lat="36.377389" lon="10.523252"><ele>0</ele></trkpt>
      <trkpt lat="36.377272" lon="10.523361"><ele>0</ele></trkpt>
      <trkpt lat="36.376872" lon="10.523859"><ele>0</ele></trkpt>
      <trkpt lat="36.376578" lon="10.524267"><ele>0</ele></trkpt>
      <trkpt lat="36.376335" lon="10.524581"><ele>0</ele></trkpt>
      <trkpt lat="36.376033" lon="10.524956"><ele>0</ele></trkpt>
      <trkpt lat="36.375856" lon="10.525205"><ele>0</ele></trkpt>
      <trkpt lat="36.375626" lon="10.525459"><ele>0</ele></trkpt>
      <trkpt lat="36.376143" lon="10.526147"><ele>0</ele></trkpt>
      <trkpt lat="36.376488" lon="10.526596"><ele>0</ele></trkpt>
      <trkpt lat="36.37669" lon="10.526857"><ele>0</ele></trkpt>
      <trkpt lat="36.376806" lon="10.527008"><ele>0</ele></trkpt>
      <trkpt lat="36.377289" lon="10.527618"><ele>0</ele></trkpt>
      <trkpt lat="36.377293" lon="10.527658"><ele>0</ele></trkpt>
      <trkpt lat="36.377285" lon="10.527676"><ele>0</ele></trkpt>
      <trkpt lat="36.376629" lon="10.528351"><ele>0</ele></trkpt>
      <trkpt lat="36.376574" lon="10.528393"><ele>0</ele></trkpt>
      <trkpt lat="36.376548" lon="10.528422"><ele>0</ele></trkpt>
      <trkpt lat="36.376345" lon="10.528759"><ele>0</ele></trkpt>
      <trkpt lat="36.376869" lon="10.528974"><ele>0</ele></trkpt>
      <trkpt lat="36.377791" lon="10.529529"><ele>0</ele></trkpt>
      <trkpt lat="36.378202" lon="10.52984"><ele>0</ele></trkpt>
      <trkpt lat="36.378936" lon="10.530484"><ele>0</ele></trkpt>
      <trkpt lat="36.378947" lon="10.530518"><ele>0</ele></trkpt>
      <trkpt lat="36.379004" lon="10.530685"><ele>0</ele></trkpt>
      <trkpt lat="36.379366" lon="10.531753"><ele>0</ele></trkpt>
      <trkpt lat="36.379385" lon="10.531799"><ele>0</ele></trkpt>
      <trkpt lat="36.379717" lon="10.532933"><ele>0</ele></trkpt>
      <trkpt lat="36.379876" lon="10.533445"><ele>0</ele></trkpt>
      <trkpt lat="36.380024" lon="10.533861"><ele>0</ele></trkpt>
      <trkpt lat="36.380128" lon="10.534124"><ele>0</ele></trkpt>
      <trkpt lat="36.380268" lon="10.534517"><ele>0</ele></trkpt>
      <trkpt lat="36.38042" lon="10.535004"><ele>0</ele></trkpt>
      <trkpt lat="36.380643" lon="10.535848"><ele>0</ele></trkpt>
      <trkpt lat="36.380778" lon="10.536306"><ele>0</ele></trkpt>
      <trkpt lat="36.380914" lon="10.536732"><ele>0</ele></trkpt>
      <trkpt lat="36.380404" lon="10.537397"><ele>0</ele></trkpt>
      <trkpt lat="36.380396" lon="10.537415"><ele>0</ele></trkpt>
      <trkpt lat="36.380396" lon="10.537432"><ele>0</ele></trkpt>
      <trkpt lat="36.380467" lon="10.537518"><ele>0</ele></trkpt>
      <trkpt lat="36.380472" lon="10.537536"><ele>0</ele></trkpt>
      <trkpt lat="36.380456" lon="10.537571"><ele>0</ele></trkpt>
      <trkpt lat="36.379984" lon="10.538218"><ele>0</ele></trkpt>
      <trkpt lat="36.379653" lon="10.538647"><ele>0</ele></trkpt>
      <trkpt lat="36.379279" lon="10.53838"><ele>0</ele></trkpt>
      <trkpt lat="36.378942" lon="10.538115"><ele>0</ele></trkpt>
      <trkpt lat="36.378431" lon="10.537713"><ele>0</ele></trkpt>
      <trkpt lat="36.378381" lon="10.537841"><ele>0</ele></trkpt>
      <trkpt lat="36.378318" lon="10.537933"><ele>0</ele></trkpt>
      <trkpt lat="36.378111" lon="10.538112"><ele>0</ele></trkpt>
      <trkpt lat="36.377997" lon="10.538247"><ele>0</ele></trkpt>
      <trkpt lat="36.377872" lon="10.538515"><ele>0</ele></trkpt>
      <trkpt lat="36.377707" lon="10.53881"><ele>0</ele></trkpt>
      <trkpt lat="36.377613" lon="10.538965"><ele>0</ele></trkpt>
      <trkpt lat="36.377483" lon="10.539113"><ele>0</ele></trkpt>
      <trkpt lat="36.377345" lon="10.539236"><ele>0</ele></trkpt>
      <trkpt lat="36.377195" lon="10.539354"><ele>0</ele></trkpt>
      <trkpt lat="36.377115" lon="10.539239"><ele>0</ele></trkpt>
      <trkpt lat="36.376991" lon="10.539337"><ele>0</ele></trkpt>
      <trkpt lat="36.376337" lon="10.538478"><ele>0</ele></trkpt>
      <trkpt lat="36.37539" lon="10.539195"><ele>0</ele></trkpt>
      <trkpt lat="36.375343" lon="10.539195"><ele>0</ele></trkpt>
      <trkpt lat="36.374089" lon="10.538328"><ele>0</ele></trkpt>
      <trkpt lat="36.372614" lon="10.537302"><ele>0</ele></trkpt>
      <trkpt lat="36.372071" lon="10.536928"><ele>0</ele></trkpt>
      <trkpt lat="36.371675" lon="10.536624"><ele>0</ele></trkpt>
      <trkpt lat="36.371184" lon="10.535996"><ele>0</ele></trkpt>
      <trkpt lat="36.370845" lon="10.535548"><ele>0</ele></trkpt>
      <trkpt lat="36.370523" lon="10.535177"><ele>0</ele></trkpt>
      <trkpt lat="36.370316" lon="10.535138"><ele>0</ele></trkpt>
      <trkpt lat="36.370251" lon="10.535267"><ele>0</ele></trkpt>
      <trkpt lat="36.370228" lon="10.535314"><ele>0</ele></trkpt>
      <trkpt lat="36.370046" lon="10.535546"><ele>0</ele></trkpt>
      <trkpt lat="36.369917" lon="10.535684"><ele>0</ele></trkpt>
      <trkpt lat="36.369627" lon="10.535996"><ele>0</ele></trkpt>
      <trkpt lat="36.369193" lon="10.536463"><ele>0</ele></trkpt>
      <trkpt lat="36.369004" lon="10.536212"><ele>0</ele></trkpt>
      <trkpt lat="36.368799" lon="10.535987"><ele>0</ele></trkpt>
      <trkpt lat="36.368321" lon="10.535616"><ele>0</ele></trkpt>
      <trkpt lat="36.368359" lon="10.535552"><ele>0</ele></trkpt>
      <trkpt lat="36.36848" lon="10.535258"><ele>0</ele></trkpt>
      <trkpt lat="36.368443" lon="10.534748"><ele>0</ele></trkpt>
      <trkpt lat="36.368743" lon="10.534755"><ele>0</ele></trkpt>
      <trkpt lat="36.368443" lon="10.534748"><ele>0</ele></trkpt>
      <trkpt lat="36.36848" lon="10.535258"><ele>0</ele></trkpt>
      <trkpt lat="36.368359" lon="10.535552"><ele>0</ele></trkpt>
      <trkpt lat="36.368321" lon="10.535616"><ele>0</ele></trkpt>
      <trkpt lat="36.368799" lon="10.535987"><ele>0</ele></trkpt>
      <trkpt lat="36.369004" lon="10.536212"><ele>0</ele></trkpt>
      <trkpt lat="36.369193" lon="10.536463"><ele>0</ele></trkpt>
      <trkpt lat="36.369627" lon="10.535996"><ele>0</ele></trkpt>
      <trkpt lat="36.369917" lon="10.535684"><ele>0</ele></trkpt>
      <trkpt lat="36.370046" lon="10.535546"><ele>0</ele></trkpt>
      <trkpt lat="36.370228" lon="10.535314"><ele>0</ele></trkpt>
      <trkpt lat="36.370251" lon="10.535267"><ele>0</ele></trkpt>
      <trkpt lat="36.370316" lon="10.535138"><ele>0</ele></trkpt>
      <trkpt lat="36.370344" lon="10.534936"><ele>0</ele></trkpt>
      <trkpt lat="36.370329" lon="10.534809"><ele>0</ele></trkpt>
      <trkpt lat="36.370238" lon="10.534597"><ele>0</ele></trkpt>
      <trkpt lat="36.370148" lon="10.534418"><ele>0</ele></trkpt>
      <trkpt lat="36.369713" lon="10.533722"><ele>0</ele></trkpt>
      <trkpt lat="36.369349" lon="10.533179"><ele>0</ele></trkpt>
      <trkpt lat="36.369105" lon="10.532867"><ele>0</ele></trkpt>
      <trkpt lat="36.368893" lon="10.532673"><ele>0</ele></trkpt>
      <trkpt lat="36.36866" lon="10.532494"><ele>0</ele></trkpt>
      <trkpt lat="36.368401" lon="10.532357"><ele>0</ele></trkpt>
      <trkpt lat="36.368162" lon="10.532271"><ele>0</ele></trkpt>
      <trkpt lat="36.367881" lon="10.532207"><ele>0</ele></trkpt></trkseg></trk></gpx>