<?xml version="1.0" encoding="UTF-8"?><gpx version="1.1" creator="Heripia 3.7.332" xmlns="http://www.topografix.com/GPX/1/1" xmlns:xsi="http://www.w3.org/2001/XMLSchema-instance" xsi:schemaLocation="http://www.topografix.com/GPX/1/1 http://www.topografix.com/GPX/1/1/gpx.xsd">
    <metadata>
        <name>Circuit de Monument du Methred à Musée Néapolis</name>
        <desc>Circuit généré par Heripia — heripia.com</desc>
        <link href="https://heripia.com/">
            <text>Heripia [HW-ID:HW-01KVTS75A7GFYG8DDWD6QQ4WRW]</text>
        </link>
    </metadata>
    <wpt lat="36.4527653" lon="10.7315132">
      <name>Monument du Methred</name>
      <desc></desc>
    </wpt>
    <wpt lat="36.4538697" lon="10.7341455">
      <name>Les Arches</name>
      <desc></desc>
    </wpt>
    <wpt lat="36.4544671" lon="10.7353803">
      <name>Mosquée Essebtia</name>
      <desc></desc>
    </wpt>
    <wpt lat="36.4558924" lon="10.7324831">
      <name>Mosquée EL Salem</name>
      <desc></desc>
    </wpt>
    <wpt lat="36.4573998" lon="10.7338912">
      <name>Mosquée El Rbat</name>
      <desc></desc>
    </wpt>
    <wpt lat="36.4582073" lon="10.7369368">
      <name>Mosquée Sidi Boujèlèbia</name>
      <desc></desc>
    </wpt>
    <wpt lat="36.4567892" lon="10.7363631">
      <name>Grande Mosquée de Nabeul</name>
      <desc></desc>
    </wpt>
    <wpt lat="36.4555709" lon="10.7362122">
      <name>Mosquée Sidi Abdelkader Nabeul</name>
      <desc></desc>
    </wpt>
    <wpt lat="36.4565103" lon="10.7389934">
      <name>Église de Nabeul</name>
      <desc></desc>
    </wpt>
    <wpt lat="36.455691" lon="10.7383473">
      <name>Mosquée Al-Karma</name>
      <desc></desc>
    </wpt>
    <wpt lat="36.4517367" lon="10.7373354">
      <name>Statue Ibn Khaldoun</name>
      <desc></desc>
    </wpt>
    <wpt lat="36.4512951" lon="10.7356379">
      <name>La Jarre</name>
      <desc></desc>
    </wpt>
    <wpt lat="36.4506766" lon="10.7362439">
      <name>Musée Néapolis</name>
      <desc></desc>
    </wpt><trk><name>Circuit de Monument du Methred à Musée Néapolis</name><desc><![CDATA[

Circuit généré par Heripia — heripia.com]]></desc><trkseg><trkpt lat="36.452707" lon="10.731542"><ele>0</ele></trkpt>
      <trkpt lat="36.452702" lon="10.731528"><ele>0</ele></trkpt>
      <trkpt lat="36.452702" lon="10.731491"><ele>0</ele></trkpt>
      <trkpt lat="36.452724" lon="10.731448"><ele>0</ele></trkpt>
      <trkpt lat="36.452745" lon="10.731432"><ele>0</ele></trkpt>
      <trkpt lat="36.452777" lon="10.731428"><ele>0</ele></trkpt>
      <trkpt lat="36.452803" lon="10.731439"><ele>0</ele></trkpt>
      <trkpt lat="36.452825" lon="10.731465"><ele>0</ele></trkpt>
      <trkpt lat="36.453464" lon="10.730995"><ele>0</ele></trkpt>
      <trkpt lat="36.453798" lon="10.730737"><ele>0</ele></trkpt>
      <trkpt lat="36.454016" lon="10.730569"><ele>0</ele></trkpt>
      <trkpt lat="36.454504" lon="10.731871"><ele>0</ele></trkpt>
      <trkpt lat="36.454666" lon="10.7323"><ele>0</ele></trkpt>
      <trkpt lat="36.454344" lon="10.732495"><ele>0</ele></trkpt>
      <trkpt lat="36.454513" lon="10.732927"><ele>0</ele></trkpt>
      <trkpt lat="36.454752" lon="10.733595"><ele>0</ele></trkpt>
      <trkpt lat="36.453854" lon="10.7341"><ele>0</ele></trkpt>
      <trkpt lat="36.453869" lon="10.734145"><ele>0</ele></trkpt>
      <trkpt lat="36.453963" lon="10.734417"><ele>0</ele></trkpt>
      <trkpt lat="36.454092" lon="10.734798"><ele>0</ele></trkpt>
      <trkpt lat="36.454109" lon="10.73484"><ele>0</ele></trkpt>
      <trkpt lat="36.454214" lon="10.735181"><ele>0</ele></trkpt>
      <trkpt lat="36.454884" lon="10.734833"><ele>0</ele></trkpt>
      <trkpt lat="36.454945" lon="10.734673"><ele>0</ele></trkpt>
      <trkpt lat="36.455151" lon="10.73459"><ele>0</ele></trkpt>
      <trkpt lat="36.455404" lon="10.734431"><ele>0</ele></trkpt>
      <trkpt lat="36.455267" lon="10.734006"><ele>0</ele></trkpt>
      <trkpt lat="36.455063" lon="10.733434"><ele>0</ele></trkpt>
      <trkpt lat="36.455302" lon="10.733288"><ele>0</ele></trkpt>
      <trkpt lat="36.455477" lon="10.733173"><ele>0</ele></trkpt>
      <trkpt lat="36.455788" lon="10.732965"><ele>0</ele></trkpt>
      <trkpt lat="36.456033" lon="10.732757"><ele>0</ele></trkpt>
      <trkpt lat="36.456247" lon="10.732477"><ele>0</ele></trkpt>
      <trkpt lat="36.456457" lon="10.733351"><ele>0</ele></trkpt>
      <trkpt lat="36.456609" lon="10.733957"><ele>0</ele></trkpt>
      <trkpt lat="36.456724" lon="10.734411"><ele>0</ele></trkpt>
      <trkpt lat="36.457258" lon="10.734099"><ele>0</ele></trkpt>
      <trkpt lat="36.457418" lon="10.734004"><ele>0</ele></trkpt>
      <trkpt lat="36.45758" lon="10.734419"><ele>0</ele></trkpt>
      <trkpt lat="36.457626" lon="10.734583"><ele>0</ele></trkpt>
      <trkpt lat="36.457801" lon="10.735218"><ele>0</ele></trkpt>
      <trkpt lat="36.45762" lon="10.735321"><ele>0</ele></trkpt>
      <trkpt lat="36.457605" lon="10.735344"><ele>0</ele></trkpt>
      <trkpt lat="36.457715" lon="10.735761"><ele>0</ele></trkpt>
      <trkpt lat="36.457819" lon="10.736158"><ele>0</ele></trkpt>
      <trkpt lat="36.45784" lon="10.736205"><ele>0</ele></trkpt>
      <trkpt lat="36.458026" lon="10.73663"><ele>0</ele></trkpt>
      <trkpt lat="36.458184" lon="10.73711"><ele>0</ele></trkpt>
      <trkpt lat="36.458199" lon="10.737153"><ele>0</ele></trkpt>
      <trkpt lat="36.45764" lon="10.737531"><ele>0</ele></trkpt>
      <trkpt lat="36.457547" lon="10.737283"><ele>0</ele></trkpt>
      <trkpt lat="36.457357" lon="10.73672"><ele>0</ele></trkpt>
      <trkpt lat="36.457273" lon="10.736578"><ele>0</ele></trkpt>
      <trkpt lat="36.457249" lon="10.736528"><ele>0</ele></trkpt>
      <trkpt lat="36.457233" lon="10.736476"><ele>0</ele></trkpt>
      <trkpt lat="36.456841" lon="10.736657"><ele>0</ele></trkpt>
      <trkpt lat="36.457233" lon="10.736476"><ele>0</ele></trkpt>
      <trkpt lat="36.457151" lon="10.736224"><ele>0</ele></trkpt>
      <trkpt lat="36.45715" lon="10.736193"><ele>0</ele></trkpt>
      <trkpt lat="36.457165" lon="10.736153"><ele>0</ele></trkpt>
      <trkpt lat="36.457167" lon="10.736113"><ele>0</ele></trkpt>
      <trkpt lat="36.457059" lon="10.73561"><ele>0</ele></trkpt>
      <trkpt lat="36.456957" lon="10.735267"><ele>0</ele></trkpt>
      <trkpt lat="36.4567" lon="10.735405"><ele>0</ele></trkpt>
      <trkpt lat="36.456407" lon="10.735501"><ele>0</ele></trkpt>
      <trkpt lat="36.456355" lon="10.735578"><ele>0</ele></trkpt>
      <trkpt lat="36.456341" lon="10.735611"><ele>0</ele></trkpt>
      <trkpt lat="36.456361" lon="10.735804"><ele>0</ele></trkpt>
      <trkpt lat="36.456428" lon="10.736031"><ele>0</ele></trkpt>
      <trkpt lat="36.456448" lon="10.736098"><ele>0</ele></trkpt>
      <trkpt lat="36.456325" lon="10.73616"><ele>0</ele></trkpt>
      <trkpt lat="36.456253" lon="10.736021"><ele>0</ele></trkpt>
      <trkpt lat="36.456248" lon="10.73602"><ele>0</ele></trkpt>
      <trkpt lat="36.455838" lon="10.736158"><ele>0</ele></trkpt>
      <trkpt lat="36.455355" lon="10.736485"><ele>0</ele></trkpt>
      <trkpt lat="36.455598" lon="10.736981"><ele>0</ele></trkpt>
      <trkpt lat="36.455765" lon="10.737319"><ele>0</ele></trkpt>
      <trkpt lat="36.456008" lon="10.737171"><ele>0</ele></trkpt>
      <trkpt lat="36.456032" lon="10.73723"><ele>0</ele></trkpt>
      <trkpt lat="36.456134" lon="10.737179"><ele>0</ele></trkpt>
      <trkpt lat="36.45615" lon="10.737219"><ele>0</ele></trkpt>
      <trkpt lat="36.456315" lon="10.737139"><ele>0</ele></trkpt>
      <trkpt lat="36.456533" lon="10.737698"><ele>0</ele></trkpt>
      <trkpt lat="36.456559" lon="10.737688"><ele>0</ele></trkpt>
      <trkpt lat="36.456663" lon="10.738028"><ele>0</ele></trkpt>
      <trkpt lat="36.456482" lon="10.738109"><ele>0</ele></trkpt>
      <trkpt lat="36.456627" lon="10.738713"><ele>0</ele></trkpt>
      <trkpt lat="36.45629" lon="10.738798"><ele>0</ele></trkpt>
      <trkpt lat="36.456006" lon="10.73887"><ele>0</ele></trkpt>
      <trkpt lat="36.455749" lon="10.739042"><ele>0</ele></trkpt>
      <trkpt lat="36.455715" lon="10.739044"><ele>0</ele></trkpt>
      <trkpt lat="36.4557" lon="10.739029"><ele>0</ele></trkpt>
      <trkpt lat="36.455686" lon="10.738999"><ele>0</ele></trkpt>
      <trkpt lat="36.45557" lon="10.738497"><ele>0</ele></trkpt>
      <trkpt lat="36.455513" lon="10.738521"><ele>0</ele></trkpt>
      <trkpt lat="36.455483" lon="10.738541"><ele>0</ele></trkpt>
      <trkpt lat="36.455411" lon="10.738627"><ele>0</ele></trkpt>
      <trkpt lat="36.455168" lon="10.739066"><ele>0</ele></trkpt>
      <trkpt lat="36.455085" lon="10.739178"><ele>0</ele></trkpt>
      <trkpt lat="36.454591" lon="10.73977"><ele>0</ele></trkpt>
      <trkpt lat="36.454407" lon="10.74"><ele>0</ele></trkpt>
      <trkpt lat="36.454049" lon="10.738949"><ele>0</ele></trkpt>
      <trkpt lat="36.454043" lon="10.738933"><ele>0</ele></trkpt>
      <trkpt lat="36.45381" lon="10.738291"><ele>0</ele></trkpt>
      <trkpt lat="36.453629" lon="10.737794"><ele>0</ele></trkpt>
      <trkpt lat="36.453183" lon="10.736567"><ele>0</ele></trkpt>
      <trkpt lat="36.452909" lon="10.736683"><ele>0</ele></trkpt>
      <trkpt lat="36.452271" lon="10.737029"><ele>0</ele></trkpt>
      <trkpt lat="36.451857" lon="10.737257"><ele>0</ele></trkpt>
      <trkpt lat="36.451874" lon="10.737305"><ele>0</ele></trkpt>
      <trkpt lat="36.451863" lon="10.737416"><ele>0</ele></trkpt>
      <trkpt lat="36.451819" lon="10.737453"><ele>0</ele></trkpt>
      <trkpt lat="36.451754" lon="10.737485"><ele>0</ele></trkpt>
      <trkpt lat="36.451715" lon="10.737496"><ele>0</ele></trkpt>
      <trkpt lat="36.451685" lon="10.737474"><ele>0</ele></trkpt>
      <trkpt lat="36.451658" lon="10.737434"><ele>0</ele></trkpt>
      <trkpt lat="36.451719" lon="10.737379"><ele>0</ele></trkpt>
      <trkpt lat="36.451711" lon="10.737371"><ele>0</ele></trkpt>
      <trkpt lat="36.451719" lon="10.737379"><ele>0</ele></trkpt>
      <trkpt lat="36.451658" lon="10.737434"><ele>0</ele></trkpt>
      <trkpt lat="36.45163" lon="10.737362"><ele>0</ele></trkpt>
      <trkpt lat="36.451131" lon="10.7377"><ele>0</ele></trkpt>
      <trkpt lat="36.450811" lon="10.737064"><ele>0</ele></trkpt>
      <trkpt lat="36.450783" lon="10.737018"><ele>0</ele></trkpt>
      <trkpt lat="36.450446" lon="10.736192"><ele>0</ele></trkpt>
      <trkpt lat="36.450964" lon="10.735904"><ele>0</ele></trkpt>
      <trkpt lat="36.4512" lon="10.73575"><ele>0</ele></trkpt>
      <trkpt lat="36.451258" lon="10.735712"><ele>0</ele></trkpt>
      <trkpt lat="36.451301" lon="10.735718"><ele>0</ele></trkpt>
      <trkpt lat="36.451316" lon="10.735711"><ele>0</ele></trkpt>
      <trkpt lat="36.451301" lon="10.735718"><ele>0</ele></trkpt>
      <trkpt lat="36.451258" lon="10.735712"><ele>0</ele></trkpt>
      <trkpt lat="36.4512" lon="10.73575"><ele>0</ele></trkpt>
      <trkpt lat="36.450964" lon="10.735904"><ele>0</ele></trkpt>
      <trkpt lat="36.450446" lon="10.736192"><ele>0</ele></trkpt></trkseg></trk></gpx>