<?xml version="1.0" encoding="UTF-8"?><gpx version="1.1" creator="Heripia 3.7.384" xmlns="http://www.topografix.com/GPX/1/1" xmlns:xsi="http://www.w3.org/2001/XMLSchema-instance" xsi:schemaLocation="http://www.topografix.com/GPX/1/1 http://www.topografix.com/GPX/1/1/gpx.xsd">
    <metadata>
        <name>Boucle autour du Rym Beach</name>
        <desc>Circuit généré par Heripia — heripia.com</desc>
        <link href="https://heripia.com/">
            <text>Heripia [HW-ID:HW-01M28T9V3EP7SNPM7VV38HEXQ7]</text>
        </link>
    </metadata>
    <wpt lat="33.826540531288295" lon="11.046173596441804">
      <name>Rym Beach</name>
      <desc>Hôtel au très bon rapport qualité/Prix</desc>
      <link href="https://www.seabelhotels.com/fr/seabel-rym-beach/accueil/">
        <text>Lien vers le site</text>
      </link>
    </wpt>
    <wpt lat="33.82269956652683" lon="11.042709897308695">
      <name>Phare de Taguermess</name>
      <desc></desc>
      <link href="https://fr.wikipedia.org/wiki/Phare_de_Taguermess">
        <text>Lien vers le site</text>
      </link>
    </wpt>
    <wpt lat="33.818556" lon="11.035722">
      <name>Mosquée Ibn Abbas</name>
      <desc></desc>
    </wpt>
    <wpt lat="33.8202469" lon="11.0297835">
      <name>Mosquée Elmaghfira</name>
      <desc></desc>
    </wpt>
    <wpt lat="33.819583" lon="11.025722">
      <name>Mosquée Ténafsa</name>
      <desc></desc>
    </wpt>
    <wpt lat="33.830837" lon="11.029991">
      <name>Cheikh Sidi Slimen</name>
      <desc></desc>
    </wpt>
    <wpt lat="33.826540531288295" lon="11.046173596441804">
      <name>Rym Beach</name>
      <desc>Hôtel au très bon rapport qualité/Prix</desc>
      <link href="https://www.seabelhotels.com/fr/seabel-rym-beach/accueil/">
        <text>Lien vers le site</text>
      </link>
    </wpt><trk><name>Boucle autour du Rym Beach</name><desc><![CDATA[Circuit généré par Heripia — heripia.com]]></desc><trkseg><trkpt lat="33.825842" lon="11.046446"><ele>0</ele></trkpt>
      <trkpt lat="33.825796" lon="11.046435"><ele>0</ele></trkpt>
      <trkpt lat="33.825672" lon="11.0465"><ele>0</ele></trkpt>
      <trkpt lat="33.825624" lon="11.046372"><ele>0</ele></trkpt>
      <trkpt lat="33.825491" lon="11.046432"><ele>0</ele></trkpt>
      <trkpt lat="33.825431" lon="11.04643"><ele>0</ele></trkpt>
      <trkpt lat="33.825266" lon="11.046396"><ele>0</ele></trkpt>
      <trkpt lat="33.825187" lon="11.046344"><ele>0</ele></trkpt>
      <trkpt lat="33.825113" lon="11.0462"><ele>0</ele></trkpt>
      <trkpt lat="33.825" lon="11.046249"><ele>0</ele></trkpt>
      <trkpt lat="33.824914" lon="11.046271"><ele>0</ele></trkpt>
      <trkpt lat="33.824755" lon="11.046285"><ele>0</ele></trkpt>
      <trkpt lat="33.824673" lon="11.046298"><ele>0</ele></trkpt>
      <trkpt lat="33.824602" lon="11.046318"><ele>0</ele></trkpt>
      <trkpt lat="33.824352" lon="11.046403"><ele>0</ele></trkpt>
      <trkpt lat="33.824289" lon="11.046436"><ele>0</ele></trkpt>
      <trkpt lat="33.824252" lon="11.046466"><ele>0</ele></trkpt>
      <trkpt lat="33.824165" lon="11.04656"><ele>0</ele></trkpt>
      <trkpt lat="33.823873" lon="11.046927"><ele>0</ele></trkpt>
      <trkpt lat="33.823648" lon="11.047237"><ele>0</ele></trkpt>
      <trkpt lat="33.823597" lon="11.047348"><ele>0</ele></trkpt>
      <trkpt lat="33.823583" lon="11.047424"><ele>0</ele></trkpt>
      <trkpt lat="33.823578" lon="11.047501"><ele>0</ele></trkpt>
      <trkpt lat="33.823587" lon="11.047608"><ele>0</ele></trkpt>
      <trkpt lat="33.823409" lon="11.047638"><ele>0</ele></trkpt>
      <trkpt lat="33.823175" lon="11.047584"><ele>0</ele></trkpt>
      <trkpt lat="33.82279" lon="11.047434"><ele>0</ele></trkpt>
      <trkpt lat="33.822664" lon="11.047325"><ele>0</ele></trkpt>
      <trkpt lat="33.822373" lon="11.046728"><ele>0</ele></trkpt>
      <trkpt lat="33.822173" lon="11.046427"><ele>0</ele></trkpt>
      <trkpt lat="33.822137" lon="11.046339"><ele>0</ele></trkpt>
      <trkpt lat="33.82195" lon="11.045493"><ele>0</ele></trkpt>
      <trkpt lat="33.821822" lon="11.04485"><ele>0</ele></trkpt>
      <trkpt lat="33.8217" lon="11.044298"><ele>0</ele></trkpt>
      <trkpt lat="33.821472" lon="11.043127"><ele>0</ele></trkpt>
      <trkpt lat="33.821327" lon="11.04218"><ele>0</ele></trkpt>
      <trkpt lat="33.821582" lon="11.042129"><ele>0</ele></trkpt>
      <trkpt lat="33.821751" lon="11.042088"><ele>0</ele></trkpt>
      <trkpt lat="33.821893" lon="11.042117"><ele>0</ele></trkpt>
      <trkpt lat="33.822022" lon="11.042135"><ele>0</ele></trkpt>
      <trkpt lat="33.822184" lon="11.042128"><ele>0</ele></trkpt>
      <trkpt lat="33.822423" lon="11.04213"><ele>0</ele></trkpt>
      <trkpt lat="33.822559" lon="11.042169"><ele>0</ele></trkpt>
      <trkpt lat="33.822689" lon="11.042219"><ele>0</ele></trkpt>
      <trkpt lat="33.822807" lon="11.042274"><ele>0</ele></trkpt>
      <trkpt lat="33.822925" lon="11.042346"><ele>0</ele></trkpt>
      <trkpt lat="33.822807" lon="11.042274"><ele>0</ele></trkpt>
      <trkpt lat="33.822689" lon="11.042219"><ele>0</ele></trkpt>
      <trkpt lat="33.822559" lon="11.042169"><ele>0</ele></trkpt>
      <trkpt lat="33.822423" lon="11.04213"><ele>0</ele></trkpt>
      <trkpt lat="33.822184" lon="11.042128"><ele>0</ele></trkpt>
      <trkpt lat="33.822022" lon="11.042135"><ele>0</ele></trkpt>
      <trkpt lat="33.821893" lon="11.042117"><ele>0</ele></trkpt>
      <trkpt lat="33.821751" lon="11.042088"><ele>0</ele></trkpt>
      <trkpt lat="33.821724" lon="11.041956"><ele>0</ele></trkpt>
      <trkpt lat="33.821686" lon="11.041844"><ele>0</ele></trkpt>
      <trkpt lat="33.82148" lon="11.041408"><ele>0</ele></trkpt>
      <trkpt lat="33.821462" lon="11.041376"><ele>0</ele></trkpt>
      <trkpt lat="33.821307" lon="11.041095"><ele>0</ele></trkpt>
      <trkpt lat="33.821233" lon="11.041157"><ele>0</ele></trkpt>
      <trkpt lat="33.821193" lon="11.041149"><ele>0</ele></trkpt>
      <trkpt lat="33.821123" lon="11.041153"><ele>0</ele></trkpt>
      <trkpt lat="33.821052" lon="11.041173"><ele>0</ele></trkpt>
      <trkpt lat="33.820705" lon="11.041223"><ele>0</ele></trkpt>
      <trkpt lat="33.820294" lon="11.041301"><ele>0</ele></trkpt>
      <trkpt lat="33.820162" lon="11.041297"><ele>0</ele></trkpt>
      <trkpt lat="33.820014" lon="11.041267"><ele>0</ele></trkpt>
      <trkpt lat="33.819809" lon="11.041213"><ele>0</ele></trkpt>
      <trkpt lat="33.819578" lon="11.041124"><ele>0</ele></trkpt>
      <trkpt lat="33.81927" lon="11.040953"><ele>0</ele></trkpt>
      <trkpt lat="33.81921" lon="11.040925"><ele>0</ele></trkpt>
      <trkpt lat="33.81902" lon="11.04086"><ele>0</ele></trkpt>
      <trkpt lat="33.818883" lon="11.0408"><ele>0</ele></trkpt>
      <trkpt lat="33.818748" lon="11.040731"><ele>0</ele></trkpt>
      <trkpt lat="33.818202" lon="11.040359"><ele>0</ele></trkpt>
      <trkpt lat="33.818035" lon="11.040263"><ele>0</ele></trkpt>
      <trkpt lat="33.818206" lon="11.039613"><ele>0</ele></trkpt>
      <trkpt lat="33.818215" lon="11.039587"><ele>0</ele></trkpt>
      <trkpt lat="33.818275" lon="11.039505"><ele>0</ele></trkpt>
      <trkpt lat="33.818282" lon="11.039475"><ele>0</ele></trkpt>
      <trkpt lat="33.818283" lon="11.039334"><ele>0</ele></trkpt>
      <trkpt lat="33.818274" lon="11.039206"><ele>0</ele></trkpt>
      <trkpt lat="33.818264" lon="11.039153"><ele>0</ele></trkpt>
      <trkpt lat="33.818234" lon="11.039094"><ele>0</ele></trkpt>
      <trkpt lat="33.818191" lon="11.03906"><ele>0</ele></trkpt>
      <trkpt lat="33.818156" lon="11.039007"><ele>0</ele></trkpt>
      <trkpt lat="33.818141" lon="11.038961"><ele>0</ele></trkpt>
      <trkpt lat="33.818134" lon="11.038748"><ele>0</ele></trkpt>
      <trkpt lat="33.818113" lon="11.038459"><ele>0</ele></trkpt>
      <trkpt lat="33.818115" lon="11.037778"><ele>0</ele></trkpt>
      <trkpt lat="33.818109" lon="11.037675"><ele>0</ele></trkpt>
      <trkpt lat="33.818129" lon="11.037538"><ele>0</ele></trkpt>
      <trkpt lat="33.818167" lon="11.037392"><ele>0</ele></trkpt>
      <trkpt lat="33.818195" lon="11.037324"><ele>0</ele></trkpt>
      <trkpt lat="33.818218" lon="11.03729"><ele>0</ele></trkpt>
      <trkpt lat="33.818411" lon="11.037068"><ele>0</ele></trkpt>
      <trkpt lat="33.81845" lon="11.037013"><ele>0</ele></trkpt>
      <trkpt lat="33.818473" lon="11.036959"><ele>0</ele></trkpt>
      <trkpt lat="33.818495" lon="11.036857"><ele>0</ele></trkpt>
      <trkpt lat="33.818514" lon="11.036701"><ele>0</ele></trkpt>
      <trkpt lat="33.818558" lon="11.036208"><ele>0</ele></trkpt>
      <trkpt lat="33.818587" lon="11.036034"><ele>0</ele></trkpt>
      <trkpt lat="33.818606" lon="11.035934"><ele>0</ele></trkpt>
      <trkpt lat="33.818637" lon="11.035849"><ele>0</ele></trkpt>
      <trkpt lat="33.818606" lon="11.035934"><ele>0</ele></trkpt>
      <trkpt lat="33.818587" lon="11.036034"><ele>0</ele></trkpt>
      <trkpt lat="33.818554" lon="11.036089"><ele>0</ele></trkpt>
      <trkpt lat="33.818529" lon="11.036115"><ele>0</ele></trkpt>
      <trkpt lat="33.818483" lon="11.036128"><ele>0</ele></trkpt>
      <trkpt lat="33.818257" lon="11.036123"><ele>0</ele></trkpt>
      <trkpt lat="33.818149" lon="11.036132"><ele>0</ele></trkpt>
      <trkpt lat="33.817836" lon="11.036194"><ele>0</ele></trkpt>
      <trkpt lat="33.817694" lon="11.036239"><ele>0</ele></trkpt>
      <trkpt lat="33.817394" lon="11.03636"><ele>0</ele></trkpt>
      <trkpt lat="33.816957" lon="11.036517"><ele>0</ele></trkpt>
      <trkpt lat="33.816885" lon="11.036544"><ele>0</ele></trkpt>
      <trkpt lat="33.816471" lon="11.036781"><ele>0</ele></trkpt>
      <trkpt lat="33.815944" lon="11.036981"><ele>0</ele></trkpt>
      <trkpt lat="33.815832" lon="11.037004"><ele>0</ele></trkpt>
      <trkpt lat="33.815795" lon="11.036948"><ele>0</ele></trkpt>
      <trkpt lat="33.815782" lon="11.036902"><ele>0</ele></trkpt>
      <trkpt lat="33.815831" lon="11.03665"><ele>0</ele></trkpt>
      <trkpt lat="33.815876" lon="11.036468"><ele>0</ele></trkpt>
      <trkpt lat="33.815924" lon="11.03631"><ele>0</ele></trkpt>
      <trkpt lat="33.815982" lon="11.036156"><ele>0</ele></trkpt>
      <trkpt lat="33.81607" lon="11.03598"><ele>0</ele></trkpt>
      <trkpt lat="33.81615" lon="11.035859"><ele>0</ele></trkpt>
      <trkpt lat="33.816299" lon="11.03556"><ele>0</ele></trkpt>
      <trkpt lat="33.816366" lon="11.035356"><ele>0</ele></trkpt>
      <trkpt lat="33.816393" lon="11.035227"><ele>0</ele></trkpt>
      <trkpt lat="33.816405" lon="11.035163"><ele>0</ele></trkpt>
      <trkpt lat="33.816425" lon="11.034886"><ele>0</ele></trkpt>
      <trkpt lat="33.816434" lon="11.034653"><ele>0</ele></trkpt>
      <trkpt lat="33.816455" lon="11.034577"><ele>0</ele></trkpt>
      <trkpt lat="33.816473" lon="11.034535"><ele>0</ele></trkpt>
      <trkpt lat="33.816497" lon="11.034499"><ele>0</ele></trkpt>
      <trkpt lat="33.816671" lon="11.034291"><ele>0</ele></trkpt>
      <trkpt lat="33.816715" lon="11.034198"><ele>0</ele></trkpt>
      <trkpt lat="33.816759" lon="11.034059"><ele>0</ele></trkpt>
      <trkpt lat="33.816776" lon="11.03401"><ele>0</ele></trkpt>
      <trkpt lat="33.816809" lon="11.033943"><ele>0</ele></trkpt>
      <trkpt lat="33.816855" lon="11.033873"><ele>0</ele></trkpt>
      <trkpt lat="33.816908" lon="11.033732"><ele>0</ele></trkpt>
      <trkpt lat="33.816935" lon="11.033628"><ele>0</ele></trkpt>
      <trkpt lat="33.817001" lon="11.033212"><ele>0</ele></trkpt>
      <trkpt lat="33.817098" lon="11.032758"><ele>0</ele></trkpt>
      <trkpt lat="33.817127" lon="11.032581"><ele>0</ele></trkpt>
      <trkpt lat="33.817243" lon="11.032573"><ele>0</ele></trkpt>
      <trkpt lat="33.817307" lon="11.032522"><ele>0</ele></trkpt>
      <trkpt lat="33.817335" lon="11.032474"><ele>0</ele></trkpt>
      <trkpt lat="33.817504" lon="11.032105"><ele>0</ele></trkpt>
      <trkpt lat="33.817541" lon="11.032055"><ele>0</ele></trkpt>
      <trkpt lat="33.817586" lon="11.032012"><ele>0</ele></trkpt>
      <trkpt lat="33.817661" lon="11.031967"><ele>0</ele></trkpt>
      <trkpt lat="33.817792" lon="11.03194"><ele>0</ele></trkpt>
      <trkpt lat="33.818112" lon="11.03193"><ele>0</ele></trkpt>
      <trkpt lat="33.818212" lon="11.031934"><ele>0</ele></trkpt>
      <trkpt lat="33.818265" lon="11.031946"><ele>0</ele></trkpt>
      <trkpt lat="33.818313" lon="11.031969"><ele>0</ele></trkpt>
      <trkpt lat="33.81836" lon="11.032007"><ele>0</ele></trkpt>
      <trkpt lat="33.818416" lon="11.032073"><ele>0</ele></trkpt>
      <trkpt lat="33.818449" lon="11.032099"><ele>0</ele></trkpt>
      <trkpt lat="33.81851" lon="11.032131"><ele>0</ele></trkpt>
      <trkpt lat="33.819134" lon="11.032164"><ele>0</ele></trkpt>
      <trkpt lat="33.819533" lon="11.032139"><ele>0</ele></trkpt>
      <trkpt lat="33.819642" lon="11.032126"><ele>0</ele></trkpt>
      <trkpt lat="33.819743" lon="11.032098"><ele>0</ele></trkpt>
      <trkpt lat="33.819823" lon="11.03207"><ele>0</ele></trkpt>
      <trkpt lat="33.819675" lon="11.031492"><ele>0</ele></trkpt>
      <trkpt lat="33.819399" lon="11.030466"><ele>0</ele></trkpt>
      <trkpt lat="33.819675" lon="11.030409"><ele>0</ele></trkpt>
      <trkpt lat="33.819969" lon="11.030327"><ele>0</ele></trkpt>
      <trkpt lat="33.820108" lon="11.030297"><ele>0</ele></trkpt>
      <trkpt lat="33.820268" lon="11.030278"><ele>0</ele></trkpt>
      <trkpt lat="33.820247" lon="11.029978"><ele>0</ele></trkpt>
      <trkpt lat="33.820238" lon="11.029946"><ele>0</ele></trkpt>
      <trkpt lat="33.820224" lon="11.029926"><ele>0</ele></trkpt>
      <trkpt lat="33.820168" lon="11.029867"><ele>0</ele></trkpt>
      <trkpt lat="33.820152" lon="11.029831"><ele>0</ele></trkpt>
      <trkpt lat="33.820141" lon="11.029778"><ele>0</ele></trkpt>
      <trkpt lat="33.820146" lon="11.029695"><ele>0</ele></trkpt>
      <trkpt lat="33.820178" lon="11.029608"><ele>0</ele></trkpt>
      <trkpt lat="33.820273" lon="11.029441"><ele>0</ele></trkpt>
      <trkpt lat="33.820318" lon="11.029408"><ele>0</ele></trkpt>
      <trkpt lat="33.82048" lon="11.029384"><ele>0</ele></trkpt>
      <trkpt lat="33.820572" lon="11.029359"><ele>0</ele></trkpt>
      <trkpt lat="33.820596" lon="11.029343"><ele>0</ele></trkpt>
      <trkpt lat="33.820616" lon="11.029319"><ele>0</ele></trkpt>
      <trkpt lat="33.820636" lon="11.029279"><ele>0</ele></trkpt>
      <trkpt lat="33.820647" lon="11.029218"><ele>0</ele></trkpt>
      <trkpt lat="33.820659" lon="11.028886"><ele>0</ele></trkpt>
      <trkpt lat="33.820672" lon="11.028819"><ele>0</ele></trkpt>
      <trkpt lat="33.820723" lon="11.028765"><ele>0</ele></trkpt>
      <trkpt lat="33.820813" lon="11.028708"><ele>0</ele></trkpt>
      <trkpt lat="33.820827" lon="11.028688"><ele>0</ele></trkpt>
      <trkpt lat="33.820899" lon="11.028529"><ele>0</ele></trkpt>
      <trkpt lat="33.820989" lon="11.028466"><ele>0</ele></trkpt>
      <trkpt lat="33.821035" lon="11.028453"><ele>0</ele></trkpt>
      <trkpt lat="33.821173" lon="11.028436"><ele>0</ele></trkpt>
      <trkpt lat="33.821232" lon="11.028403"><ele>0</ele></trkpt>
      <trkpt lat="33.821291" lon="11.02833"><ele>0</ele></trkpt>
      <trkpt lat="33.821355" lon="11.028205"><ele>0</ele></trkpt>
      <trkpt lat="33.821572" lon="11.028159"><ele>0</ele></trkpt>
      <trkpt lat="33.821568" lon="11.028077"><ele>0</ele></trkpt>
      <trkpt lat="33.821581" lon="11.027583"><ele>0</ele></trkpt>
      <trkpt lat="33.821537" lon="11.027264"><ele>0</ele></trkpt>
      <trkpt lat="33.821524" lon="11.027241"><ele>0</ele></trkpt>
      <trkpt lat="33.821437" lon="11.027157"><ele>0</ele></trkpt>
      <trkpt lat="33.821403" lon="11.027086"><ele>0</ele></trkpt>
      <trkpt lat="33.821391" lon="11.027025"><ele>0</ele></trkpt>
      <trkpt lat="33.821411" lon="11.026686"><ele>0</ele></trkpt>
      <trkpt lat="33.821074" lon="11.026619"><ele>0</ele></trkpt>
      <trkpt lat="33.821005" lon="11.026612"><ele>0</ele></trkpt>
      <trkpt lat="33.820923" lon="11.026615"><ele>0</ele></trkpt>
      <trkpt lat="33.82062" lon="11.026673"><ele>0</ele></trkpt>
      <trkpt lat="33.819827" lon="11.02665"><ele>0</ele></trkpt>
      <trkpt lat="33.819492" lon="11.026592"><ele>0</ele></trkpt>
      <trkpt lat="33.819569" lon="11.026309"><ele>0</ele></trkpt>
      <trkpt lat="33.819617" lon="11.026131"><ele>0</ele></trkpt>
      <trkpt lat="33.819697" lon="11.025946"><ele>0</ele></trkpt>
      <trkpt lat="33.819791" lon="11.025788"><ele>0</ele></trkpt>
      <trkpt lat="33.819697" lon="11.025946"><ele>0</ele></trkpt>
      <trkpt lat="33.819617" lon="11.026131"><ele>0</ele></trkpt>
      <trkpt lat="33.819569" lon="11.026309"><ele>0</ele></trkpt>
      <trkpt lat="33.819492" lon="11.026592"><ele>0</ele></trkpt>
      <trkpt lat="33.819827" lon="11.02665"><ele>0</ele></trkpt>
      <trkpt lat="33.82062" lon="11.026673"><ele>0</ele></trkpt>
      <trkpt lat="33.820923" lon="11.026615"><ele>0</ele></trkpt>
      <trkpt lat="33.821005" lon="11.026612"><ele>0</ele></trkpt>
      <trkpt lat="33.821074" lon="11.026619"><ele>0</ele></trkpt>
      <trkpt lat="33.821411" lon="11.026686"><ele>0</ele></trkpt>
      <trkpt lat="33.821638" lon="11.026697"><ele>0</ele></trkpt>
      <trkpt lat="33.821917" lon="11.026693"><ele>0</ele></trkpt>
      <trkpt lat="33.822503" lon="11.026646"><ele>0</ele></trkpt>
      <trkpt lat="33.822844" lon="11.026591"><ele>0</ele></trkpt>
      <trkpt lat="33.822905" lon="11.026586"><ele>0</ele></trkpt>
      <trkpt lat="33.822975" lon="11.026595"><ele>0</ele></trkpt>
      <trkpt lat="33.823038" lon="11.026611"><ele>0</ele></trkpt>
      <trkpt lat="33.823154" lon="11.026669"><ele>0</ele></trkpt>
      <trkpt lat="33.82323" lon="11.026719"><ele>0</ele></trkpt>
      <trkpt lat="33.823376" lon="11.026779"><ele>0</ele></trkpt>
      <trkpt lat="33.823546" lon="11.026806"><ele>0</ele></trkpt>
      <trkpt lat="33.823672" lon="11.026808"><ele>0</ele></trkpt>
      <trkpt lat="33.823937" lon="11.026804"><ele>0</ele></trkpt>
      <trkpt lat="33.82414" lon="11.026836"><ele>0</ele></trkpt>
      <trkpt lat="33.824303" lon="11.026883"><ele>0</ele></trkpt>
      <trkpt lat="33.824688" lon="11.027038"><ele>0</ele></trkpt>
      <trkpt lat="33.825193" lon="11.027256"><ele>0</ele></trkpt>
      <trkpt lat="33.825286" lon="11.027296"><ele>0</ele></trkpt>
      <trkpt lat="33.826197" lon="11.027597"><ele>0</ele></trkpt>
      <trkpt lat="33.826331" lon="11.027643"><ele>0</ele></trkpt>
      <trkpt lat="33.826466" lon="11.027701"><ele>0</ele></trkpt>
      <trkpt lat="33.826459" lon="11.027729"><ele>0</ele></trkpt>
      <trkpt lat="33.82646" lon="11.027759"><ele>0</ele></trkpt>
      <trkpt lat="33.826482" lon="11.027811"><ele>0</ele></trkpt>
      <trkpt lat="33.826504" lon="11.027831"><ele>0</ele></trkpt>
      <trkpt lat="33.82653" lon="11.027842"><ele>0</ele></trkpt>
      <trkpt lat="33.826558" lon="11.027842"><ele>0</ele></trkpt>
      <trkpt lat="33.826585" lon="11.027832"><ele>0</ele></trkpt>
      <trkpt lat="33.826607" lon="11.027811"><ele>0</ele></trkpt>
      <trkpt lat="33.826622" lon="11.027783"><ele>0</ele></trkpt>
      <trkpt lat="33.826774" lon="11.028276"><ele>0</ele></trkpt>
      <trkpt lat="33.826887" lon="11.028301"><ele>0</ele></trkpt>
      <trkpt lat="33.826927" lon="11.028285"><ele>0</ele></trkpt>
      <trkpt lat="33.82697" lon="11.028258"><ele>0</ele></trkpt>
      <trkpt lat="33.827003" lon="11.028221"><ele>0</ele></trkpt>
      <trkpt lat="33.827049" lon="11.028136"><ele>0</ele></trkpt>
      <trkpt lat="33.82708" lon="11.028058"><ele>0</ele></trkpt>
      <trkpt lat="33.827036" lon="11.028295"><ele>0</ele></trkpt>
      <trkpt lat="33.827002" lon="11.028569"><ele>0</ele></trkpt>
      <trkpt lat="33.826977" lon="11.028909"><ele>0</ele></trkpt>
      <trkpt lat="33.82696" lon="11.029064"><ele>0</ele></trkpt>
      <trkpt lat="33.827036" lon="11.029989"><ele>0</ele></trkpt>
      <trkpt lat="33.8272" lon="11.029964"><ele>0</ele></trkpt>
      <trkpt lat="33.827431" lon="11.02993"><ele>0</ele></trkpt>
      <trkpt lat="33.827567" lon="11.029891"><ele>0</ele></trkpt>
      <trkpt lat="33.827685" lon="11.029827"><ele>0</ele></trkpt>
      <trkpt lat="33.827755" lon="11.02976"><ele>0</ele></trkpt>
      <trkpt lat="33.827795" lon="11.029692"><ele>0</ele></trkpt>
      <trkpt lat="33.827838" lon="11.02957"><ele>0</ele></trkpt>
      <trkpt lat="33.827878" lon="11.029493"><ele>0</ele></trkpt>
      <trkpt lat="33.827931" lon="11.02944"><ele>0</ele></trkpt>
      <trkpt lat="33.827988" lon="11.029404"><ele>0</ele></trkpt>
      <trkpt lat="33.828117" lon="11.029376"><ele>0</ele></trkpt>
      <trkpt lat="33.828454" lon="11.029322"><ele>0</ele></trkpt>
      <trkpt lat="33.829022" lon="11.02923"><ele>0</ele></trkpt>
      <trkpt lat="33.829238" lon="11.029195"><ele>0</ele></trkpt>
      <trkpt lat="33.830032" lon="11.029067"><ele>0</ele></trkpt>
      <trkpt lat="33.830072" lon="11.029091"><ele>0</ele></trkpt>
      <trkpt lat="33.830091" lon="11.029151"><ele>0</ele></trkpt>
      <trkpt lat="33.830197" lon="11.030073"><ele>0</ele></trkpt>
      <trkpt lat="33.830206" lon="11.030117"><ele>0</ele></trkpt>
      <trkpt lat="33.830239" lon="11.030134"><ele>0</ele></trkpt>
      <trkpt lat="33.830298" lon="11.030127"><ele>0</ele></trkpt>
      <trkpt lat="33.830239" lon="11.030134"><ele>0</ele></trkpt>
      <trkpt lat="33.830206" lon="11.030117"><ele>0</ele></trkpt>
      <trkpt lat="33.83023" lon="11.030579"><ele>0</ele></trkpt>
      <trkpt lat="33.830247" lon="11.030794"><ele>0</ele></trkpt>
      <trkpt lat="33.830312" lon="11.031416"><ele>0</ele></trkpt>
      <trkpt lat="33.830323" lon="11.031501"><ele>0</ele></trkpt>
      <trkpt lat="33.829515" lon="11.031628"><ele>0</ele></trkpt>
      <trkpt lat="33.82941" lon="11.031645"><ele>0</ele></trkpt>
      <trkpt lat="33.829183" lon="11.031681"><ele>0</ele></trkpt>
      <trkpt lat="33.828958" lon="11.031716"><ele>0</ele></trkpt>
      <trkpt lat="33.828808" lon="11.031744"><ele>0</ele></trkpt>
      <trkpt lat="33.828756" lon="11.031753"><ele>0</ele></trkpt>
      <trkpt lat="33.828918" lon="11.033172"><ele>0</ele></trkpt>
      <trkpt lat="33.82895" lon="11.033456"><ele>0</ele></trkpt>
      <trkpt lat="33.828952" lon="11.03347"><ele>0</ele></trkpt>
      <trkpt lat="33.828997" lon="11.033865"><ele>0</ele></trkpt>
      <trkpt lat="33.82903" lon="11.034157"><ele>0</ele></trkpt>
      <trkpt lat="33.828956" lon="11.034169"><ele>0</ele></trkpt>
      <trkpt lat="33.828662" lon="11.034216"><ele>0</ele></trkpt>
      <trkpt lat="33.828654" lon="11.034269"><ele>0</ele></trkpt>
      <trkpt lat="33.828607" lon="11.034361"><ele>0</ele></trkpt>
      <trkpt lat="33.828561" lon="11.034402"><ele>0</ele></trkpt>
      <trkpt lat="33.828474" lon="11.034439"><ele>0</ele></trkpt>
      <trkpt lat="33.828407" lon="11.03445"><ele>0</ele></trkpt>
      <trkpt lat="33.82788" lon="11.034534"><ele>0</ele></trkpt>
      <trkpt lat="33.827061" lon="11.034659"><ele>0</ele></trkpt>
      <trkpt lat="33.826944" lon="11.034677"><ele>0</ele></trkpt>
      <trkpt lat="33.826882" lon="11.034686"><ele>0</ele></trkpt>
      <trkpt lat="33.826601" lon="11.034745"><ele>0</ele></trkpt>
      <trkpt lat="33.826515" lon="11.036349"><ele>0</ele></trkpt>
      <trkpt lat="33.826476" lon="11.036704"><ele>0</ele></trkpt>
      <trkpt lat="33.826455" lon="11.036873"><ele>0</ele></trkpt>
      <trkpt lat="33.82642" lon="11.037041"><ele>0</ele></trkpt>
      <trkpt lat="33.82625" lon="11.037682"><ele>0</ele></trkpt>
      <trkpt lat="33.826264" lon="11.037716"><ele>0</ele></trkpt>
      <trkpt lat="33.826428" lon="11.037815"><ele>0</ele></trkpt>
      <trkpt lat="33.826531" lon="11.037814"><ele>0</ele></trkpt>
      <trkpt lat="33.826562" lon="11.037823"><ele>0</ele></trkpt>
      <trkpt lat="33.826584" lon="11.037838"><ele>0</ele></trkpt>
      <trkpt lat="33.826605" lon="11.03787"><ele>0</ele></trkpt>
      <trkpt lat="33.826616" lon="11.037914"><ele>0</ele></trkpt>
      <trkpt lat="33.826622" lon="11.037996"><ele>0</ele></trkpt>
      <trkpt lat="33.826617" lon="11.038126"><ele>0</ele></trkpt>
      <trkpt lat="33.826495" lon="11.039476"><ele>0</ele></trkpt>
      <trkpt lat="33.82647" lon="11.039721"><ele>0</ele></trkpt>
      <trkpt lat="33.826427" lon="11.040202"><ele>0</ele></trkpt>
      <trkpt lat="33.826395" lon="11.040514"><ele>0</ele></trkpt>
      <trkpt lat="33.826355" lon="11.041022"><ele>0</ele></trkpt>
      <trkpt lat="33.82631" lon="11.041419"><ele>0</ele></trkpt>
      <trkpt lat="33.826277" lon="11.04184"><ele>0</ele></trkpt>
      <trkpt lat="33.826168" lon="11.043017"><ele>0</ele></trkpt>
      <trkpt lat="33.826142" lon="11.043376"><ele>0</ele></trkpt>
      <trkpt lat="33.826115" lon="11.043593"><ele>0</ele></trkpt>
      <trkpt lat="33.82609" lon="11.043694"><ele>0</ele></trkpt>
      <trkpt lat="33.82604" lon="11.043829"><ele>0</ele></trkpt>
      <trkpt lat="33.825944" lon="11.043986"><ele>0</ele></trkpt>
      <trkpt lat="33.825884" lon="11.044062"><ele>0</ele></trkpt>
      <trkpt lat="33.825827" lon="11.044132"><ele>0</ele></trkpt>
      <trkpt lat="33.825614" lon="11.044353"><ele>0</ele></trkpt>
      <trkpt lat="33.825398" lon="11.044607"><ele>0</ele></trkpt>
      <trkpt lat="33.82522" lon="11.044803"><ele>0</ele></trkpt>
      <trkpt lat="33.825136" lon="11.044894"><ele>0</ele></trkpt>
      <trkpt lat="33.825043" lon="11.044976"><ele>0</ele></trkpt>
      <trkpt lat="33.825479" lon="11.046014"><ele>0</ele></trkpt>
      <trkpt lat="33.825624" lon="11.046372"><ele>0</ele></trkpt>
      <trkpt lat="33.825672" lon="11.0465"><ele>0</ele></trkpt>
      <trkpt lat="33.825796" lon="11.046435"><ele>0</ele></trkpt>
      <trkpt lat="33.825842" lon="11.046446"><ele>0</ele></trkpt></trkseg></trk></gpx>