<?xml version="1.0" encoding="UTF-8"?><gpx version="1.1" creator="History Walk 3.7.70" xmlns="http://www.topografix.com/GPX/1/1" xmlns:xsi="http://www.w3.org/2001/XMLSchema-instance" xsi:schemaLocation="http://www.topografix.com/GPX/1/1 http://www.topografix.com/GPX/1/1/gpx.xsd">
    <metadata>
        <name>Boucle autour de Mosquée Sidi Abdelkader via Mosquée Khaled Ibn Elwalid</name>
        <desc>Circuit généré par History Walk.</desc>
        <link href="https://stefanmartin1967.github.io/history-walk/">
            <text>History Walk [HW-ID:HW-01KS60VM1NFH78GS0WDVCY562P]</text>
        </link>
    </metadata>
    <wpt lat="33.793757704808506" lon="11.021607244300704">
      <name>Mosquée Sidi Abdelkader</name>
      <desc></desc>
    </wpt>
    <wpt lat="33.79811118269014" lon="11.028802710036706">
      <name>Mosquée Khaled Ibn Elwalid</name>
      <desc></desc>
    </wpt>
    <wpt lat="33.787861" lon="11.033472">
      <name>Mosquée Sidi Wahlan</name>
      <desc></desc>
    </wpt>
    <wpt lat="33.793757704808506" lon="11.021607244300704">
      <name>Mosquée Sidi Abdelkader</name>
      <desc></desc>
    </wpt><trk><name>Boucle autour de Mosquée Sidi Abdelkader via Mosquée Khaled Ibn Elwalid</name><desc><![CDATA[

(Créé par History Walk)]]></desc><trkseg><trkpt lat="33.793867" lon="11.021557"><ele>0</ele></trkpt>
      <trkpt lat="33.794132" lon="11.022404"><ele>0</ele></trkpt>
      <trkpt lat="33.794147" lon="11.022473"><ele>0</ele></trkpt>
      <trkpt lat="33.794147" lon="11.022574"><ele>0</ele></trkpt>
      <trkpt lat="33.794116" lon="11.022822"><ele>0</ele></trkpt>
      <trkpt lat="33.794117" lon="11.022912"><ele>0</ele></trkpt>
      <trkpt lat="33.794156" lon="11.02297"><ele>0</ele></trkpt>
      <trkpt lat="33.794182" lon="11.022986"><ele>0</ele></trkpt>
      <trkpt lat="33.794246" lon="11.022995"><ele>0</ele></trkpt>
      <trkpt lat="33.794446" lon="11.022988"><ele>0</ele></trkpt>
      <trkpt lat="33.794506" lon="11.022996"><ele>0</ele></trkpt>
      <trkpt lat="33.794596" lon="11.023029"><ele>0</ele></trkpt>
      <trkpt lat="33.794642" lon="11.023066"><ele>0</ele></trkpt>
      <trkpt lat="33.794702" lon="11.023137"><ele>0</ele></trkpt>
      <trkpt lat="33.794732" lon="11.023184"><ele>0</ele></trkpt>
      <trkpt lat="33.794755" lon="11.023239"><ele>0</ele></trkpt>
      <trkpt lat="33.794797" lon="11.023467"><ele>0</ele></trkpt>
      <trkpt lat="33.79484" lon="11.023586"><ele>0</ele></trkpt>
      <trkpt lat="33.794884" lon="11.023658"><ele>0</ele></trkpt>
      <trkpt lat="33.795044" lon="11.023842"><ele>0</ele></trkpt>
      <trkpt lat="33.795261" lon="11.024092"><ele>0</ele></trkpt>
      <trkpt lat="33.795334" lon="11.024223"><ele>0</ele></trkpt>
      <trkpt lat="33.795546" lon="11.02452"><ele>0</ele></trkpt>
      <trkpt lat="33.795743" lon="11.024763"><ele>0</ele></trkpt>
      <trkpt lat="33.795784" lon="11.024838"><ele>0</ele></trkpt>
      <trkpt lat="33.795905" lon="11.025147"><ele>0</ele></trkpt>
      <trkpt lat="33.795927" lon="11.025174"><ele>0</ele></trkpt>
      <trkpt lat="33.795999" lon="11.025232"><ele>0</ele></trkpt>
      <trkpt lat="33.796028" lon="11.025272"><ele>0</ele></trkpt>
      <trkpt lat="33.796138" lon="11.025573"><ele>0</ele></trkpt>
      <trkpt lat="33.796156" lon="11.025596"><ele>0</ele></trkpt>
      <trkpt lat="33.79618" lon="11.025604"><ele>0</ele></trkpt>
      <trkpt lat="33.796356" lon="11.025598"><ele>0</ele></trkpt>
      <trkpt lat="33.796685" lon="11.025699"><ele>0</ele></trkpt>
      <trkpt lat="33.796762" lon="11.025385"><ele>0</ele></trkpt>
      <trkpt lat="33.796829" lon="11.025061"><ele>0</ele></trkpt>
      <trkpt lat="33.796864" lon="11.025169"><ele>0</ele></trkpt>
      <trkpt lat="33.796951" lon="11.025373"><ele>0</ele></trkpt>
      <trkpt lat="33.797093" lon="11.025752"><ele>0</ele></trkpt>
      <trkpt lat="33.797134" lon="11.025894"><ele>0</ele></trkpt>
      <trkpt lat="33.797212" lon="11.026227"><ele>0</ele></trkpt>
      <trkpt lat="33.79721" lon="11.026584"><ele>0</ele></trkpt>
      <trkpt lat="33.797253" lon="11.027009"><ele>0</ele></trkpt>
      <trkpt lat="33.797356" lon="11.027732"><ele>0</ele></trkpt>
      <trkpt lat="33.797402" lon="11.027978"><ele>0</ele></trkpt>
      <trkpt lat="33.797519" lon="11.028514"><ele>0</ele></trkpt>
      <trkpt lat="33.797613" lon="11.02904"><ele>0</ele></trkpt>
      <trkpt lat="33.797352" lon="11.029194"><ele>0</ele></trkpt>
      <trkpt lat="33.79719" lon="11.029251"><ele>0</ele></trkpt>
      <trkpt lat="33.796252" lon="11.029522"><ele>0</ele></trkpt>
      <trkpt lat="33.796077" lon="11.029619"><ele>0</ele></trkpt>
      <trkpt lat="33.795877" lon="11.029704"><ele>0</ele></trkpt>
      <trkpt lat="33.795562" lon="11.029789"><ele>0</ele></trkpt>
      <trkpt lat="33.795503" lon="11.029816"><ele>0</ele></trkpt>
      <trkpt lat="33.795446" lon="11.02986"><ele>0</ele></trkpt>
      <trkpt lat="33.795349" lon="11.03004"><ele>0</ele></trkpt>
      <trkpt lat="33.79525" lon="11.030203"><ele>0</ele></trkpt>
      <trkpt lat="33.79515" lon="11.030346"><ele>0</ele></trkpt>
      <trkpt lat="33.795064" lon="11.030453"><ele>0</ele></trkpt>
      <trkpt lat="33.794948" lon="11.030563"><ele>0</ele></trkpt>
      <trkpt lat="33.794836" lon="11.030646"><ele>0</ele></trkpt>
      <trkpt lat="33.794624" lon="11.030771"><ele>0</ele></trkpt>
      <trkpt lat="33.794546" lon="11.030811"><ele>0</ele></trkpt>
      <trkpt lat="33.794279" lon="11.030903"><ele>0</ele></trkpt>
      <trkpt lat="33.793858" lon="11.03096"><ele>0</ele></trkpt>
      <trkpt lat="33.793439" lon="11.031031"><ele>0</ele></trkpt>
      <trkpt lat="33.793058" lon="11.031081"><ele>0</ele></trkpt>
      <trkpt lat="33.79243" lon="11.031104"><ele>0</ele></trkpt>
      <trkpt lat="33.791715" lon="11.031105"><ele>0</ele></trkpt>
      <trkpt lat="33.791607" lon="11.031084"><ele>0</ele></trkpt>
      <trkpt lat="33.791513" lon="11.031046"><ele>0</ele></trkpt>
      <trkpt lat="33.790897" lon="11.03064"><ele>0</ele></trkpt>
      <trkpt lat="33.790712" lon="11.030565"><ele>0</ele></trkpt>
      <trkpt lat="33.790644" lon="11.03056"><ele>0</ele></trkpt>
      <trkpt lat="33.790585" lon="11.030588"><ele>0</ele></trkpt>
      <trkpt lat="33.790531" lon="11.030636"><ele>0</ele></trkpt>
      <trkpt lat="33.790489" lon="11.030725"><ele>0</ele></trkpt>
      <trkpt lat="33.790485" lon="11.030813"><ele>0</ele></trkpt>
      <trkpt lat="33.790498" lon="11.031122"><ele>0</ele></trkpt>
      <trkpt lat="33.790477" lon="11.031391"><ele>0</ele></trkpt>
      <trkpt lat="33.790426" lon="11.03162"><ele>0</ele></trkpt>
      <trkpt lat="33.790395" lon="11.03173"><ele>0</ele></trkpt>
      <trkpt lat="33.790356" lon="11.031828"><ele>0</ele></trkpt>
      <trkpt lat="33.790321" lon="11.031905"><ele>0</ele></trkpt>
      <trkpt lat="33.790273" lon="11.031972"><ele>0</ele></trkpt>
      <trkpt lat="33.7902" lon="11.032047"><ele>0</ele></trkpt>
      <trkpt lat="33.789891" lon="11.03228"><ele>0</ele></trkpt>
      <trkpt lat="33.789768" lon="11.031976"><ele>0</ele></trkpt>
      <trkpt lat="33.789752" lon="11.031916"><ele>0</ele></trkpt>
      <trkpt lat="33.789753" lon="11.031851"><ele>0</ele></trkpt>
      <trkpt lat="33.789763" lon="11.031781"><ele>0</ele></trkpt>
      <trkpt lat="33.789854" lon="11.031361"><ele>0</ele></trkpt>
      <trkpt lat="33.789864" lon="11.031259"><ele>0</ele></trkpt>
      <trkpt lat="33.789857" lon="11.031132"><ele>0</ele></trkpt>
      <trkpt lat="33.789846" lon="11.031088"><ele>0</ele></trkpt>
      <trkpt lat="33.789817" lon="11.031031"><ele>0</ele></trkpt>
      <trkpt lat="33.789748" lon="11.030933"><ele>0</ele></trkpt>
      <trkpt lat="33.789727" lon="11.03089"><ele>0</ele></trkpt>
      <trkpt lat="33.789722" lon="11.030853"><ele>0</ele></trkpt>
      <trkpt lat="33.789761" lon="11.030536"><ele>0</ele></trkpt>
      <trkpt lat="33.789762" lon="11.030434"><ele>0</ele></trkpt>
      <trkpt lat="33.789778" lon="11.030264"><ele>0</ele></trkpt>
      <trkpt lat="33.789808" lon="11.030106"><ele>0</ele></trkpt>
      <trkpt lat="33.78983" lon="11.029905"><ele>0</ele></trkpt>
      <trkpt lat="33.789848" lon="11.029598"><ele>0</ele></trkpt>
      <trkpt lat="33.789071" lon="11.02961"><ele>0</ele></trkpt>
      <trkpt lat="33.788958" lon="11.029628"><ele>0</ele></trkpt>
      <trkpt lat="33.788787" lon="11.029671"><ele>0</ele></trkpt>
      <trkpt lat="33.78819" lon="11.029752"><ele>0</ele></trkpt>
      <trkpt lat="33.787945" lon="11.029819"><ele>0</ele></trkpt>
      <trkpt lat="33.787945" lon="11.029819"><ele>0</ele></trkpt>
      <trkpt lat="33.78819" lon="11.029752"><ele>0</ele></trkpt>
      <trkpt lat="33.788787" lon="11.029671"><ele>0</ele></trkpt>
      <trkpt lat="33.788958" lon="11.029628"><ele>0</ele></trkpt>
      <trkpt lat="33.789071" lon="11.02961"><ele>0</ele></trkpt>
      <trkpt lat="33.789848" lon="11.029598"><ele>0</ele></trkpt>
      <trkpt lat="33.789854" lon="11.02931"><ele>0</ele></trkpt>
      <trkpt lat="33.789845" lon="11.029214"><ele>0</ele></trkpt>
      <trkpt lat="33.789839" lon="11.028986"><ele>0</ele></trkpt>
      <trkpt lat="33.789846" lon="11.02896"><ele>0</ele></trkpt>
      <trkpt lat="33.78978" lon="11.028474"><ele>0</ele></trkpt>
      <trkpt lat="33.78978" lon="11.028358"><ele>0</ele></trkpt>
      <trkpt lat="33.789795" lon="11.028318"><ele>0</ele></trkpt>
      <trkpt lat="33.789825" lon="11.02829"><ele>0</ele></trkpt>
      <trkpt lat="33.79001" lon="11.028215"><ele>0</ele></trkpt>
      <trkpt lat="33.790061" lon="11.028176"><ele>0</ele></trkpt>
      <trkpt lat="33.790187" lon="11.028046"><ele>0</ele></trkpt>
      <trkpt lat="33.790447" lon="11.027939"><ele>0</ele></trkpt>
      <trkpt lat="33.790491" lon="11.027913"><ele>0</ele></trkpt>
      <trkpt lat="33.790518" lon="11.027868"><ele>0</ele></trkpt>
      <trkpt lat="33.790518" lon="11.027807"><ele>0</ele></trkpt>
      <trkpt lat="33.790413" lon="11.027088"><ele>0</ele></trkpt>
      <trkpt lat="33.790375" lon="11.026735"><ele>0</ele></trkpt>
      <trkpt lat="33.790383" lon="11.026397"><ele>0</ele></trkpt>
      <trkpt lat="33.790369" lon="11.026097"><ele>0</ele></trkpt>
      <trkpt lat="33.790378" lon="11.02607"><ele>0</ele></trkpt>
      <trkpt lat="33.790392" lon="11.026056"><ele>0</ele></trkpt>
      <trkpt lat="33.790545" lon="11.026048"><ele>0</ele></trkpt>
      <trkpt lat="33.790592" lon="11.026032"><ele>0</ele></trkpt>
      <trkpt lat="33.790635" lon="11.025996"><ele>0</ele></trkpt>
      <trkpt lat="33.790665" lon="11.025936"><ele>0</ele></trkpt>
      <trkpt lat="33.790708" lon="11.025815"><ele>0</ele></trkpt>
      <trkpt lat="33.79076" lon="11.02572"><ele>0</ele></trkpt>
      <trkpt lat="33.790886" lon="11.025615"><ele>0</ele></trkpt>
      <trkpt lat="33.791083" lon="11.025386"><ele>0</ele></trkpt>
      <trkpt lat="33.79129" lon="11.025118"><ele>0</ele></trkpt>
      <trkpt lat="33.791379" lon="11.025045"><ele>0</ele></trkpt>
      <trkpt lat="33.791647" lon="11.024736"><ele>0</ele></trkpt>
      <trkpt lat="33.791763" lon="11.024624"><ele>0</ele></trkpt>
      <trkpt lat="33.792005" lon="11.024303"><ele>0</ele></trkpt>
      <trkpt lat="33.792144" lon="11.02416"><ele>0</ele></trkpt>
      <trkpt lat="33.792201" lon="11.024135"><ele>0</ele></trkpt>
      <trkpt lat="33.792406" lon="11.024094"><ele>0</ele></trkpt>
      <trkpt lat="33.792527" lon="11.024083"><ele>0</ele></trkpt>
      <trkpt lat="33.792629" lon="11.024088"><ele>0</ele></trkpt>
      <trkpt lat="33.792673" lon="11.024079"><ele>0</ele></trkpt>
      <trkpt lat="33.792726" lon="11.024038"><ele>0</ele></trkpt>
      <trkpt lat="33.792739" lon="11.023975"><ele>0</ele></trkpt>
      <trkpt lat="33.792717" lon="11.023666"><ele>0</ele></trkpt>
      <trkpt lat="33.792758" lon="11.023546"><ele>0</ele></trkpt>
      <trkpt lat="33.792811" lon="11.023485"><ele>0</ele></trkpt>
      <trkpt lat="33.792842" lon="11.023421"><ele>0</ele></trkpt>
      <trkpt lat="33.792874" lon="11.023262"><ele>0</ele></trkpt>
      <trkpt lat="33.792883" lon="11.023093"><ele>0</ele></trkpt>
      <trkpt lat="33.792924" lon="11.022909"><ele>0</ele></trkpt>
      <trkpt lat="33.793123" lon="11.02252"><ele>0</ele></trkpt>
      <trkpt lat="33.793146" lon="11.022443"><ele>0</ele></trkpt>
      <trkpt lat="33.793159" lon="11.022317"><ele>0</ele></trkpt>
      <trkpt lat="33.79312" lon="11.022049"><ele>0</ele></trkpt>
      <trkpt lat="33.793126" lon="11.021991"><ele>0</ele></trkpt>
      <trkpt lat="33.793144" lon="11.021958"><ele>0</ele></trkpt>
      <trkpt lat="33.793204" lon="11.021909"><ele>0</ele></trkpt>
      <trkpt lat="33.793429" lon="11.021835"><ele>0</ele></trkpt>
      <trkpt lat="33.79354" lon="11.02178"><ele>0</ele></trkpt>
      <trkpt lat="33.793866" lon="11.021555"><ele>0</ele></trkpt>
      <trkpt lat="33.793867" lon="11.021557"><ele>0</ele></trkpt></trkseg></trk></gpx>