<?xml version="1.0" encoding="UTF-8"?><gpx version="1.1" creator="Heripia 3.7.404" xmlns="http://www.topografix.com/GPX/1/1" xmlns:xsi="http://www.w3.org/2001/XMLSchema-instance" xsi:schemaLocation="http://www.topografix.com/GPX/1/1 http://www.topografix.com/GPX/1/1/gpx.xsd">
    <metadata>
        <name>Boucle autour de Rym Beach</name>
        <desc>Circuit généré par Heripia — heripia.com</desc>
        <link href="https://heripia.com/">
            <text>Heripia [HW-ID:HW-01M2NNDA0Y21T4ANXGTSZ4X1QM]</text>
        </link>
    </metadata>
    <wpt lat="33.826540531288295" lon="11.046173596441804">
      <name>Rym Beach</name>
      <desc>Hôtel au très bon rapport qualité/Prix</desc>
      <link href="https://www.seabelhotels.com/fr/seabel-rym-beach/accueil/">
        <text>Lien vers le site</text>
      </link>
    </wpt>
    <wpt lat="33.799559" lon="11.059521">
      <name>Mausolée Lella Hadhria</name>
      <desc></desc>
    </wpt>
    <wpt lat="33.826540531288295" lon="11.046173596441804">
      <name>Rym Beach</name>
      <desc>Hôtel au très bon rapport qualité/Prix</desc>
      <link href="https://www.seabelhotels.com/fr/seabel-rym-beach/accueil/">
        <text>Lien vers le site</text>
      </link>
    </wpt><trk><name>Boucle autour de Rym Beach</name><desc><![CDATA[Boucle du Rym Beach au mausolée Lella Hadhria dont il ne reste que des vestiges. La balade longe la côté, sur un sentier praticable

Circuit généré par Heripia — heripia.com]]></desc><trkseg><trkpt lat="33.825842" lon="11.046446"><ele>0</ele></trkpt>
      <trkpt lat="33.825796" lon="11.046435"><ele>0</ele></trkpt>
      <trkpt lat="33.825672" lon="11.0465"><ele>0</ele></trkpt>
      <trkpt lat="33.825974" lon="11.047241"><ele>0</ele></trkpt>
      <trkpt lat="33.826044" lon="11.047448"><ele>0</ele></trkpt>
      <trkpt lat="33.826132" lon="11.047898"><ele>0</ele></trkpt>
      <trkpt lat="33.826161" lon="11.048114"><ele>0</ele></trkpt>
      <trkpt lat="33.826164" lon="11.048359"><ele>0</ele></trkpt>
      <trkpt lat="33.826148" lon="11.048505"><ele>0</ele></trkpt>
      <trkpt lat="33.826142" lon="11.048537"><ele>0</ele></trkpt>
      <trkpt lat="33.826123" lon="11.048649"><ele>0</ele></trkpt>
      <trkpt lat="33.826046" lon="11.048875"><ele>0</ele></trkpt>
      <trkpt lat="33.82596" lon="11.04903"><ele>0</ele></trkpt>
      <trkpt lat="33.825895" lon="11.049123"><ele>0</ele></trkpt>
      <trkpt lat="33.825826" lon="11.049205"><ele>0</ele></trkpt>
      <trkpt lat="33.825734" lon="11.049297"><ele>0</ele></trkpt>
      <trkpt lat="33.825614" lon="11.049404"><ele>0</ele></trkpt>
      <trkpt lat="33.82548" lon="11.049498"><ele>0</ele></trkpt>
      <trkpt lat="33.825319" lon="11.049598"><ele>0</ele></trkpt>
      <trkpt lat="33.824718" lon="11.049937"><ele>0</ele></trkpt>
      <trkpt lat="33.824201" lon="11.050212"><ele>0</ele></trkpt>
      <trkpt lat="33.824054" lon="11.050291"><ele>0</ele></trkpt>
      <trkpt lat="33.823546" lon="11.050587"><ele>0</ele></trkpt>
      <trkpt lat="33.82316" lon="11.050788"><ele>0</ele></trkpt>
      <trkpt lat="33.822955" lon="11.050912"><ele>0</ele></trkpt>
      <trkpt lat="33.822611" lon="11.051104"><ele>0</ele></trkpt>
      <trkpt lat="33.822515" lon="11.051159"><ele>0</ele></trkpt>
      <trkpt lat="33.822422" lon="11.051205"><ele>0</ele></trkpt>
      <trkpt lat="33.822239" lon="11.051265"><ele>0</ele></trkpt>
      <trkpt lat="33.822014" lon="11.05129"><ele>0</ele></trkpt>
      <trkpt lat="33.82161" lon="11.051278"><ele>0</ele></trkpt>
      <trkpt lat="33.821066" lon="11.051262"><ele>0</ele></trkpt>
      <trkpt lat="33.820785" lon="11.051254"><ele>0</ele></trkpt>
      <trkpt lat="33.820375" lon="11.051243"><ele>0</ele></trkpt>
      <trkpt lat="33.818863" lon="11.051157"><ele>0</ele></trkpt>
      <trkpt lat="33.818521" lon="11.051175"><ele>0</ele></trkpt>
      <trkpt lat="33.81834" lon="11.051203"><ele>0</ele></trkpt>
      <trkpt lat="33.818287" lon="11.05122"><ele>0</ele></trkpt>
      <trkpt lat="33.817929" lon="11.051338"><ele>0</ele></trkpt>
      <trkpt lat="33.817715" lon="11.051456"><ele>0</ele></trkpt>
      <trkpt lat="33.817794" lon="11.051647"><ele>0</ele></trkpt>
      <trkpt lat="33.817854" lon="11.05181"><ele>0</ele></trkpt>
      <trkpt lat="33.817784" lon="11.05185"><ele>0</ele></trkpt>
      <trkpt lat="33.817765" lon="11.051869"><ele>0</ele></trkpt>
      <trkpt lat="33.817752" lon="11.051894"><ele>0</ele></trkpt>
      <trkpt lat="33.817685" lon="11.051897"><ele>0</ele></trkpt>
      <trkpt lat="33.817569" lon="11.051945"><ele>0</ele></trkpt>
      <trkpt lat="33.817338" lon="11.052056"><ele>0</ele></trkpt>
      <trkpt lat="33.817181" lon="11.052155"><ele>0</ele></trkpt>
      <trkpt lat="33.816792" lon="11.052508"><ele>0</ele></trkpt>
      <trkpt lat="33.816757" lon="11.052529"><ele>0</ele></trkpt>
      <trkpt lat="33.816695" lon="11.05233"><ele>0</ele></trkpt>
      <trkpt lat="33.816643" lon="11.052375"><ele>0</ele></trkpt>
      <trkpt lat="33.816527" lon="11.052486"><ele>0</ele></trkpt>
      <trkpt lat="33.815107" lon="11.053799"><ele>0</ele></trkpt>
      <trkpt lat="33.814863" lon="11.053982"><ele>0</ele></trkpt>
      <trkpt lat="33.814783" lon="11.05403"><ele>0</ele></trkpt>
      <trkpt lat="33.814639" lon="11.054097"><ele>0</ele></trkpt>
      <trkpt lat="33.814365" lon="11.054195"><ele>0</ele></trkpt>
      <trkpt lat="33.814281" lon="11.054215"><ele>0</ele></trkpt>
      <trkpt lat="33.813977" lon="11.054254"><ele>0</ele></trkpt>
      <trkpt lat="33.813671" lon="11.054289"><ele>0</ele></trkpt>
      <trkpt lat="33.812757" lon="11.054397"><ele>0</ele></trkpt>
      <trkpt lat="33.812753" lon="11.054398"><ele>0</ele></trkpt>
      <trkpt lat="33.812381" lon="11.054439"><ele>0</ele></trkpt>
      <trkpt lat="33.811927" lon="11.054499"><ele>0</ele></trkpt>
      <trkpt lat="33.811656" lon="11.054537"><ele>0</ele></trkpt>
      <trkpt lat="33.811204" lon="11.054602"><ele>0</ele></trkpt>
      <trkpt lat="33.810902" lon="11.054645"><ele>0</ele></trkpt>
      <trkpt lat="33.810574" lon="11.054689"><ele>0</ele></trkpt>
      <trkpt lat="33.809989" lon="11.054755"><ele>0</ele></trkpt>
      <trkpt lat="33.809699" lon="11.054772"><ele>0</ele></trkpt>
      <trkpt lat="33.809418" lon="11.054755"><ele>0</ele></trkpt>
      <trkpt lat="33.809255" lon="11.054734"><ele>0</ele></trkpt>
      <trkpt lat="33.809121" lon="11.054707"><ele>0</ele></trkpt>
      <trkpt lat="33.808785" lon="11.054611"><ele>0</ele></trkpt>
      <trkpt lat="33.807706" lon="11.054363"><ele>0</ele></trkpt>
      <trkpt lat="33.806896" lon="11.054176"><ele>0</ele></trkpt>
      <trkpt lat="33.806657" lon="11.05412"><ele>0</ele></trkpt>
      <trkpt lat="33.806416" lon="11.054064"><ele>0</ele></trkpt>
      <trkpt lat="33.805687" lon="11.05389"><ele>0</ele></trkpt>
      <trkpt lat="33.805577" lon="11.053881"><ele>0</ele></trkpt>
      <trkpt lat="33.805525" lon="11.053818"><ele>0</ele></trkpt>
      <trkpt lat="33.805449" lon="11.053762"><ele>0</ele></trkpt>
      <trkpt lat="33.805366" lon="11.05373"><ele>0</ele></trkpt>
      <trkpt lat="33.805253" lon="11.053717"><ele>0</ele></trkpt>
      <trkpt lat="33.804529" lon="11.053549"><ele>0</ele></trkpt>
      <trkpt lat="33.804384" lon="11.053541"><ele>0</ele></trkpt>
      <trkpt lat="33.804312" lon="11.053546"><ele>0</ele></trkpt>
      <trkpt lat="33.804264" lon="11.053577"><ele>0</ele></trkpt>
      <trkpt lat="33.804034" lon="11.053793"><ele>0</ele></trkpt>
      <trkpt lat="33.803652" lon="11.054093"><ele>0</ele></trkpt>
      <trkpt lat="33.803561" lon="11.054209"><ele>0</ele></trkpt>
      <trkpt lat="33.8035" lon="11.054266"><ele>0</ele></trkpt>
      <trkpt lat="33.803392" lon="11.054325"><ele>0</ele></trkpt>
      <trkpt lat="33.803194" lon="11.054458"><ele>0</ele></trkpt>
      <trkpt lat="33.803091" lon="11.054544"><ele>0</ele></trkpt>
      <trkpt lat="33.802972" lon="11.054659"><ele>0</ele></trkpt>
      <trkpt lat="33.802855" lon="11.054736"><ele>0</ele></trkpt>
      <trkpt lat="33.802753" lon="11.054772"><ele>0</ele></trkpt>
      <trkpt lat="33.802441" lon="11.054833"><ele>0</ele></trkpt>
      <trkpt lat="33.802228" lon="11.05491"><ele>0</ele></trkpt>
      <trkpt lat="33.801949" lon="11.054999"><ele>0</ele></trkpt>
      <trkpt lat="33.801862" lon="11.055035"><ele>0</ele></trkpt>
      <trkpt lat="33.801407" lon="11.055266"><ele>0</ele></trkpt>
      <trkpt lat="33.801192" lon="11.055318"><ele>0</ele></trkpt>
      <trkpt lat="33.8009" lon="11.055388"><ele>0</ele></trkpt>
      <trkpt lat="33.800753" lon="11.055443"><ele>0</ele></trkpt>
      <trkpt lat="33.800564" lon="11.055481"><ele>0</ele></trkpt>
      <trkpt lat="33.800523" lon="11.055498"><ele>0</ele></trkpt>
      <trkpt lat="33.80038" lon="11.055602"><ele>0</ele></trkpt>
      <trkpt lat="33.800286" lon="11.05568"><ele>0</ele></trkpt>
      <trkpt lat="33.800188" lon="11.055716"><ele>0</ele></trkpt>
      <trkpt lat="33.800128" lon="11.055735"><ele>0</ele></trkpt>
      <trkpt lat="33.800116" lon="11.055761"><ele>0</ele></trkpt>
      <trkpt lat="33.800107" lon="11.055857"><ele>0</ele></trkpt>
      <trkpt lat="33.800086" lon="11.055912"><ele>0</ele></trkpt>
      <trkpt lat="33.800021" lon="11.055979"><ele>0</ele></trkpt>
      <trkpt lat="33.800007" lon="11.0561"><ele>0</ele></trkpt>
      <trkpt lat="33.800021" lon="11.056252"><ele>0</ele></trkpt>
      <trkpt lat="33.80006" lon="11.056363"><ele>0</ele></trkpt>
      <trkpt lat="33.800075" lon="11.056457"><ele>0</ele></trkpt>
      <trkpt lat="33.800078" lon="11.05653"><ele>0</ele></trkpt>
      <trkpt lat="33.799915" lon="11.056863"><ele>0</ele></trkpt>
      <trkpt lat="33.799898" lon="11.056923"><ele>0</ele></trkpt>
      <trkpt lat="33.799785" lon="11.057133"><ele>0</ele></trkpt>
      <trkpt lat="33.799732" lon="11.057258"><ele>0</ele></trkpt>
      <trkpt lat="33.799725" lon="11.057514"><ele>0</ele></trkpt>
      <trkpt lat="33.79971" lon="11.057574"><ele>0</ele></trkpt>
      <trkpt lat="33.799643" lon="11.057697"><ele>0</ele></trkpt>
      <trkpt lat="33.799597" lon="11.057865"><ele>0</ele></trkpt>
      <trkpt lat="33.799583" lon="11.058101"><ele>0</ele></trkpt>
      <trkpt lat="33.799572" lon="11.058156"><ele>0</ele></trkpt>
      <trkpt lat="33.799466" lon="11.058355"><ele>0</ele></trkpt>
      <trkpt lat="33.799368" lon="11.058593"><ele>0</ele></trkpt>
      <trkpt lat="33.799324" lon="11.058657"><ele>0</ele></trkpt>
      <trkpt lat="33.799265" lon="11.058717"><ele>0</ele></trkpt>
      <trkpt lat="33.799219" lon="11.058796"><ele>0</ele></trkpt>
      <trkpt lat="33.799188" lon="11.058881"><ele>0</ele></trkpt>
      <trkpt lat="33.799178" lon="11.058981"><ele>0</ele></trkpt>
      <trkpt lat="33.79918" lon="11.059007"><ele>0</ele></trkpt>
      <trkpt lat="33.799184" lon="11.059078"><ele>0</ele></trkpt>
      <trkpt lat="33.799201" lon="11.059179"><ele>0</ele></trkpt>
      <trkpt lat="33.799286" lon="11.059369"><ele>0</ele></trkpt>
      <trkpt lat="33.799201" lon="11.059179"><ele>0</ele></trkpt>
      <trkpt lat="33.799184" lon="11.059078"><ele>0</ele></trkpt>
      <trkpt lat="33.79918" lon="11.059007"><ele>0</ele></trkpt>
      <trkpt lat="33.799178" lon="11.058981"><ele>0</ele></trkpt>
      <trkpt lat="33.799188" lon="11.058881"><ele>0</ele></trkpt>
      <trkpt lat="33.799219" lon="11.058796"><ele>0</ele></trkpt>
      <trkpt lat="33.799265" lon="11.058717"><ele>0</ele></trkpt>
      <trkpt lat="33.799324" lon="11.058657"><ele>0</ele></trkpt>
      <trkpt lat="33.799368" lon="11.058593"><ele>0</ele></trkpt>
      <trkpt lat="33.799466" lon="11.058355"><ele>0</ele></trkpt>
      <trkpt lat="33.799572" lon="11.058156"><ele>0</ele></trkpt>
      <trkpt lat="33.799583" lon="11.058101"><ele>0</ele></trkpt>
      <trkpt lat="33.799597" lon="11.057865"><ele>0</ele></trkpt>
      <trkpt lat="33.799643" lon="11.057697"><ele>0</ele></trkpt>
      <trkpt lat="33.79971" lon="11.057574"><ele>0</ele></trkpt>
      <trkpt lat="33.799725" lon="11.057514"><ele>0</ele></trkpt>
      <trkpt lat="33.799732" lon="11.057258"><ele>0</ele></trkpt>
      <trkpt lat="33.799785" lon="11.057133"><ele>0</ele></trkpt>
      <trkpt lat="33.799898" lon="11.056923"><ele>0</ele></trkpt>
      <trkpt lat="33.799915" lon="11.056863"><ele>0</ele></trkpt>
      <trkpt lat="33.800078" lon="11.05653"><ele>0</ele></trkpt>
      <trkpt lat="33.800075" lon="11.056457"><ele>0</ele></trkpt>
      <trkpt lat="33.80006" lon="11.056363"><ele>0</ele></trkpt>
      <trkpt lat="33.800021" lon="11.056252"><ele>0</ele></trkpt>
      <trkpt lat="33.800007" lon="11.0561"><ele>0</ele></trkpt>
      <trkpt lat="33.800021" lon="11.055979"><ele>0</ele></trkpt>
      <trkpt lat="33.800086" lon="11.055912"><ele>0</ele></trkpt>
      <trkpt lat="33.800107" lon="11.055857"><ele>0</ele></trkpt>
      <trkpt lat="33.800116" lon="11.055761"><ele>0</ele></trkpt>
      <trkpt lat="33.800128" lon="11.055735"><ele>0</ele></trkpt>
      <trkpt lat="33.800188" lon="11.055716"><ele>0</ele></trkpt>
      <trkpt lat="33.800286" lon="11.05568"><ele>0</ele></trkpt>
      <trkpt lat="33.80038" lon="11.055602"><ele>0</ele></trkpt>
      <trkpt lat="33.800523" lon="11.055498"><ele>0</ele></trkpt>
      <trkpt lat="33.800564" lon="11.055481"><ele>0</ele></trkpt>
      <trkpt lat="33.800753" lon="11.055443"><ele>0</ele></trkpt>
      <trkpt lat="33.8009" lon="11.055388"><ele>0</ele></trkpt>
      <trkpt lat="33.801192" lon="11.055318"><ele>0</ele></trkpt>
      <trkpt lat="33.801407" lon="11.055266"><ele>0</ele></trkpt>
      <trkpt lat="33.801862" lon="11.055035"><ele>0</ele></trkpt>
      <trkpt lat="33.801949" lon="11.054999"><ele>0</ele></trkpt>
      <trkpt lat="33.802228" lon="11.05491"><ele>0</ele></trkpt>
      <trkpt lat="33.802441" lon="11.054833"><ele>0</ele></trkpt>
      <trkpt lat="33.802753" lon="11.054772"><ele>0</ele></trkpt>
      <trkpt lat="33.802855" lon="11.054736"><ele>0</ele></trkpt>
      <trkpt lat="33.802972" lon="11.054659"><ele>0</ele></trkpt>
      <trkpt lat="33.803091" lon="11.054544"><ele>0</ele></trkpt>
      <trkpt lat="33.803194" lon="11.054458"><ele>0</ele></trkpt>
      <trkpt lat="33.803392" lon="11.054325"><ele>0</ele></trkpt>
      <trkpt lat="33.8035" lon="11.054266"><ele>0</ele></trkpt>
      <trkpt lat="33.803561" lon="11.054209"><ele>0</ele></trkpt>
      <trkpt lat="33.803652" lon="11.054093"><ele>0</ele></trkpt>
      <trkpt lat="33.804034" lon="11.053793"><ele>0</ele></trkpt>
      <trkpt lat="33.804264" lon="11.053577"><ele>0</ele></trkpt>
      <trkpt lat="33.804312" lon="11.053546"><ele>0</ele></trkpt>
      <trkpt lat="33.804384" lon="11.053541"><ele>0</ele></trkpt>
      <trkpt lat="33.804529" lon="11.053549"><ele>0</ele></trkpt>
      <trkpt lat="33.805253" lon="11.053717"><ele>0</ele></trkpt>
      <trkpt lat="33.805366" lon="11.05373"><ele>0</ele></trkpt>
      <trkpt lat="33.805449" lon="11.053762"><ele>0</ele></trkpt>
      <trkpt lat="33.805525" lon="11.053818"><ele>0</ele></trkpt>
      <trkpt lat="33.805577" lon="11.053881"><ele>0</ele></trkpt>
      <trkpt lat="33.805687" lon="11.05389"><ele>0</ele></trkpt>
      <trkpt lat="33.806416" lon="11.054064"><ele>0</ele></trkpt>
      <trkpt lat="33.806657" lon="11.05412"><ele>0</ele></trkpt>
      <trkpt lat="33.806896" lon="11.054176"><ele>0</ele></trkpt>
      <trkpt lat="33.807706" lon="11.054363"><ele>0</ele></trkpt>
      <trkpt lat="33.808785" lon="11.054611"><ele>0</ele></trkpt>
      <trkpt lat="33.809121" lon="11.054707"><ele>0</ele></trkpt>
      <trkpt lat="33.809255" lon="11.054734"><ele>0</ele></trkpt>
      <trkpt lat="33.809418" lon="11.054755"><ele>0</ele></trkpt>
      <trkpt lat="33.809699" lon="11.054772"><ele>0</ele></trkpt>
      <trkpt lat="33.809989" lon="11.054755"><ele>0</ele></trkpt>
      <trkpt lat="33.810574" lon="11.054689"><ele>0</ele></trkpt>
      <trkpt lat="33.810902" lon="11.054645"><ele>0</ele></trkpt>
      <trkpt lat="33.81096" lon="11.054568"><ele>0</ele></trkpt>
      <trkpt lat="33.811003" lon="11.054493"><ele>0</ele></trkpt>
      <trkpt lat="33.811033" lon="11.054413"><ele>0</ele></trkpt>
      <trkpt lat="33.811047" lon="11.054341"><ele>0</ele></trkpt>
      <trkpt lat="33.811057" lon="11.054298"><ele>0</ele></trkpt>
      <trkpt lat="33.811126" lon="11.054211"><ele>0</ele></trkpt>
      <trkpt lat="33.811196" lon="11.054057"><ele>0</ele></trkpt>
      <trkpt lat="33.811265" lon="11.053904"><ele>0</ele></trkpt>
      <trkpt lat="33.811348" lon="11.053749"><ele>0</ele></trkpt>
      <trkpt lat="33.81144" lon="11.053621"><ele>0</ele></trkpt>
      <trkpt lat="33.812326" lon="11.05349"><ele>0</ele></trkpt>
      <trkpt lat="33.812649" lon="11.05343"><ele>0</ele></trkpt>
      <trkpt lat="33.81281" lon="11.053398"><ele>0</ele></trkpt>
      <trkpt lat="33.813169" lon="11.053307"><ele>0</ele></trkpt>
      <trkpt lat="33.813569" lon="11.053179"><ele>0</ele></trkpt>
      <trkpt lat="33.814232" lon="11.052913"><ele>0</ele></trkpt>
      <trkpt lat="33.814593" lon="11.05274"><ele>0</ele></trkpt>
      <trkpt lat="33.815188" lon="11.052429"><ele>0</ele></trkpt>
      <trkpt lat="33.815651" lon="11.052173"><ele>0</ele></trkpt>
      <trkpt lat="33.815954" lon="11.052022"><ele>0</ele></trkpt>
      <trkpt lat="33.816665" lon="11.051651"><ele>0</ele></trkpt>
      <trkpt lat="33.817448" lon="11.051215"><ele>0</ele></trkpt>
      <trkpt lat="33.817696" lon="11.051095"><ele>0</ele></trkpt>
      <trkpt lat="33.818006" lon="11.050988"><ele>0</ele></trkpt>
      <trkpt lat="33.818223" lon="11.05088"><ele>0</ele></trkpt>
      <trkpt lat="33.818653" lon="11.050685"><ele>0</ele></trkpt>
      <trkpt lat="33.818875" lon="11.050596"><ele>0</ele></trkpt>
      <trkpt lat="33.819148" lon="11.050499"><ele>0</ele></trkpt>
      <trkpt lat="33.819744" lon="11.050305"><ele>0</ele></trkpt>
      <trkpt lat="33.819917" lon="11.05024"><ele>0</ele></trkpt>
      <trkpt lat="33.820196" lon="11.050122"><ele>0</ele></trkpt>
      <trkpt lat="33.820541" lon="11.049967"><ele>0</ele></trkpt>
      <trkpt lat="33.821138" lon="11.049761"><ele>0</ele></trkpt>
      <trkpt lat="33.821011" lon="11.049708"><ele>0</ele></trkpt>
      <trkpt lat="33.820899" lon="11.049684"><ele>0</ele></trkpt>
      <trkpt lat="33.821697" lon="11.049654"><ele>0</ele></trkpt>
      <trkpt lat="33.822011" lon="11.049678"><ele>0</ele></trkpt>
      <trkpt lat="33.822299" lon="11.049739"><ele>0</ele></trkpt>
      <trkpt lat="33.822596" lon="11.049787"><ele>0</ele></trkpt>
      <trkpt lat="33.82269" lon="11.049809"><ele>0</ele></trkpt>
      <trkpt lat="33.822753" lon="11.049834"><ele>0</ele></trkpt>
      <trkpt lat="33.823196" lon="11.049904"><ele>0</ele></trkpt>
      <trkpt lat="33.823278" lon="11.049909"><ele>0</ele></trkpt>
      <trkpt lat="33.823423" lon="11.049879"><ele>0</ele></trkpt>
      <trkpt lat="33.823621" lon="11.049853"><ele>0</ele></trkpt>
      <trkpt lat="33.824013" lon="11.049834"><ele>0</ele></trkpt>
      <trkpt lat="33.82421" lon="11.049833"><ele>0</ele></trkpt>
      <trkpt lat="33.824556" lon="11.049812"><ele>0</ele></trkpt>
      <trkpt lat="33.824645" lon="11.049819"><ele>0</ele></trkpt>
      <trkpt lat="33.824579" lon="11.049693"><ele>0</ele></trkpt>
      <trkpt lat="33.824522" lon="11.04956"><ele>0</ele></trkpt>
      <trkpt lat="33.82447" lon="11.04946"><ele>0</ele></trkpt>
      <trkpt lat="33.82444" lon="11.049378"><ele>0</ele></trkpt>
      <trkpt lat="33.824342" lon="11.049018"><ele>0</ele></trkpt>
      <trkpt lat="33.824149" lon="11.048359"><ele>0</ele></trkpt>
      <trkpt lat="33.824045" lon="11.048075"><ele>0</ele></trkpt>
      <trkpt lat="33.823944" lon="11.047838"><ele>0</ele></trkpt>
      <trkpt lat="33.823922" lon="11.047806"><ele>0</ele></trkpt>
      <trkpt lat="33.823897" lon="11.04779"><ele>0</ele></trkpt>
      <trkpt lat="33.823764" lon="11.047764"><ele>0</ele></trkpt>
      <trkpt lat="33.823679" lon="11.047724"><ele>0</ele></trkpt>
      <trkpt lat="33.823638" lon="11.047691"><ele>0</ele></trkpt>
      <trkpt lat="33.82361" lon="11.047654"><ele>0</ele></trkpt>
      <trkpt lat="33.823587" lon="11.047608"><ele>0</ele></trkpt>
      <trkpt lat="33.823578" lon="11.047501"><ele>0</ele></trkpt>
      <trkpt lat="33.823583" lon="11.047424"><ele>0</ele></trkpt>
      <trkpt lat="33.823597" lon="11.047348"><ele>0</ele></trkpt>
      <trkpt lat="33.823648" lon="11.047237"><ele>0</ele></trkpt>
      <trkpt lat="33.823873" lon="11.046927"><ele>0</ele></trkpt>
      <trkpt lat="33.824165" lon="11.04656"><ele>0</ele></trkpt>
      <trkpt lat="33.824252" lon="11.046466"><ele>0</ele></trkpt>
      <trkpt lat="33.824289" lon="11.046436"><ele>0</ele></trkpt>
      <trkpt lat="33.824352" lon="11.046403"><ele>0</ele></trkpt>
      <trkpt lat="33.824602" lon="11.046318"><ele>0</ele></trkpt>
      <trkpt lat="33.824673" lon="11.046298"><ele>0</ele></trkpt>
      <trkpt lat="33.824755" lon="11.046285"><ele>0</ele></trkpt>
      <trkpt lat="33.824914" lon="11.046271"><ele>0</ele></trkpt>
      <trkpt lat="33.825" lon="11.046249"><ele>0</ele></trkpt>
      <trkpt lat="33.825113" lon="11.0462"><ele>0</ele></trkpt>
      <trkpt lat="33.825187" lon="11.046344"><ele>0</ele></trkpt>
      <trkpt lat="33.825266" lon="11.046396"><ele>0</ele></trkpt>
      <trkpt lat="33.825431" lon="11.04643"><ele>0</ele></trkpt>
      <trkpt lat="33.825491" lon="11.046432"><ele>0</ele></trkpt>
      <trkpt lat="33.825624" lon="11.046372"><ele>0</ele></trkpt>
      <trkpt lat="33.825672" lon="11.0465"><ele>0</ele></trkpt>
      <trkpt lat="33.825796" lon="11.046435"><ele>0</ele></trkpt>
      <trkpt lat="33.825842" lon="11.046446"><ele>0</ele></trkpt></trkseg></trk></gpx>