<?xml version="1.0" encoding="UTF-8"?><gpx version="1.1" creator="Heripia 3.7.409" xmlns="http://www.topografix.com/GPX/1/1" xmlns:xsi="http://www.w3.org/2001/XMLSchema-instance" xsi:schemaLocation="http://www.topografix.com/GPX/1/1 http://www.topografix.com/GPX/1/1/gpx.xsd">
    <metadata>
        <name>Circuit de Mausolée Beni Baous à Mosquée Ben Achour</name>
        <desc>Circuit généré par Heripia — heripia.com</desc>
        <link href="https://heripia.com/">
            <text>Heripia [HW-ID:HW-01M2YV0QAWW2B0A6WHWE2EYB6F]</text>
        </link>
    </metadata>
    <wpt lat="33.7959198" lon="11.0447052">
      <name>Mausolée Beni Baous</name>
      <desc></desc>
    </wpt>
    <wpt lat="33.8021379" lon="11.0319138">
      <name>Mausolée Sidi Makhyil</name>
      <desc></desc>
    </wpt>
    <wpt lat="33.8019347" lon="11.0294895">
      <name>Sidi Touiel</name>
      <desc></desc>
    </wpt>
    <wpt lat="33.798859" lon="11.02859">
      <name>Mosquée Ghoul</name>
      <desc></desc>
    </wpt>
    <wpt lat="33.798361" lon="11.029557">
      <name>Mausolée Sidi Mansour Ouelghmane</name>
      <desc></desc>
    </wpt>
    <wpt lat="33.79811118269014" lon="11.028802710036706">
      <name>Mosquée Khaled Ibn Elwalid</name>
      <desc></desc>
    </wpt>
    <wpt lat="33.802417" lon="11.016861">
      <name>Mosquée Moulay Taïeb</name>
      <desc></desc>
    </wpt>
    <wpt lat="33.802444" lon="11.005528">
      <name>Mosquée Ben Achour</name>
      <desc></desc>
    </wpt><trk><name>Circuit de Mausolée Beni Baous à Mosquée Ben Achour</name><desc><![CDATA[Circuit généré par Heripia — heripia.com]]></desc><trkseg><trkpt lat="33.795995" lon="11.044665"><ele>0</ele></trkpt>
      <trkpt lat="33.796005" lon="11.044683"><ele>0</ele></trkpt>
      <trkpt lat="33.79607" lon="11.044795"><ele>0</ele></trkpt>
      <trkpt lat="33.796095" lon="11.044834"><ele>0</ele></trkpt>
      <trkpt lat="33.796118" lon="11.044853"><ele>0</ele></trkpt>
      <trkpt lat="33.796151" lon="11.044859"><ele>0</ele></trkpt>
      <trkpt lat="33.796457" lon="11.044844"><ele>0</ele></trkpt>
      <trkpt lat="33.796765" lon="11.04488"><ele>0</ele></trkpt>
      <trkpt lat="33.796867" lon="11.044879"><ele>0</ele></trkpt>
      <trkpt lat="33.796917" lon="11.04489"><ele>0</ele></trkpt>
      <trkpt lat="33.796961" lon="11.044917"><ele>0</ele></trkpt>
      <trkpt lat="33.797042" lon="11.04501"><ele>0</ele></trkpt>
      <trkpt lat="33.797061" lon="11.045033"><ele>0</ele></trkpt>
      <trkpt lat="33.797119" lon="11.045056"><ele>0</ele></trkpt>
      <trkpt lat="33.797204" lon="11.045008"><ele>0</ele></trkpt>
      <trkpt lat="33.797247" lon="11.044439"><ele>0</ele></trkpt>
      <trkpt lat="33.797273" lon="11.044256"><ele>0</ele></trkpt>
      <trkpt lat="33.797296" lon="11.04413"><ele>0</ele></trkpt>
      <trkpt lat="33.797334" lon="11.043982"><ele>0</ele></trkpt>
      <trkpt lat="33.797384" lon="11.043858"><ele>0</ele></trkpt>
      <trkpt lat="33.79744" lon="11.043761"><ele>0</ele></trkpt>
      <trkpt lat="33.797501" lon="11.043676"><ele>0</ele></trkpt>
      <trkpt lat="33.797571" lon="11.043609"><ele>0</ele></trkpt>
      <trkpt lat="33.797604" lon="11.043589"><ele>0</ele></trkpt>
      <trkpt lat="33.797836" lon="11.043543"><ele>0</ele></trkpt>
      <trkpt lat="33.79798" lon="11.043496"><ele>0</ele></trkpt>
      <trkpt lat="33.798177" lon="11.043449"><ele>0</ele></trkpt>
      <trkpt lat="33.798284" lon="11.04342"><ele>0</ele></trkpt>
      <trkpt lat="33.798309" lon="11.042881"><ele>0</ele></trkpt>
      <trkpt lat="33.798312" lon="11.042609"><ele>0</ele></trkpt>
      <trkpt lat="33.798285" lon="11.042211"><ele>0</ele></trkpt>
      <trkpt lat="33.798236" lon="11.041806"><ele>0</ele></trkpt>
      <trkpt lat="33.798231" lon="11.04167"><ele>0</ele></trkpt>
      <trkpt lat="33.798236" lon="11.041112"><ele>0</ele></trkpt>
      <trkpt lat="33.79842" lon="11.041147"><ele>0</ele></trkpt>
      <trkpt lat="33.798636" lon="11.041175"><ele>0</ele></trkpt>
      <trkpt lat="33.798763" lon="11.041157"><ele>0</ele></trkpt>
      <trkpt lat="33.798832" lon="11.041103"><ele>0</ele></trkpt>
      <trkpt lat="33.799024" lon="11.040866"><ele>0</ele></trkpt>
      <trkpt lat="33.799094" lon="11.040807"><ele>0</ele></trkpt>
      <trkpt lat="33.799141" lon="11.040782"><ele>0</ele></trkpt>
      <trkpt lat="33.799293" lon="11.040739"><ele>0</ele></trkpt>
      <trkpt lat="33.79935" lon="11.040731"><ele>0</ele></trkpt>
      <trkpt lat="33.799421" lon="11.040731"><ele>0</ele></trkpt>
      <trkpt lat="33.799903" lon="11.040829"><ele>0</ele></trkpt>
      <trkpt lat="33.800115" lon="11.039925"><ele>0</ele></trkpt>
      <trkpt lat="33.800272" lon="11.039291"><ele>0</ele></trkpt>
      <trkpt lat="33.800283" lon="11.039248"><ele>0</ele></trkpt>
      <trkpt lat="33.800392" lon="11.038701"><ele>0</ele></trkpt>
      <trkpt lat="33.800401" lon="11.038635"><ele>0</ele></trkpt>
      <trkpt lat="33.800466" lon="11.038406"><ele>0</ele></trkpt>
      <trkpt lat="33.80065" lon="11.037955"><ele>0</ele></trkpt>
      <trkpt lat="33.800805" lon="11.037528"><ele>0</ele></trkpt>
      <trkpt lat="33.800826" lon="11.037427"><ele>0</ele></trkpt>
      <trkpt lat="33.800829" lon="11.037356"><ele>0</ele></trkpt>
      <trkpt lat="33.800891" lon="11.037076"><ele>0</ele></trkpt>
      <trkpt lat="33.800957" lon="11.037016"><ele>0</ele></trkpt>
      <trkpt lat="33.801024" lon="11.036995"><ele>0</ele></trkpt>
      <trkpt lat="33.80149" lon="11.036939"><ele>0</ele></trkpt>
      <trkpt lat="33.801535" lon="11.036891"><ele>0</ele></trkpt>
      <trkpt lat="33.801546" lon="11.036866"><ele>0</ele></trkpt>
      <trkpt lat="33.801557" lon="11.036802"><ele>0</ele></trkpt>
      <trkpt lat="33.801558" lon="11.036716"><ele>0</ele></trkpt>
      <trkpt lat="33.801574" lon="11.03663"><ele>0</ele></trkpt>
      <trkpt lat="33.801596" lon="11.036593"><ele>0</ele></trkpt>
      <trkpt lat="33.801643" lon="11.03656"><ele>0</ele></trkpt>
      <trkpt lat="33.801712" lon="11.036541"><ele>0</ele></trkpt>
      <trkpt lat="33.801843" lon="11.03652"><ele>0</ele></trkpt>
      <trkpt lat="33.801933" lon="11.036496"><ele>0</ele></trkpt>
      <trkpt lat="33.802002" lon="11.036468"><ele>0</ele></trkpt>
      <trkpt lat="33.802175" lon="11.03635"><ele>0</ele></trkpt>
      <trkpt lat="33.802267" lon="11.036271"><ele>0</ele></trkpt>
      <trkpt lat="33.802386" lon="11.036211"><ele>0</ele></trkpt>
      <trkpt lat="33.802523" lon="11.03616"><ele>0</ele></trkpt>
      <trkpt lat="33.802642" lon="11.036127"><ele>0</ele></trkpt>
      <trkpt lat="33.802872" lon="11.036101"><ele>0</ele></trkpt>
      <trkpt lat="33.802907" lon="11.03609"><ele>0</ele></trkpt>
      <trkpt lat="33.803016" lon="11.035847"><ele>0</ele></trkpt>
      <trkpt lat="33.803029" lon="11.035769"><ele>0</ele></trkpt>
      <trkpt lat="33.803032" lon="11.035705"><ele>0</ele></trkpt>
      <trkpt lat="33.803032" lon="11.035665"><ele>0</ele></trkpt>
      <trkpt lat="33.803027" lon="11.035384"><ele>0</ele></trkpt>
      <trkpt lat="33.80303" lon="11.035248"><ele>0</ele></trkpt>
      <trkpt lat="33.803035" lon="11.035134"><ele>0</ele></trkpt>
      <trkpt lat="33.803062" lon="11.034989"><ele>0</ele></trkpt>
      <trkpt lat="33.803084" lon="11.034904"><ele>0</ele></trkpt>
      <trkpt lat="33.803095" lon="11.034814"><ele>0</ele></trkpt>
      <trkpt lat="33.803088" lon="11.034675"><ele>0</ele></trkpt>
      <trkpt lat="33.803101" lon="11.034516"><ele>0</ele></trkpt>
      <trkpt lat="33.803095" lon="11.034441"><ele>0</ele></trkpt>
      <trkpt lat="33.803073" lon="11.034343"><ele>0</ele></trkpt>
      <trkpt lat="33.803053" lon="11.03413"><ele>0</ele></trkpt>
      <trkpt lat="33.80304" lon="11.034"><ele>0</ele></trkpt>
      <trkpt lat="33.803011" lon="11.033712"><ele>0</ele></trkpt>
      <trkpt lat="33.803004" lon="11.033561"><ele>0</ele></trkpt>
      <trkpt lat="33.803005" lon="11.033509"><ele>0</ele></trkpt>
      <trkpt lat="33.803011" lon="11.033319"><ele>0</ele></trkpt>
      <trkpt lat="33.802983" lon="11.032863"><ele>0</ele></trkpt>
      <trkpt lat="33.802971" lon="11.032822"><ele>0</ele></trkpt>
      <trkpt lat="33.802853" lon="11.032533"><ele>0</ele></trkpt>
      <trkpt lat="33.802827" lon="11.032449"><ele>0</ele></trkpt>
      <trkpt lat="33.802809" lon="11.03233"><ele>0</ele></trkpt>
      <trkpt lat="33.802802" lon="11.032123"><ele>0</ele></trkpt>
      <trkpt lat="33.802338" lon="11.032145"><ele>0</ele></trkpt>
      <trkpt lat="33.802136" lon="11.032154"><ele>0</ele></trkpt>
      <trkpt lat="33.80209" lon="11.032155"><ele>0</ele></trkpt>
      <trkpt lat="33.802075" lon="11.031924"><ele>0</ele></trkpt>
      <trkpt lat="33.802077" lon="11.031903"><ele>0</ele></trkpt>
      <trkpt lat="33.802075" lon="11.031924"><ele>0</ele></trkpt>
      <trkpt lat="33.80209" lon="11.032155"><ele>0</ele></trkpt>
      <trkpt lat="33.802136" lon="11.032154"><ele>0</ele></trkpt>
      <trkpt lat="33.802338" lon="11.032145"><ele>0</ele></trkpt>
      <trkpt lat="33.802802" lon="11.032123"><ele>0</ele></trkpt>
      <trkpt lat="33.802935" lon="11.032111"><ele>0</ele></trkpt>
      <trkpt lat="33.8031" lon="11.03208"><ele>0</ele></trkpt>
      <trkpt lat="33.803633" lon="11.031958"><ele>0</ele></trkpt>
      <trkpt lat="33.80384" lon="11.031921"><ele>0</ele></trkpt>
      <trkpt lat="33.803952" lon="11.031885"><ele>0</ele></trkpt>
      <trkpt lat="33.803926" lon="11.031345"><ele>0</ele></trkpt>
      <trkpt lat="33.803919" lon="11.031027"><ele>0</ele></trkpt>
      <trkpt lat="33.803917" lon="11.030422"><ele>0</ele></trkpt>
      <trkpt lat="33.803891" lon="11.028701"><ele>0</ele></trkpt>
      <trkpt lat="33.803882" lon="11.028343"><ele>0</ele></trkpt>
      <trkpt lat="33.803872" lon="11.028256"><ele>0</ele></trkpt>
      <trkpt lat="33.803525" lon="11.02825"><ele>0</ele></trkpt>
      <trkpt lat="33.803398" lon="11.028279"><ele>0</ele></trkpt>
      <trkpt lat="33.803361" lon="11.028311"><ele>0</ele></trkpt>
      <trkpt lat="33.803275" lon="11.02844"><ele>0</ele></trkpt>
      <trkpt lat="33.803199" lon="11.028477"><ele>0</ele></trkpt>
      <trkpt lat="33.802864" lon="11.028495"><ele>0</ele></trkpt>
      <trkpt lat="33.802545" lon="11.028534"><ele>0</ele></trkpt>
      <trkpt lat="33.802342" lon="11.028584"><ele>0</ele></trkpt>
      <trkpt lat="33.801556" lon="11.028666"><ele>0</ele></trkpt>
      <trkpt lat="33.801329" lon="11.028715"><ele>0</ele></trkpt>
      <trkpt lat="33.800949" lon="11.028854"><ele>0</ele></trkpt>
      <trkpt lat="33.801058" lon="11.029381"><ele>0</ele></trkpt>
      <trkpt lat="33.801078" lon="11.029443"><ele>0</ele></trkpt>
      <trkpt lat="33.801106" lon="11.029498"><ele>0</ele></trkpt>
      <trkpt lat="33.801245" lon="11.029742"><ele>0</ele></trkpt>
      <trkpt lat="33.801285" lon="11.029825"><ele>0</ele></trkpt>
      <trkpt lat="33.801245" lon="11.029742"><ele>0</ele></trkpt>
      <trkpt lat="33.801106" lon="11.029498"><ele>0</ele></trkpt>
      <trkpt lat="33.801078" lon="11.029443"><ele>0</ele></trkpt>
      <trkpt lat="33.801058" lon="11.029381"><ele>0</ele></trkpt>
      <trkpt lat="33.800949" lon="11.028854"><ele>0</ele></trkpt>
      <trkpt lat="33.800918" lon="11.02859"><ele>0</ele></trkpt>
      <trkpt lat="33.800915" lon="11.028125"><ele>0</ele></trkpt>
      <trkpt lat="33.800879" lon="11.027873"><ele>0</ele></trkpt>
      <trkpt lat="33.800835" lon="11.027306"><ele>0</ele></trkpt>
      <trkpt lat="33.800767" lon="11.027378"><ele>0</ele></trkpt>
      <trkpt lat="33.800699" lon="11.027431"><ele>0</ele></trkpt>
      <trkpt lat="33.800581" lon="11.027481"><ele>0</ele></trkpt>
      <trkpt lat="33.800421" lon="11.027532"><ele>0</ele></trkpt>
      <trkpt lat="33.800286" lon="11.027565"><ele>0</ele></trkpt>
      <trkpt lat="33.799866" lon="11.027644"><ele>0</ele></trkpt>
      <trkpt lat="33.799778" lon="11.02767"><ele>0</ele></trkpt>
      <trkpt lat="33.799675" lon="11.027713"><ele>0</ele></trkpt>
      <trkpt lat="33.799318" lon="11.027894"><ele>0</ele></trkpt>
      <trkpt lat="33.799003" lon="11.028072"><ele>0</ele></trkpt>
      <trkpt lat="33.798891" lon="11.02814"><ele>0</ele></trkpt>
      <trkpt lat="33.798793" lon="11.028215"><ele>0</ele></trkpt>
      <trkpt lat="33.798656" lon="11.028338"><ele>0</ele></trkpt>
      <trkpt lat="33.798472" lon="11.028483"><ele>0</ele></trkpt>
      <trkpt lat="33.798124" lon="11.028689"><ele>0</ele></trkpt>
      <trkpt lat="33.798143" lon="11.028767"><ele>0</ele></trkpt>
      <trkpt lat="33.798182" lon="11.028883"><ele>0</ele></trkpt>
      <trkpt lat="33.798215" lon="11.028959"><ele>0</ele></trkpt>
      <trkpt lat="33.798262" lon="11.029041"><ele>0</ele></trkpt>
      <trkpt lat="33.798305" lon="11.029102"><ele>0</ele></trkpt>
      <trkpt lat="33.798377" lon="11.029184"><ele>0</ele></trkpt>
      <trkpt lat="33.798515" lon="11.029322"><ele>0</ele></trkpt>
      <trkpt lat="33.798377" lon="11.029184"><ele>0</ele></trkpt>
      <trkpt lat="33.798305" lon="11.029102"><ele>0</ele></trkpt>
      <trkpt lat="33.798262" lon="11.029041"><ele>0</ele></trkpt>
      <trkpt lat="33.798215" lon="11.028959"><ele>0</ele></trkpt>
      <trkpt lat="33.798182" lon="11.028883"><ele>0</ele></trkpt>
      <trkpt lat="33.798148" lon="11.028783"><ele>0</ele></trkpt>
      <trkpt lat="33.798143" lon="11.028767"><ele>0</ele></trkpt>
      <trkpt lat="33.798124" lon="11.028689"><ele>0</ele></trkpt>
      <trkpt lat="33.798044" lon="11.028395"><ele>0</ele></trkpt>
      <trkpt lat="33.797876" lon="11.027965"><ele>0</ele></trkpt>
      <trkpt lat="33.79783" lon="11.027828"><ele>0</ele></trkpt>
      <trkpt lat="33.797772" lon="11.027636"><ele>0</ele></trkpt>
      <trkpt lat="33.797706" lon="11.027317"><ele>0</ele></trkpt>
      <trkpt lat="33.797652" lon="11.027162"><ele>0</ele></trkpt>
      <trkpt lat="33.797268" lon="11.02636"><ele>0</ele></trkpt>
      <trkpt lat="33.797514" lon="11.026215"><ele>0</ele></trkpt>
      <trkpt lat="33.797756" lon="11.026129"><ele>0</ele></trkpt>
      <trkpt lat="33.798138" lon="11.025977"><ele>0</ele></trkpt>
      <trkpt lat="33.798199" lon="11.025941"><ele>0</ele></trkpt>
      <trkpt lat="33.798268" lon="11.025876"><ele>0</ele></trkpt>
      <trkpt lat="33.798285" lon="11.025858"><ele>0</ele></trkpt>
      <trkpt lat="33.798665" lon="11.025363"><ele>0</ele></trkpt>
      <trkpt lat="33.798706" lon="11.025319"><ele>0</ele></trkpt>
      <trkpt lat="33.798801" lon="11.025242"><ele>0</ele></trkpt>
      <trkpt lat="33.799391" lon="11.024861"><ele>0</ele></trkpt>
      <trkpt lat="33.799575" lon="11.024709"><ele>0</ele></trkpt>
      <trkpt lat="33.799693" lon="11.024643"><ele>0</ele></trkpt>
      <trkpt lat="33.799701" lon="11.024338"><ele>0</ele></trkpt>
      <trkpt lat="33.799707" lon="11.02406"><ele>0</ele></trkpt>
      <trkpt lat="33.799729" lon="11.024012"><ele>0</ele></trkpt>
      <trkpt lat="33.799759" lon="11.023985"><ele>0</ele></trkpt>
      <trkpt lat="33.799789" lon="11.023972"><ele>0</ele></trkpt>
      <trkpt lat="33.800147" lon="11.023992"><ele>0</ele></trkpt>
      <trkpt lat="33.800237" lon="11.023973"><ele>0</ele></trkpt>
      <trkpt lat="33.800444" lon="11.023909"><ele>0</ele></trkpt>
      <trkpt lat="33.800397" lon="11.02347"><ele>0</ele></trkpt>
      <trkpt lat="33.800391" lon="11.022982"><ele>0</ele></trkpt>
      <trkpt lat="33.800374" lon="11.022781"><ele>0</ele></trkpt>
      <trkpt lat="33.800288" lon="11.022091"><ele>0</ele></trkpt>
      <trkpt lat="33.800274" lon="11.021959"><ele>0</ele></trkpt>
      <trkpt lat="33.800273" lon="11.021846"><ele>0</ele></trkpt>
      <trkpt lat="33.800314" lon="11.021443"><ele>0</ele></trkpt>
      <trkpt lat="33.800333" lon="11.021318"><ele>0</ele></trkpt>
      <trkpt lat="33.80035" lon="11.021122"><ele>0</ele></trkpt>
      <trkpt lat="33.80038" lon="11.020498"><ele>0</ele></trkpt>
      <trkpt lat="33.800364" lon="11.020103"><ele>0</ele></trkpt>
      <trkpt lat="33.800562" lon="11.020134"><ele>0</ele></trkpt>
      <trkpt lat="33.800717" lon="11.020136"><ele>0</ele></trkpt>
      <trkpt lat="33.800881" lon="11.020103"><ele>0</ele></trkpt>
      <trkpt lat="33.801126" lon="11.020068"><ele>0</ele></trkpt>
      <trkpt lat="33.801204" lon="11.020047"><ele>0</ele></trkpt>
      <trkpt lat="33.801314" lon="11.019936"><ele>0</ele></trkpt>
      <trkpt lat="33.801354" lon="11.019926"><ele>0</ele></trkpt>
      <trkpt lat="33.801738" lon="11.019884"><ele>0</ele></trkpt>
      <trkpt lat="33.80181" lon="11.019857"><ele>0</ele></trkpt>
      <trkpt lat="33.801876" lon="11.019811"><ele>0</ele></trkpt>
      <trkpt lat="33.802003" lon="11.019697"><ele>0</ele></trkpt>
      <trkpt lat="33.802055" lon="11.019672"><ele>0</ele></trkpt>
      <trkpt lat="33.80217" lon="11.019639"><ele>0</ele></trkpt>
      <trkpt lat="33.802314" lon="11.019617"><ele>0</ele></trkpt>
      <trkpt lat="33.80233" lon="11.019587"><ele>0</ele></trkpt>
      <trkpt lat="33.80233" lon="11.019563"><ele>0</ele></trkpt>
      <trkpt lat="33.802322" lon="11.019535"><ele>0</ele></trkpt>
      <trkpt lat="33.802206" lon="11.019459"><ele>0</ele></trkpt>
      <trkpt lat="33.802053" lon="11.019333"><ele>0</ele></trkpt>
      <trkpt lat="33.801999" lon="11.019306"><ele>0</ele></trkpt>
      <trkpt lat="33.801867" lon="11.019261"><ele>0</ele></trkpt>
      <trkpt lat="33.801712" lon="11.019189"><ele>0</ele></trkpt>
      <trkpt lat="33.801679" lon="11.019161"><ele>0</ele></trkpt>
      <trkpt lat="33.801652" lon="11.019118"><ele>0</ele></trkpt>
      <trkpt lat="33.801604" lon="11.019086"><ele>0</ele></trkpt>
      <trkpt lat="33.801553" lon="11.019038"><ele>0</ele></trkpt>
      <trkpt lat="33.801504" lon="11.018972"><ele>0</ele></trkpt>
      <trkpt lat="33.801482" lon="11.018904"><ele>0</ele></trkpt>
      <trkpt lat="33.80147" lon="11.018823"><ele>0</ele></trkpt>
      <trkpt lat="33.801471" lon="11.018686"><ele>0</ele></trkpt>
      <trkpt lat="33.801445" lon="11.018421"><ele>0</ele></trkpt>
      <trkpt lat="33.801462" lon="11.018386"><ele>0</ele></trkpt>
      <trkpt lat="33.801503" lon="11.018351"><ele>0</ele></trkpt>
      <trkpt lat="33.801611" lon="11.018291"><ele>0</ele></trkpt>
      <trkpt lat="33.801667" lon="11.018228"><ele>0</ele></trkpt>
      <trkpt lat="33.801888" lon="11.017878"><ele>0</ele></trkpt>
      <trkpt lat="33.802179" lon="11.017539"><ele>0</ele></trkpt>
      <trkpt lat="33.802241" lon="11.017458"><ele>0</ele></trkpt>
      <trkpt lat="33.802305" lon="11.017326"><ele>0</ele></trkpt>
      <trkpt lat="33.802353" lon="11.017279"><ele>0</ele></trkpt>
      <trkpt lat="33.802597" lon="11.017099"><ele>0</ele></trkpt>
      <trkpt lat="33.802632" lon="11.017065"><ele>0</ele></trkpt>
      <trkpt lat="33.802649" lon="11.017017"><ele>0</ele></trkpt>
      <trkpt lat="33.802656" lon="11.016934"><ele>0</ele></trkpt>
      <trkpt lat="33.802652" lon="11.01681"><ele>0</ele></trkpt>
      <trkpt lat="33.802645" lon="11.016588"><ele>0</ele></trkpt>
      <trkpt lat="33.802644" lon="11.016379"><ele>0</ele></trkpt>
      <trkpt lat="33.802661" lon="11.016291"><ele>0</ele></trkpt>
      <trkpt lat="33.802615" lon="11.016271"><ele>0</ele></trkpt>
      <trkpt lat="33.802322" lon="11.016258"><ele>0</ele></trkpt>
      <trkpt lat="33.802304" lon="11.016253"><ele>0</ele></trkpt>
      <trkpt lat="33.802224" lon="11.016203"><ele>0</ele></trkpt>
      <trkpt lat="33.802191" lon="11.016185"><ele>0</ele></trkpt>
      <trkpt lat="33.802099" lon="11.016165"><ele>0</ele></trkpt>
      <trkpt lat="33.801731" lon="11.01618"><ele>0</ele></trkpt>
      <trkpt lat="33.800937" lon="11.016083"><ele>0</ele></trkpt>
      <trkpt lat="33.8009" lon="11.016074"><ele>0</ele></trkpt>
      <trkpt lat="33.800808" lon="11.016014"><ele>0</ele></trkpt>
      <trkpt lat="33.800715" lon="11.015917"><ele>0</ele></trkpt>
      <trkpt lat="33.800651" lon="11.015839"><ele>0</ele></trkpt>
      <trkpt lat="33.800664" lon="11.01571"><ele>0</ele></trkpt>
      <trkpt lat="33.800685" lon="11.01505"><ele>0</ele></trkpt>
      <trkpt lat="33.800701" lon="11.014656"><ele>0</ele></trkpt>
      <trkpt lat="33.800693" lon="11.014424"><ele>0</ele></trkpt>
      <trkpt lat="33.800666" lon="11.01399"><ele>0</ele></trkpt>
      <trkpt lat="33.800691" lon="11.013185"><ele>0</ele></trkpt>
      <trkpt lat="33.80069" lon="11.012885"><ele>0</ele></trkpt>
      <trkpt lat="33.800681" lon="11.012729"><ele>0</ele></trkpt>
      <trkpt lat="33.800665" lon="11.012631"><ele>0</ele></trkpt>
      <trkpt lat="33.800629" lon="11.012313"><ele>0</ele></trkpt>
      <trkpt lat="33.800595" lon="11.012015"><ele>0</ele></trkpt>
      <trkpt lat="33.800562" lon="11.011721"><ele>0</ele></trkpt>
      <trkpt lat="33.800543" lon="11.011591"><ele>0</ele></trkpt>
      <trkpt lat="33.800528" lon="11.011408"><ele>0</ele></trkpt>
      <trkpt lat="33.800534" lon="11.011128"><ele>0</ele></trkpt>
      <trkpt lat="33.800571" lon="11.010719"><ele>0</ele></trkpt>
      <trkpt lat="33.800602" lon="11.010392"><ele>0</ele></trkpt>
      <trkpt lat="33.800644" lon="11.010041"><ele>0</ele></trkpt>
      <trkpt lat="33.800669" lon="11.009887"><ele>0</ele></trkpt>
      <trkpt lat="33.800698" lon="11.009773"><ele>0</ele></trkpt>
      <trkpt lat="33.800776" lon="11.009543"><ele>0</ele></trkpt>
      <trkpt lat="33.800787" lon="11.009489"><ele>0</ele></trkpt>
      <trkpt lat="33.800787" lon="11.009387"><ele>0</ele></trkpt>
      <trkpt lat="33.800749" lon="11.009031"><ele>0</ele></trkpt>
      <trkpt lat="33.800717" lon="11.008864"><ele>0</ele></trkpt>
      <trkpt lat="33.800695" lon="11.008797"><ele>0</ele></trkpt>
      <trkpt lat="33.80075" lon="11.008659"><ele>0</ele></trkpt>
      <trkpt lat="33.800936" lon="11.007916"><ele>0</ele></trkpt>
      <trkpt lat="33.800959" lon="11.007838"><ele>0</ele></trkpt>
      <trkpt lat="33.801057" lon="11.007474"><ele>0</ele></trkpt>
      <trkpt lat="33.801142" lon="11.007186"><ele>0</ele></trkpt>
      <trkpt lat="33.80117" lon="11.007123"><ele>0</ele></trkpt>
      <trkpt lat="33.801238" lon="11.007022"><ele>0</ele></trkpt>
      <trkpt lat="33.801346" lon="11.006887"><ele>0</ele></trkpt>
      <trkpt lat="33.801412" lon="11.006825"><ele>0</ele></trkpt>
      <trkpt lat="33.80148" lon="11.006763"><ele>0</ele></trkpt>
      <trkpt lat="33.801968" lon="11.006362"><ele>0</ele></trkpt>
      <trkpt lat="33.802171" lon="11.006167"><ele>0</ele></trkpt>
      <trkpt lat="33.802279" lon="11.006027"><ele>0</ele></trkpt>
      <trkpt lat="33.802421" lon="11.0058"><ele>0</ele></trkpt>
      <trkpt lat="33.802483" lon="11.005677"><ele>0</ele></trkpt>
      <trkpt lat="33.80255" lon="11.005541"><ele>0</ele></trkpt></trkseg></trk></gpx>