<?xml version="1.0" encoding="UTF-8"?><gpx version="1.1" creator="Heripia 3.7.384" xmlns="http://www.topografix.com/GPX/1/1" xmlns:xsi="http://www.w3.org/2001/XMLSchema-instance" xsi:schemaLocation="http://www.topografix.com/GPX/1/1 http://www.topografix.com/GPX/1/1/gpx.xsd">
    <metadata>
        <name>Circuit de Mosquée Sidi Youssef à Mosquée d’‏Elyounsiine</name>
        <desc>Circuit généré par Heripia — heripia.com</desc>
        <link href="https://heripia.com/">
            <text>Heripia [HW-ID:HW-01M2A1A3DETTZ20WXYY7EG9DB6]</text>
        </link>
    </metadata>
    <wpt lat="33.839866" lon="10.917299">
      <name>Mosquée Sidi Youssef</name>
      <desc></desc>
    </wpt>
    <wpt lat="33.838239" lon="10.91884">
      <name>Mosquée Ourir (Takarbouine)</name>
      <desc></desc>
    </wpt>
    <wpt lat="33.839786" lon="10.928876">
      <name>Mosquée Chandra</name>
      <desc></desc>
    </wpt>
    <wpt lat="33.8488946" lon="10.9194526">
      <name>Mosquée El Jadid (Ababsa)</name>
      <desc></desc>
    </wpt>
    <wpt lat="33.844343" lon="10.905525">
      <name>Mosquée Jalleb</name>
      <desc></desc>
    </wpt>
    <wpt lat="33.83890426734857" lon="10.910195511239891">
      <name>Mosquée Sidi Hadded</name>
      <desc></desc>
    </wpt>
    <wpt lat="33.839139" lon="10.905944">
      <name>Mosquée El-Guechaï</name>
      <desc></desc>
    </wpt>
    <wpt lat="33.833374" lon="10.905899">
      <name>Mosquée d’‏Elyounsiine</name>
      <desc></desc>
    </wpt><trk><name>Circuit de Mosquée Sidi Youssef à Mosquée d’‏Elyounsiine</name><desc><![CDATA[Circuit généré par Heripia — heripia.com]]></desc><trkseg><trkpt lat="33.83973" lon="10.917468"><ele>0</ele></trkpt>
      <trkpt lat="33.84001" lon="10.917529"><ele>0</ele></trkpt>
      <trkpt lat="33.840215" lon="10.917549"><ele>0</ele></trkpt>
      <trkpt lat="33.840244" lon="10.917579"><ele>0</ele></trkpt>
      <trkpt lat="33.840256" lon="10.91761"><ele>0</ele></trkpt>
      <trkpt lat="33.840261" lon="10.917665"><ele>0</ele></trkpt>
      <trkpt lat="33.840186" lon="10.917788"><ele>0</ele></trkpt>
      <trkpt lat="33.839992" lon="10.918009"><ele>0</ele></trkpt>
      <trkpt lat="33.839943" lon="10.918092"><ele>0</ele></trkpt>
      <trkpt lat="33.839756" lon="10.918604"><ele>0</ele></trkpt>
      <trkpt lat="33.83962" lon="10.918605"><ele>0</ele></trkpt>
      <trkpt lat="33.839406" lon="10.918631"><ele>0</ele></trkpt>
      <trkpt lat="33.839333" lon="10.918646"><ele>0</ele></trkpt>
      <trkpt lat="33.839283" lon="10.91867"><ele>0</ele></trkpt>
      <trkpt lat="33.839214" lon="10.918725"><ele>0</ele></trkpt>
      <trkpt lat="33.839169" lon="10.918748"><ele>0</ele></trkpt>
      <trkpt lat="33.838623" lon="10.918925"><ele>0</ele></trkpt>
      <trkpt lat="33.838494" lon="10.918988"><ele>0</ele></trkpt>
      <trkpt lat="33.838426" lon="10.919027"><ele>0</ele></trkpt>
      <trkpt lat="33.838328" lon="10.919098"><ele>0</ele></trkpt>
      <trkpt lat="33.838426" lon="10.919027"><ele>0</ele></trkpt>
      <trkpt lat="33.838494" lon="10.918988"><ele>0</ele></trkpt>
      <trkpt lat="33.838623" lon="10.918925"><ele>0</ele></trkpt>
      <trkpt lat="33.839169" lon="10.918748"><ele>0</ele></trkpt>
      <trkpt lat="33.839279" lon="10.918783"><ele>0</ele></trkpt>
      <trkpt lat="33.839317" lon="10.918838"><ele>0</ele></trkpt>
      <trkpt lat="33.839336" lon="10.918882"><ele>0</ele></trkpt>
      <trkpt lat="33.839344" lon="10.918924"><ele>0</ele></trkpt>
      <trkpt lat="33.839344" lon="10.918979"><ele>0</ele></trkpt>
      <trkpt lat="33.839317" lon="10.919174"><ele>0</ele></trkpt>
      <trkpt lat="33.839291" lon="10.919415"><ele>0</ele></trkpt>
      <trkpt lat="33.839212" lon="10.919605"><ele>0</ele></trkpt>
      <trkpt lat="33.839174" lon="10.919749"><ele>0</ele></trkpt>
      <trkpt lat="33.839128" lon="10.919953"><ele>0</ele></trkpt>
      <trkpt lat="33.839081" lon="10.920296"><ele>0</ele></trkpt>
      <trkpt lat="33.839054" lon="10.92058"><ele>0</ele></trkpt>
      <trkpt lat="33.839034" lon="10.920924"><ele>0</ele></trkpt>
      <trkpt lat="33.839053" lon="10.921825"><ele>0</ele></trkpt>
      <trkpt lat="33.839053" lon="10.921904"><ele>0</ele></trkpt>
      <trkpt lat="33.839063" lon="10.921989"><ele>0</ele></trkpt>
      <trkpt lat="33.839157" lon="10.922236"><ele>0</ele></trkpt>
      <trkpt lat="33.839198" lon="10.922355"><ele>0</ele></trkpt>
      <trkpt lat="33.839212" lon="10.922419"><ele>0</ele></trkpt>
      <trkpt lat="33.839225" lon="10.922565"><ele>0</ele></trkpt>
      <trkpt lat="33.83921" lon="10.922621"><ele>0</ele></trkpt>
      <trkpt lat="33.839258" lon="10.922695"><ele>0</ele></trkpt>
      <trkpt lat="33.839309" lon="10.922822"><ele>0</ele></trkpt>
      <trkpt lat="33.83935" lon="10.922962"><ele>0</ele></trkpt>
      <trkpt lat="33.839417" lon="10.923252"><ele>0</ele></trkpt>
      <trkpt lat="33.83945" lon="10.923454"><ele>0</ele></trkpt>
      <trkpt lat="33.839476" lon="10.923536"><ele>0</ele></trkpt>
      <trkpt lat="33.839525" lon="10.923668"><ele>0</ele></trkpt>
      <trkpt lat="33.83957" lon="10.923769"><ele>0</ele></trkpt>
      <trkpt lat="33.839632" lon="10.923877"><ele>0</ele></trkpt>
      <trkpt lat="33.839719" lon="10.924006"><ele>0</ele></trkpt>
      <trkpt lat="33.839934" lon="10.92405"><ele>0</ele></trkpt>
      <trkpt lat="33.840095" lon="10.9241"><ele>0</ele></trkpt>
      <trkpt lat="33.840109" lon="10.924352"><ele>0</ele></trkpt>
      <trkpt lat="33.840122" lon="10.924395"><ele>0</ele></trkpt>
      <trkpt lat="33.840426" lon="10.924722"><ele>0</ele></trkpt>
      <trkpt lat="33.84067" lon="10.924942"><ele>0</ele></trkpt>
      <trkpt lat="33.841015" lon="10.925222"><ele>0</ele></trkpt>
      <trkpt lat="33.841127" lon="10.925303"><ele>0</ele></trkpt>
      <trkpt lat="33.841243" lon="10.925435"><ele>0</ele></trkpt>
      <trkpt lat="33.841304" lon="10.925516"><ele>0</ele></trkpt>
      <trkpt lat="33.841322" lon="10.925562"><ele>0</ele></trkpt>
      <trkpt lat="33.841329" lon="10.925669"><ele>0</ele></trkpt>
      <trkpt lat="33.84131" lon="10.925804"><ele>0</ele></trkpt>
      <trkpt lat="33.841265" lon="10.925967"><ele>0</ele></trkpt>
      <trkpt lat="33.840741" lon="10.926831"><ele>0</ele></trkpt>
      <trkpt lat="33.840712" lon="10.926897"><ele>0</ele></trkpt>
      <trkpt lat="33.840601" lon="10.927224"><ele>0</ele></trkpt>
      <trkpt lat="33.840528" lon="10.92746"><ele>0</ele></trkpt>
      <trkpt lat="33.840423" lon="10.927747"><ele>0</ele></trkpt>
      <trkpt lat="33.840276" lon="10.928104"><ele>0</ele></trkpt>
      <trkpt lat="33.84017" lon="10.928387"><ele>0</ele></trkpt>
      <trkpt lat="33.840139" lon="10.928435"><ele>0</ele></trkpt>
      <trkpt lat="33.840089" lon="10.928478"><ele>0</ele></trkpt>
      <trkpt lat="33.839851" lon="10.928636"><ele>0</ele></trkpt>
      <trkpt lat="33.839807" lon="10.928679"><ele>0</ele></trkpt>
      <trkpt lat="33.839798" lon="10.928709"><ele>0</ele></trkpt>
      <trkpt lat="33.839802" lon="10.928769"><ele>0</ele></trkpt>
      <trkpt lat="33.839837" lon="10.928835"><ele>0</ele></trkpt>
      <trkpt lat="33.839893" lon="10.928942"><ele>0</ele></trkpt>
      <trkpt lat="33.839905" lon="10.92904"><ele>0</ele></trkpt>
      <trkpt lat="33.839897" lon="10.929089"><ele>0</ele></trkpt>
      <trkpt lat="33.839884" lon="10.929136"><ele>0</ele></trkpt>
      <trkpt lat="33.839859" lon="10.929187"><ele>0</ele></trkpt>
      <trkpt lat="33.839583" lon="10.929673"><ele>0</ele></trkpt>
      <trkpt lat="33.840293" lon="10.930214"><ele>0</ele></trkpt>
      <trkpt lat="33.840377" lon="10.930278"><ele>0</ele></trkpt>
      <trkpt lat="33.840741" lon="10.930436"><ele>0</ele></trkpt>
      <trkpt lat="33.840967" lon="10.930504"><ele>0</ele></trkpt>
      <trkpt lat="33.841041" lon="10.93055"><ele>0</ele></trkpt>
      <trkpt lat="33.841103" lon="10.930614"><ele>0</ele></trkpt>
      <trkpt lat="33.841142" lon="10.930667"><ele>0</ele></trkpt>
      <trkpt lat="33.841237" lon="10.930765"><ele>0</ele></trkpt>
      <trkpt lat="33.841425" lon="10.9309"><ele>0</ele></trkpt>
      <trkpt lat="33.841916" lon="10.931312"><ele>0</ele></trkpt>
      <trkpt lat="33.842034" lon="10.931388"><ele>0</ele></trkpt>
      <trkpt lat="33.84214" lon="10.931441"><ele>0</ele></trkpt>
      <trkpt lat="33.842279" lon="10.931491"><ele>0</ele></trkpt>
      <trkpt lat="33.842459" lon="10.931515"><ele>0</ele></trkpt>
      <trkpt lat="33.842628" lon="10.931558"><ele>0</ele></trkpt>
      <trkpt lat="33.84267" lon="10.931579"><ele>0</ele></trkpt>
      <trkpt lat="33.842709" lon="10.931604"><ele>0</ele></trkpt>
      <trkpt lat="33.842845" lon="10.931746"><ele>0</ele></trkpt>
      <trkpt lat="33.842913" lon="10.931826"><ele>0</ele></trkpt>
      <trkpt lat="33.842956" lon="10.931837"><ele>0</ele></trkpt>
      <trkpt lat="33.842981" lon="10.931826"><ele>0</ele></trkpt>
      <trkpt lat="33.842998" lon="10.931788"><ele>0</ele></trkpt>
      <trkpt lat="33.843032" lon="10.931799"><ele>0</ele></trkpt>
      <trkpt lat="33.843063" lon="10.931791"><ele>0</ele></trkpt>
      <trkpt lat="33.843089" lon="10.931764"><ele>0</ele></trkpt>
      <trkpt lat="33.843162" lon="10.931586"><ele>0</ele></trkpt>
      <trkpt lat="33.843304" lon="10.931163"><ele>0</ele></trkpt>
      <trkpt lat="33.843344" lon="10.931002"><ele>0</ele></trkpt>
      <trkpt lat="33.843435" lon="10.930798"><ele>0</ele></trkpt>
      <trkpt lat="33.843489" lon="10.930702"><ele>0</ele></trkpt>
      <trkpt lat="33.843531" lon="10.930568"><ele>0</ele></trkpt>
      <trkpt lat="33.843553" lon="10.930436"><ele>0</ele></trkpt>
      <trkpt lat="33.843589" lon="10.930297"><ele>0</ele></trkpt>
      <trkpt lat="33.843676" lon="10.930042"><ele>0</ele></trkpt>
      <trkpt lat="33.843916" lon="10.929543"><ele>0</ele></trkpt>
      <trkpt lat="33.844061" lon="10.929331"><ele>0</ele></trkpt>
      <trkpt lat="33.844185" lon="10.929184"><ele>0</ele></trkpt>
      <trkpt lat="33.844273" lon="10.929068"><ele>0</ele></trkpt>
      <trkpt lat="33.844375" lon="10.928993"><ele>0</ele></trkpt>
      <trkpt lat="33.844447" lon="10.928906"><ele>0</ele></trkpt>
      <trkpt lat="33.844551" lon="10.928737"><ele>0</ele></trkpt>
      <trkpt lat="33.84456" lon="10.928734"><ele>0</ele></trkpt>
      <trkpt lat="33.844578" lon="10.928671"><ele>0</ele></trkpt>
      <trkpt lat="33.844723" lon="10.928403"><ele>0</ele></trkpt>
      <trkpt lat="33.844763" lon="10.928317"><ele>0</ele></trkpt>
      <trkpt lat="33.844785" lon="10.928207"><ele>0</ele></trkpt>
      <trkpt lat="33.844772" lon="10.92806"><ele>0</ele></trkpt>
      <trkpt lat="33.844725" lon="10.927931"><ele>0</ele></trkpt>
      <trkpt lat="33.844647" lon="10.927784"><ele>0</ele></trkpt>
      <trkpt lat="33.844539" lon="10.927608"><ele>0</ele></trkpt>
      <trkpt lat="33.844507" lon="10.927495"><ele>0</ele></trkpt>
      <trkpt lat="33.844507" lon="10.927391"><ele>0</ele></trkpt>
      <trkpt lat="33.844533" lon="10.927295"><ele>0</ele></trkpt>
      <trkpt lat="33.844596" lon="10.927229"><ele>0</ele></trkpt>
      <trkpt lat="33.844955" lon="10.927006"><ele>0</ele></trkpt>
      <trkpt lat="33.845006" lon="10.92696"><ele>0</ele></trkpt>
      <trkpt lat="33.845084" lon="10.926783"><ele>0</ele></trkpt>
      <trkpt lat="33.845104" lon="10.926724"><ele>0</ele></trkpt>
      <trkpt lat="33.845128" lon="10.926582"><ele>0</ele></trkpt>
      <trkpt lat="33.845171" lon="10.926405"><ele>0</ele></trkpt>
      <trkpt lat="33.845194" lon="10.926179"><ele>0</ele></trkpt>
      <trkpt lat="33.845465" lon="10.92634"><ele>0</ele></trkpt>
      <trkpt lat="33.845844" lon="10.926507"><ele>0</ele></trkpt>
      <trkpt lat="33.84599" lon="10.925962"><ele>0</ele></trkpt>
      <trkpt lat="33.84605" lon="10.925782"><ele>0</ele></trkpt>
      <trkpt lat="33.846112" lon="10.92567"><ele>0</ele></trkpt>
      <trkpt lat="33.846286" lon="10.925441"><ele>0</ele></trkpt>
      <trkpt lat="33.846325" lon="10.925367"><ele>0</ele></trkpt>
      <trkpt lat="33.846352" lon="10.925282"><ele>0</ele></trkpt>
      <trkpt lat="33.846377" lon="10.92515"><ele>0</ele></trkpt>
      <trkpt lat="33.846404" lon="10.925051"><ele>0</ele></trkpt>
      <trkpt lat="33.846433" lon="10.924984"><ele>0</ele></trkpt>
      <trkpt lat="33.846474" lon="10.924918"><ele>0</ele></trkpt>
      <trkpt lat="33.84662" lon="10.924765"><ele>0</ele></trkpt>
      <trkpt lat="33.846711" lon="10.924592"><ele>0</ele></trkpt>
      <trkpt lat="33.846874" lon="10.924205"><ele>0</ele></trkpt>
      <trkpt lat="33.846851" lon="10.924172"><ele>0</ele></trkpt>
      <trkpt lat="33.846782" lon="10.924038"><ele>0</ele></trkpt>
      <trkpt lat="33.84676" lon="10.923965"><ele>0</ele></trkpt>
      <trkpt lat="33.846756" lon="10.923917"><ele>0</ele></trkpt>
      <trkpt lat="33.846871" lon="10.923655"><ele>0</ele></trkpt>
      <trkpt lat="33.846966" lon="10.923484"><ele>0</ele></trkpt>
      <trkpt lat="33.847008" lon="10.923442"><ele>0</ele></trkpt>
      <trkpt lat="33.847098" lon="10.923369"><ele>0</ele></trkpt>
      <trkpt lat="33.847137" lon="10.923322"><ele>0</ele></trkpt>
      <trkpt lat="33.847257" lon="10.923127"><ele>0</ele></trkpt>
      <trkpt lat="33.84728" lon="10.923079"><ele>0</ele></trkpt>
      <trkpt lat="33.847292" lon="10.923008"><ele>0</ele></trkpt>
      <trkpt lat="33.847302" lon="10.922815"><ele>0</ele></trkpt>
      <trkpt lat="33.847331" lon="10.922697"><ele>0</ele></trkpt>
      <trkpt lat="33.847374" lon="10.922624"><ele>0</ele></trkpt>
      <trkpt lat="33.847474" lon="10.922546"><ele>0</ele></trkpt>
      <trkpt lat="33.847507" lon="10.922492"><ele>0</ele></trkpt>
      <trkpt lat="33.847531" lon="10.92242"><ele>0</ele></trkpt>
      <trkpt lat="33.847591" lon="10.922163"><ele>0</ele></trkpt>
      <trkpt lat="33.8477" lon="10.921778"><ele>0</ele></trkpt>
      <trkpt lat="33.847845" lon="10.921385"><ele>0</ele></trkpt>
      <trkpt lat="33.848085" lon="10.920811"><ele>0</ele></trkpt>
      <trkpt lat="33.848276" lon="10.920909"><ele>0</ele></trkpt>
      <trkpt lat="33.848733" lon="10.921098"><ele>0</ele></trkpt>
      <trkpt lat="33.848818" lon="10.921121"><ele>0</ele></trkpt>
      <trkpt lat="33.849292" lon="10.921173"><ele>0</ele></trkpt>
      <trkpt lat="33.849272" lon="10.921039"><ele>0</ele></trkpt>
      <trkpt lat="33.849244" lon="10.92067"><ele>0</ele></trkpt>
      <trkpt lat="33.849208" lon="10.92047"><ele>0</ele></trkpt>
      <trkpt lat="33.849184" lon="10.920242"><ele>0</ele></trkpt>
      <trkpt lat="33.849168" lon="10.920192"><ele>0</ele></trkpt>
      <trkpt lat="33.84915" lon="10.920169"><ele>0</ele></trkpt>
      <trkpt lat="33.849069" lon="10.920123"><ele>0</ele></trkpt>
      <trkpt lat="33.848865" lon="10.920084"><ele>0</ele></trkpt>
      <trkpt lat="33.848839" lon="10.920069"><ele>0</ele></trkpt>
      <trkpt lat="33.848816" lon="10.920042"><ele>0</ele></trkpt>
      <trkpt lat="33.848811" lon="10.920014"><ele>0</ele></trkpt>
      <trkpt lat="33.848813" lon="10.919977"><ele>0</ele></trkpt>
      <trkpt lat="33.848826" lon="10.919935"><ele>0</ele></trkpt>
      <trkpt lat="33.848963" lon="10.91956"><ele>0</ele></trkpt>
      <trkpt lat="33.848969" lon="10.919519"><ele>0</ele></trkpt>
      <trkpt lat="33.848998" lon="10.919327"><ele>0</ele></trkpt>
      <trkpt lat="33.849075" lon="10.919038"><ele>0</ele></trkpt>
      <trkpt lat="33.849197" lon="10.918675"><ele>0</ele></trkpt>
      <trkpt lat="33.849249" lon="10.918559"><ele>0</ele></trkpt>
      <trkpt lat="33.849341" lon="10.918378"><ele>0</ele></trkpt>
      <trkpt lat="33.849361" lon="10.918322"><ele>0</ele></trkpt>
      <trkpt lat="33.849374" lon="10.918261"><ele>0</ele></trkpt>
      <trkpt lat="33.849472" lon="10.917593"><ele>0</ele></trkpt>
      <trkpt lat="33.849496" lon="10.91735"><ele>0</ele></trkpt>
      <trkpt lat="33.849509" lon="10.917282"><ele>0</ele></trkpt>
      <trkpt lat="33.849586" lon="10.917023"><ele>0</ele></trkpt>
      <trkpt lat="33.849639" lon="10.916726"><ele>0</ele></trkpt>
      <trkpt lat="33.849668" lon="10.916619"><ele>0</ele></trkpt>
      <trkpt lat="33.84972" lon="10.91645"><ele>0</ele></trkpt>
      <trkpt lat="33.84988" lon="10.916119"><ele>0</ele></trkpt>
      <trkpt lat="33.85" lon="10.915926"><ele>0</ele></trkpt>
      <trkpt lat="33.850102" lon="10.915741"><ele>0</ele></trkpt>
      <trkpt lat="33.849911" lon="10.91568"><ele>0</ele></trkpt>
      <trkpt lat="33.849697" lon="10.915633"><ele>0</ele></trkpt>
      <trkpt lat="33.849374" lon="10.915613"><ele>0</ele></trkpt>
      <trkpt lat="33.84894" lon="10.915555"><ele>0</ele></trkpt>
      <trkpt lat="33.848335" lon="10.915368"><ele>0</ele></trkpt>
      <trkpt lat="33.848201" lon="10.915321"><ele>0</ele></trkpt>
      <trkpt lat="33.848033" lon="10.91528"><ele>0</ele></trkpt>
      <trkpt lat="33.847962" lon="10.915242"><ele>0</ele></trkpt>
      <trkpt lat="33.847784" lon="10.915212"><ele>0</ele></trkpt>
      <trkpt lat="33.847671" lon="10.915205"><ele>0</ele></trkpt>
      <trkpt lat="33.847633" lon="10.915152"><ele>0</ele></trkpt>
      <trkpt lat="33.847601" lon="10.915061"><ele>0</ele></trkpt>
      <trkpt lat="33.847585" lon="10.915"><ele>0</ele></trkpt>
      <trkpt lat="33.847573" lon="10.914867"><ele>0</ele></trkpt>
      <trkpt lat="33.847572" lon="10.914691"><ele>0</ele></trkpt>
      <trkpt lat="33.847584" lon="10.914562"><ele>0</ele></trkpt>
      <trkpt lat="33.847575" lon="10.914471"><ele>0</ele></trkpt>
      <trkpt lat="33.847552" lon="10.914381"><ele>0</ele></trkpt>
      <trkpt lat="33.847514" lon="10.914269"><ele>0</ele></trkpt>
      <trkpt lat="33.847245" lon="10.913816"><ele>0</ele></trkpt>
      <trkpt lat="33.847141" lon="10.913611"><ele>0</ele></trkpt>
      <trkpt lat="33.847115" lon="10.91353"><ele>0</ele></trkpt>
      <trkpt lat="33.847099" lon="10.913445"><ele>0</ele></trkpt>
      <trkpt lat="33.847101" lon="10.913366"><ele>0</ele></trkpt>
      <trkpt lat="33.8472" lon="10.913"><ele>0</ele></trkpt>
      <trkpt lat="33.847214" lon="10.912947"><ele>0</ele></trkpt>
      <trkpt lat="33.847169" lon="10.912811"><ele>0</ele></trkpt>
      <trkpt lat="33.847144" lon="10.912677"><ele>0</ele></trkpt>
      <trkpt lat="33.847145" lon="10.912536"><ele>0</ele></trkpt>
      <trkpt lat="33.847201" lon="10.912062"><ele>0</ele></trkpt>
      <trkpt lat="33.847172" lon="10.911877"><ele>0</ele></trkpt>
      <trkpt lat="33.847168" lon="10.911762"><ele>0</ele></trkpt>
      <trkpt lat="33.847177" lon="10.911646"><ele>0</ele></trkpt>
      <trkpt lat="33.847269" lon="10.911139"><ele>0</ele></trkpt>
      <trkpt lat="33.847354" lon="10.910455"><ele>0</ele></trkpt>
      <trkpt lat="33.847348" lon="10.910395"><ele>0</ele></trkpt>
      <trkpt lat="33.84732" lon="10.910361"><ele>0</ele></trkpt>
      <trkpt lat="33.847279" lon="10.91034"><ele>0</ele></trkpt>
      <trkpt lat="33.847204" lon="10.910337"><ele>0</ele></trkpt>
      <trkpt lat="33.84713" lon="10.910378"><ele>0</ele></trkpt>
      <trkpt lat="33.847011" lon="10.910467"><ele>0</ele></trkpt>
      <trkpt lat="33.84695" lon="10.91039"><ele>0</ele></trkpt>
      <trkpt lat="33.846898" lon="10.910307"><ele>0</ele></trkpt>
      <trkpt lat="33.846854" lon="10.910272"><ele>0</ele></trkpt>
      <trkpt lat="33.846778" lon="10.910237"><ele>0</ele></trkpt>
      <trkpt lat="33.846588" lon="10.910212"><ele>0</ele></trkpt>
      <trkpt lat="33.84637" lon="10.91014"><ele>0</ele></trkpt>
      <trkpt lat="33.84625" lon="10.910095"><ele>0</ele></trkpt>
      <trkpt lat="33.846065" lon="10.910009"><ele>0</ele></trkpt>
      <trkpt lat="33.846049" lon="10.909976"><ele>0</ele></trkpt>
      <trkpt lat="33.846039" lon="10.909916"><ele>0</ele></trkpt>
      <trkpt lat="33.846066" lon="10.909562"><ele>0</ele></trkpt>
      <trkpt lat="33.846053" lon="10.909528"><ele>0</ele></trkpt>
      <trkpt lat="33.846019" lon="10.909507"><ele>0</ele></trkpt>
      <trkpt lat="33.845834" lon="10.909484"><ele>0</ele></trkpt>
      <trkpt lat="33.845705" lon="10.909472"><ele>0</ele></trkpt>
      <trkpt lat="33.845467" lon="10.909465"><ele>0</ele></trkpt>
      <trkpt lat="33.845278" lon="10.909436"><ele>0</ele></trkpt>
      <trkpt lat="33.845209" lon="10.909412"><ele>0</ele></trkpt>
      <trkpt lat="33.845153" lon="10.909382"><ele>0</ele></trkpt>
      <trkpt lat="33.844784" lon="10.909049"><ele>0</ele></trkpt>
      <trkpt lat="33.844539" lon="10.908859"><ele>0</ele></trkpt>
      <trkpt lat="33.844537" lon="10.908805"><ele>0</ele></trkpt>
      <trkpt lat="33.844549" lon="10.908771"><ele>0</ele></trkpt>
      <trkpt lat="33.844631" lon="10.908677"><ele>0</ele></trkpt>
      <trkpt lat="33.844654" lon="10.908628"><ele>0</ele></trkpt>
      <trkpt lat="33.844703" lon="10.908544"><ele>0</ele></trkpt>
      <trkpt lat="33.844766" lon="10.908376"><ele>0</ele></trkpt>
      <trkpt lat="33.844952" lon="10.907754"><ele>0</ele></trkpt>
      <trkpt lat="33.845022" lon="10.907504"><ele>0</ele></trkpt>
      <trkpt lat="33.845271" lon="10.906497"><ele>0</ele></trkpt>
      <trkpt lat="33.84511" lon="10.906475"><ele>0</ele></trkpt>
      <trkpt lat="33.844525" lon="10.906465"><ele>0</ele></trkpt>
      <trkpt lat="33.844027" lon="10.906506"><ele>0</ele></trkpt>
      <trkpt lat="33.843808" lon="10.906507"><ele>0</ele></trkpt>
      <trkpt lat="33.843653" lon="10.906498"><ele>0</ele></trkpt>
      <trkpt lat="33.843482" lon="10.906477"><ele>0</ele></trkpt>
      <trkpt lat="33.84332" lon="10.906471"><ele>0</ele></trkpt>
      <trkpt lat="33.842804" lon="10.90653"><ele>0</ele></trkpt>
      <trkpt lat="33.842347" lon="10.906599"><ele>0</ele></trkpt>
      <trkpt lat="33.842213" lon="10.907207"><ele>0</ele></trkpt>
      <trkpt lat="33.842021" lon="10.907759"><ele>0</ele></trkpt>
      <trkpt lat="33.841879" lon="10.907986"><ele>0</ele></trkpt>
      <trkpt lat="33.841773" lon="10.908184"><ele>0</ele></trkpt>
      <trkpt lat="33.841667" lon="10.908425"><ele>0</ele></trkpt>
      <trkpt lat="33.841611" lon="10.908505"><ele>0</ele></trkpt>
      <trkpt lat="33.841565" lon="10.908548"><ele>0</ele></trkpt>
      <trkpt lat="33.841471" lon="10.908591"><ele>0</ele></trkpt>
      <trkpt lat="33.841397" lon="10.908737"><ele>0</ele></trkpt>
      <trkpt lat="33.841327" lon="10.908947"><ele>0</ele></trkpt>
      <trkpt lat="33.841312" lon="10.909033"><ele>0</ele></trkpt>
      <trkpt lat="33.841311" lon="10.909138"><ele>0</ele></trkpt>
      <trkpt lat="33.841336" lon="10.909379"><ele>0</ele></trkpt>
      <trkpt lat="33.841386" lon="10.90966"><ele>0</ele></trkpt>
      <trkpt lat="33.84137" lon="10.909896"><ele>0</ele></trkpt>
      <trkpt lat="33.841331" lon="10.910048"><ele>0</ele></trkpt>
      <trkpt lat="33.841334" lon="10.910094"><ele>0</ele></trkpt>
      <trkpt lat="33.841245" lon="10.910124"><ele>0</ele></trkpt>
      <trkpt lat="33.841024" lon="10.910129"><ele>0</ele></trkpt>
      <trkpt lat="33.840652" lon="10.910089"><ele>0</ele></trkpt>
      <trkpt lat="33.840278" lon="10.910079"><ele>0</ele></trkpt>
      <trkpt lat="33.840169" lon="10.910101"><ele>0</ele></trkpt>
      <trkpt lat="33.840073" lon="10.910143"><ele>0</ele></trkpt>
      <trkpt lat="33.839916" lon="10.9102"><ele>0</ele></trkpt>
      <trkpt lat="33.839752" lon="10.910271"><ele>0</ele></trkpt>
      <trkpt lat="33.83959" lon="10.910308"><ele>0</ele></trkpt>
      <trkpt lat="33.839383" lon="10.91034"><ele>0</ele></trkpt>
      <trkpt lat="33.839181" lon="10.910354"><ele>0</ele></trkpt>
      <trkpt lat="33.839008" lon="10.91038"><ele>0</ele></trkpt>
      <trkpt lat="33.838917" lon="10.910407"><ele>0</ele></trkpt>
      <trkpt lat="33.838864" lon="10.910432"><ele>0</ele></trkpt>
      <trkpt lat="33.838828" lon="10.910462"><ele>0</ele></trkpt>
      <trkpt lat="33.83879" lon="10.91051"><ele>0</ele></trkpt>
      <trkpt lat="33.838795" lon="10.910405"><ele>0</ele></trkpt>
      <trkpt lat="33.838768" lon="10.910152"><ele>0</ele></trkpt>
      <trkpt lat="33.838754" lon="10.910017"><ele>0</ele></trkpt>
      <trkpt lat="33.838749" lon="10.909833"><ele>0</ele></trkpt>
      <trkpt lat="33.838735" lon="10.909669"><ele>0</ele></trkpt>
      <trkpt lat="33.838732" lon="10.909386"><ele>0</ele></trkpt>
      <trkpt lat="33.838748" lon="10.909221"><ele>0</ele></trkpt>
      <trkpt lat="33.838746" lon="10.909014"><ele>0</ele></trkpt>
      <trkpt lat="33.838776" lon="10.908913"><ele>0</ele></trkpt>
      <trkpt lat="33.838858" lon="10.908716"><ele>0</ele></trkpt>
      <trkpt lat="33.838924" lon="10.908438"><ele>0</ele></trkpt>
      <trkpt lat="33.838951" lon="10.908224"><ele>0</ele></trkpt>
      <trkpt lat="33.838927" lon="10.90811"><ele>0</ele></trkpt>
      <trkpt lat="33.838904" lon="10.907924"><ele>0</ele></trkpt>
      <trkpt lat="33.838872" lon="10.907834"><ele>0</ele></trkpt>
      <trkpt lat="33.838686" lon="10.907557"><ele>0</ele></trkpt>
      <trkpt lat="33.838639" lon="10.907476"><ele>0</ele></trkpt>
      <trkpt lat="33.838616" lon="10.907305"><ele>0</ele></trkpt>
      <trkpt lat="33.838581" lon="10.906825"><ele>0</ele></trkpt>
      <trkpt lat="33.838538" lon="10.906432"><ele>0</ele></trkpt>
      <trkpt lat="33.838525" lon="10.90625"><ele>0</ele></trkpt>
      <trkpt lat="33.838773" lon="10.906232"><ele>0</ele></trkpt>
      <trkpt lat="33.838999" lon="10.906228"><ele>0</ele></trkpt>
      <trkpt lat="33.839295" lon="10.906239"><ele>0</ele></trkpt>
      <trkpt lat="33.839299" lon="10.906176"><ele>0</ele></trkpt>
      <trkpt lat="33.839284" lon="10.905789"><ele>0</ele></trkpt>
      <trkpt lat="33.839258" lon="10.905663"><ele>0</ele></trkpt>
      <trkpt lat="33.83923" lon="10.905596"><ele>0</ele></trkpt>
      <trkpt lat="33.839146" lon="10.905637"><ele>0</ele></trkpt>
      <trkpt lat="33.838962" lon="10.905759"><ele>0</ele></trkpt>
      <trkpt lat="33.838695" lon="10.906026"><ele>0</ele></trkpt>
      <trkpt lat="33.83844" lon="10.906252"><ele>0</ele></trkpt>
      <trkpt lat="33.837257" lon="10.906351"><ele>0</ele></trkpt>
      <trkpt lat="33.837021" lon="10.906364"><ele>0</ele></trkpt>
      <trkpt lat="33.836788" lon="10.906378"><ele>0</ele></trkpt>
      <trkpt lat="33.835543" lon="10.906405"><ele>0</ele></trkpt>
      <trkpt lat="33.835406" lon="10.906428"><ele>0</ele></trkpt>
      <trkpt lat="33.835208" lon="10.90648"><ele>0</ele></trkpt>
      <trkpt lat="33.83463" lon="10.906673"><ele>0</ele></trkpt>
      <trkpt lat="33.834401" lon="10.90676"><ele>0</ele></trkpt>
      <trkpt lat="33.834191" lon="10.906825"><ele>0</ele></trkpt>
      <trkpt lat="33.834063" lon="10.906852"><ele>0</ele></trkpt>
      <trkpt lat="33.833997" lon="10.906817"><ele>0</ele></trkpt>
      <trkpt lat="33.833953" lon="10.906752"><ele>0</ele></trkpt>
      <trkpt lat="33.833872" lon="10.906358"><ele>0</ele></trkpt>
      <trkpt lat="33.833862" lon="10.90631"><ele>0</ele></trkpt>
      <trkpt lat="33.833836" lon="10.906173"><ele>0</ele></trkpt>
      <trkpt lat="33.833733" lon="10.90574"><ele>0</ele></trkpt></trkseg></trk></gpx>