<?xml version="1.0" encoding="UTF-8"?><gpx version="1.1" creator="Heripia 3.7.409" xmlns="http://www.topografix.com/GPX/1/1" xmlns:xsi="http://www.w3.org/2001/XMLSchema-instance" xsi:schemaLocation="http://www.topografix.com/GPX/1/1 http://www.topografix.com/GPX/1/1/gpx.xsd">
    <metadata>
        <name>Circuit de Mausolée Cité Ziatine à Mosquée Fadhloun</name>
        <desc>Circuit généré par Heripia — heripia.com</desc>
        <link href="https://heripia.com/">
            <text>Heripia [HW-ID:HW-1771393204345]</text>
        </link>
    </metadata>
    <wpt lat="33.8153944" lon="10.9825064">
      <name>Mausolée Cité Ziatine</name>
      <desc></desc>
    </wpt>
    <wpt lat="33.815585" lon="10.976983">
      <name>Mosquée d&apos;Ouled Hlel (Nouvelle)</name>
      <desc></desc>
    </wpt>
    <wpt lat="33.815395" lon="10.976534">
      <name>Mosquée Ouled Helal (Ancienne)</name>
      <desc></desc>
    </wpt>
    <wpt lat="33.814972" lon="10.96475">
      <name>Mosquée Mrabet Messaoud</name>
      <desc></desc>
    </wpt>
    <wpt lat="33.8176394" lon="10.9545388">
      <name>Mausolée Fadhloun</name>
      <desc></desc>
    </wpt>
    <wpt lat="33.820722" lon="10.953778">
      <name>Mosquée El Jadid</name>
      <desc></desc>
    </wpt>
    <wpt lat="33.820257" lon="10.945768">
      <name>Mosquée El Gayed</name>
      <desc></desc>
    </wpt>
    <wpt lat="33.824055" lon="10.945969">
      <name>Qubba Dajwi</name>
      <desc></desc>
    </wpt>
    <wpt lat="33.824759" lon="10.959326">
      <name>Mosquée Fadhloun</name>
      <desc></desc>
      <link href="https://fr.wikipedia.org/wiki/Mosqu%C3%A9e_Fadhloun
Répertoire J. Fathallah, n° 285 | http://palaisbenayed.com/wp-content/uploads/2021/03/r%C3%A9pertoire-des-mosqu%C3%A9es-de-Djerba.pdf">
        <text>Lien vers le site</text>
      </link>
    </wpt><trk><name>Circuit de Mausolée Cité Ziatine à Mosquée Fadhloun</name><desc><![CDATA[Circuit généré par Heripia — heripia.com]]></desc><trkseg><trkpt lat="33.815314" lon="10.982496"><ele>0</ele></trkpt>
      <trkpt lat="33.815325" lon="10.982372"><ele>0</ele></trkpt>
      <trkpt lat="33.815356" lon="10.982197"><ele>0</ele></trkpt>
      <trkpt lat="33.815522" lon="10.981507"><ele>0</ele></trkpt>
      <trkpt lat="33.815711" lon="10.980773"><ele>0</ele></trkpt>
      <trkpt lat="33.815785" lon="10.980425"><ele>0</ele></trkpt>
      <trkpt lat="33.815854" lon="10.98017"><ele>0</ele></trkpt>
      <trkpt lat="33.8158" lon="10.980118"><ele>0</ele></trkpt>
      <trkpt lat="33.815773" lon="10.980079"><ele>0</ele></trkpt>
      <trkpt lat="33.81573" lon="10.979953"><ele>0</ele></trkpt>
      <trkpt lat="33.815656" lon="10.979487"><ele>0</ele></trkpt>
      <trkpt lat="33.815491" lon="10.978579"><ele>0</ele></trkpt>
      <trkpt lat="33.815474" lon="10.978463"><ele>0</ele></trkpt>
      <trkpt lat="33.815463" lon="10.978315"><ele>0</ele></trkpt>
      <trkpt lat="33.815481" lon="10.977654"><ele>0</ele></trkpt>
      <trkpt lat="33.815465" lon="10.977405"><ele>0</ele></trkpt>
      <trkpt lat="33.815428" lon="10.977209"><ele>0</ele></trkpt>
      <trkpt lat="33.815486" lon="10.977201"><ele>0</ele></trkpt>
      <trkpt lat="33.815608" lon="10.977209"><ele>0</ele></trkpt>
      <trkpt lat="33.815638" lon="10.977187"><ele>0</ele></trkpt>
      <trkpt lat="33.815695" lon="10.977101"><ele>0</ele></trkpt>
      <trkpt lat="33.815638" lon="10.977187"><ele>0</ele></trkpt>
      <trkpt lat="33.815608" lon="10.977209"><ele>0</ele></trkpt>
      <trkpt lat="33.815486" lon="10.977201"><ele>0</ele></trkpt>
      <trkpt lat="33.815428" lon="10.977209"><ele>0</ele></trkpt>
      <trkpt lat="33.815366" lon="10.976956"><ele>0</ele></trkpt>
      <trkpt lat="33.815278" lon="10.976645"><ele>0</ele></trkpt>
      <trkpt lat="33.815218" lon="10.976432"><ele>0</ele></trkpt>
      <trkpt lat="33.815188" lon="10.976275"><ele>0</ele></trkpt>
      <trkpt lat="33.815165" lon="10.976045"><ele>0</ele></trkpt>
      <trkpt lat="33.815147" lon="10.975761"><ele>0</ele></trkpt>
      <trkpt lat="33.815133" lon="10.975335"><ele>0</ele></trkpt>
      <trkpt lat="33.815124" lon="10.974976"><ele>0</ele></trkpt>
      <trkpt lat="33.815106" lon="10.974695"><ele>0</ele></trkpt>
      <trkpt lat="33.815089" lon="10.974565"><ele>0</ele></trkpt>
      <trkpt lat="33.814969" lon="10.974061"><ele>0</ele></trkpt>
      <trkpt lat="33.814924" lon="10.973909"><ele>0</ele></trkpt>
      <trkpt lat="33.814839" lon="10.973592"><ele>0</ele></trkpt>
      <trkpt lat="33.814804" lon="10.973435"><ele>0</ele></trkpt>
      <trkpt lat="33.814775" lon="10.973384"><ele>0</ele></trkpt>
      <trkpt lat="33.814755" lon="10.973364"><ele>0</ele></trkpt>
      <trkpt lat="33.814691" lon="10.97334"><ele>0</ele></trkpt>
      <trkpt lat="33.814555" lon="10.973424"><ele>0</ele></trkpt>
      <trkpt lat="33.81444" lon="10.97347"><ele>0</ele></trkpt>
      <trkpt lat="33.814389" lon="10.973356"><ele>0</ele></trkpt>
      <trkpt lat="33.814075" lon="10.972763"><ele>0</ele></trkpt>
      <trkpt lat="33.813903" lon="10.972465"><ele>0</ele></trkpt>
      <trkpt lat="33.813799" lon="10.972257"><ele>0</ele></trkpt>
      <trkpt lat="33.81368" lon="10.971943"><ele>0</ele></trkpt>
      <trkpt lat="33.813578" lon="10.971695"><ele>0</ele></trkpt>
      <trkpt lat="33.813483" lon="10.971521"><ele>0</ele></trkpt>
      <trkpt lat="33.813202" lon="10.970829"><ele>0</ele></trkpt>
      <trkpt lat="33.813177" lon="10.970765"><ele>0</ele></trkpt>
      <trkpt lat="33.812994" lon="10.970073"><ele>0</ele></trkpt>
      <trkpt lat="33.812964" lon="10.969929"><ele>0</ele></trkpt>
      <trkpt lat="33.812913" lon="10.969586"><ele>0</ele></trkpt>
      <trkpt lat="33.812867" lon="10.9694"><ele>0</ele></trkpt>
      <trkpt lat="33.812801" lon="10.969206"><ele>0</ele></trkpt>
      <trkpt lat="33.812574" lon="10.968588"><ele>0</ele></trkpt>
      <trkpt lat="33.812502" lon="10.968331"><ele>0</ele></trkpt>
      <trkpt lat="33.81246" lon="10.968139"><ele>0</ele></trkpt>
      <trkpt lat="33.812439" lon="10.96804"><ele>0</ele></trkpt>
      <trkpt lat="33.812325" lon="10.96737"><ele>0</ele></trkpt>
      <trkpt lat="33.812287" lon="10.967119"><ele>0</ele></trkpt>
      <trkpt lat="33.81228" lon="10.967041"><ele>0</ele></trkpt>
      <trkpt lat="33.812277" lon="10.96695"><ele>0</ele></trkpt>
      <trkpt lat="33.812276" lon="10.966651"><ele>0</ele></trkpt>
      <trkpt lat="33.81226" lon="10.966316"><ele>0</ele></trkpt>
      <trkpt lat="33.812247" lon="10.966194"><ele>0</ele></trkpt>
      <trkpt lat="33.812278" lon="10.966156"><ele>0</ele></trkpt>
      <trkpt lat="33.812343" lon="10.966044"><ele>0</ele></trkpt>
      <trkpt lat="33.812362" lon="10.965986"><ele>0</ele></trkpt>
      <trkpt lat="33.812361" lon="10.965885"><ele>0</ele></trkpt>
      <trkpt lat="33.812437" lon="10.965637"><ele>0</ele></trkpt>
      <trkpt lat="33.812494" lon="10.965504"><ele>0</ele></trkpt>
      <trkpt lat="33.812536" lon="10.965369"><ele>0</ele></trkpt>
      <trkpt lat="33.813256" lon="10.965022"><ele>0</ele></trkpt>
      <trkpt lat="33.813355" lon="10.965001"><ele>0</ele></trkpt>
      <trkpt lat="33.813466" lon="10.964994"><ele>0</ele></trkpt>
      <trkpt lat="33.813521" lon="10.965001"><ele>0</ele></trkpt>
      <trkpt lat="33.813621" lon="10.965032"><ele>0</ele></trkpt>
      <trkpt lat="33.813813" lon="10.965115"><ele>0</ele></trkpt>
      <trkpt lat="33.813874" lon="10.965127"><ele>0</ele></trkpt>
      <trkpt lat="33.813972" lon="10.965117"><ele>0</ele></trkpt>
      <trkpt lat="33.814077" lon="10.965063"><ele>0</ele></trkpt>
      <trkpt lat="33.81415" lon="10.965002"><ele>0</ele></trkpt>
      <trkpt lat="33.814257" lon="10.964926"><ele>0</ele></trkpt>
      <trkpt lat="33.81437" lon="10.964855"><ele>0</ele></trkpt>
      <trkpt lat="33.814516" lon="10.964801"><ele>0</ele></trkpt>
      <trkpt lat="33.814702" lon="10.96473"><ele>0</ele></trkpt>
      <trkpt lat="33.814751" lon="10.964697"><ele>0</ele></trkpt>
      <trkpt lat="33.814868" lon="10.96462"><ele>0</ele></trkpt>
      <trkpt lat="33.815001" lon="10.964523"><ele>0</ele></trkpt>
      <trkpt lat="33.815283" lon="10.964309"><ele>0</ele></trkpt>
      <trkpt lat="33.815406" lon="10.964224"><ele>0</ele></trkpt>
      <trkpt lat="33.815544" lon="10.964114"><ele>0</ele></trkpt>
      <trkpt lat="33.815872" lon="10.963903"><ele>0</ele></trkpt>
      <trkpt lat="33.815987" lon="10.963817"><ele>0</ele></trkpt>
      <trkpt lat="33.816456" lon="10.963346"><ele>0</ele></trkpt>
      <trkpt lat="33.816599" lon="10.963235"><ele>0</ele></trkpt>
      <trkpt lat="33.816681" lon="10.963187"><ele>0</ele></trkpt>
      <trkpt lat="33.816727" lon="10.963168"><ele>0</ele></trkpt>
      <trkpt lat="33.816957" lon="10.963063"><ele>0</ele></trkpt>
      <trkpt lat="33.817091" lon="10.962994"><ele>0</ele></trkpt>
      <trkpt lat="33.817337" lon="10.962848"><ele>0</ele></trkpt>
      <trkpt lat="33.817493" lon="10.962746"><ele>0</ele></trkpt>
      <trkpt lat="33.817681" lon="10.962623"><ele>0</ele></trkpt>
      <trkpt lat="33.817942" lon="10.96244"><ele>0</ele></trkpt>
      <trkpt lat="33.81821" lon="10.962268"><ele>0</ele></trkpt>
      <trkpt lat="33.818232" lon="10.962197"><ele>0</ele></trkpt>
      <trkpt lat="33.818236" lon="10.962155"><ele>0</ele></trkpt>
      <trkpt lat="33.818246" lon="10.962105"><ele>0</ele></trkpt>
      <trkpt lat="33.818251" lon="10.962032"><ele>0</ele></trkpt>
      <trkpt lat="33.818249" lon="10.961921"><ele>0</ele></trkpt>
      <trkpt lat="33.818205" lon="10.961555"><ele>0</ele></trkpt>
      <trkpt lat="33.818154" lon="10.961321"><ele>0</ele></trkpt>
      <trkpt lat="33.818166" lon="10.961026"><ele>0</ele></trkpt>
      <trkpt lat="33.818187" lon="10.960869"><ele>0</ele></trkpt>
      <trkpt lat="33.818224" lon="10.960684"><ele>0</ele></trkpt>
      <trkpt lat="33.81826" lon="10.960457"><ele>0</ele></trkpt>
      <trkpt lat="33.818284" lon="10.960394"><ele>0</ele></trkpt>
      <trkpt lat="33.818319" lon="10.960328"><ele>0</ele></trkpt>
      <trkpt lat="33.818455" lon="10.960172"><ele>0</ele></trkpt>
      <trkpt lat="33.818718" lon="10.960013"><ele>0</ele></trkpt>
      <trkpt lat="33.818887" lon="10.959857"><ele>0</ele></trkpt>
      <trkpt lat="33.818908" lon="10.959773"><ele>0</ele></trkpt>
      <trkpt lat="33.818947" lon="10.959711"><ele>0</ele></trkpt>
      <trkpt lat="33.819067" lon="10.959587"><ele>0</ele></trkpt>
      <trkpt lat="33.819212" lon="10.959468"><ele>0</ele></trkpt>
      <trkpt lat="33.819117" lon="10.959211"><ele>0</ele></trkpt>
      <trkpt lat="33.819092" lon="10.958928"><ele>0</ele></trkpt>
      <trkpt lat="33.819083" lon="10.958512"><ele>0</ele></trkpt>
      <trkpt lat="33.819069" lon="10.95847"><ele>0</ele></trkpt>
      <trkpt lat="33.81904" lon="10.958441"><ele>0</ele></trkpt>
      <trkpt lat="33.81901" lon="10.958426"><ele>0</ele></trkpt>
      <trkpt lat="33.818959" lon="10.958423"><ele>0</ele></trkpt>
      <trkpt lat="33.818959" lon="10.958336"><ele>0</ele></trkpt>
      <trkpt lat="33.818935" lon="10.957994"><ele>0</ele></trkpt>
      <trkpt lat="33.818981" lon="10.957874"><ele>0</ele></trkpt>
      <trkpt lat="33.818981" lon="10.957804"><ele>0</ele></trkpt>
      <trkpt lat="33.81897" lon="10.957769"><ele>0</ele></trkpt>
      <trkpt lat="33.818911" lon="10.957496"><ele>0</ele></trkpt>
      <trkpt lat="33.8189" lon="10.957336"><ele>0</ele></trkpt>
      <trkpt lat="33.818897" lon="10.957022"><ele>0</ele></trkpt>
      <trkpt lat="33.818892" lon="10.956945"><ele>0</ele></trkpt>
      <trkpt lat="33.818928" lon="10.956618"><ele>0</ele></trkpt>
      <trkpt lat="33.818924" lon="10.956352"><ele>0</ele></trkpt>
      <trkpt lat="33.818881" lon="10.955685"><ele>0</ele></trkpt>
      <trkpt lat="33.818863" lon="10.95553"><ele>0</ele></trkpt>
      <trkpt lat="33.818849" lon="10.955406"><ele>0</ele></trkpt>
      <trkpt lat="33.818805" lon="10.955147"><ele>0</ele></trkpt>
      <trkpt lat="33.818742" lon="10.954936"><ele>0</ele></trkpt>
      <trkpt lat="33.818649" lon="10.954652"><ele>0</ele></trkpt>
      <trkpt lat="33.818519" lon="10.954378"><ele>0</ele></trkpt>
      <trkpt lat="33.818512" lon="10.954314"><ele>0</ele></trkpt>
      <trkpt lat="33.818544" lon="10.954079"><ele>0</ele></trkpt>
      <trkpt lat="33.818564" lon="10.95402"><ele>0</ele></trkpt>
      <trkpt lat="33.818596" lon="10.953985"><ele>0</ele></trkpt>
      <trkpt lat="33.8188" lon="10.953904"><ele>0</ele></trkpt>
      <trkpt lat="33.819503" lon="10.953528"><ele>0</ele></trkpt>
      <trkpt lat="33.819791" lon="10.95337"><ele>0</ele></trkpt>
      <trkpt lat="33.820119" lon="10.954014"><ele>0</ele></trkpt>
      <trkpt lat="33.820252" lon="10.95389"><ele>0</ele></trkpt>
      <trkpt lat="33.820571" lon="10.953559"><ele>0</ele></trkpt>
      <trkpt lat="33.820641" lon="10.953501"><ele>0</ele></trkpt>
      <trkpt lat="33.820676" lon="10.95345"><ele>0</ele></trkpt>
      <trkpt lat="33.820699" lon="10.953401"><ele>0</ele></trkpt>
      <trkpt lat="33.820736" lon="10.953371"><ele>0</ele></trkpt>
      <trkpt lat="33.820764" lon="10.95337"><ele>0</ele></trkpt>
      <trkpt lat="33.820793" lon="10.953383"><ele>0</ele></trkpt>
      <trkpt lat="33.820905" lon="10.953609"><ele>0</ele></trkpt>
      <trkpt lat="33.820933" lon="10.953685"><ele>0</ele></trkpt>
      <trkpt lat="33.820942" lon="10.953735"><ele>0</ele></trkpt>
      <trkpt lat="33.820944" lon="10.95378"><ele>0</ele></trkpt>
      <trkpt lat="33.820942" lon="10.953735"><ele>0</ele></trkpt>
      <trkpt lat="33.820933" lon="10.953685"><ele>0</ele></trkpt>
      <trkpt lat="33.820905" lon="10.953609"><ele>0</ele></trkpt>
      <trkpt lat="33.820793" lon="10.953383"><ele>0</ele></trkpt>
      <trkpt lat="33.820764" lon="10.95337"><ele>0</ele></trkpt>
      <trkpt lat="33.820736" lon="10.953371"><ele>0</ele></trkpt>
      <trkpt lat="33.820699" lon="10.953401"><ele>0</ele></trkpt>
      <trkpt lat="33.820676" lon="10.95345"><ele>0</ele></trkpt>
      <trkpt lat="33.820641" lon="10.953501"><ele>0</ele></trkpt>
      <trkpt lat="33.820571" lon="10.953559"><ele>0</ele></trkpt>
      <trkpt lat="33.820252" lon="10.95389"><ele>0</ele></trkpt>
      <trkpt lat="33.820119" lon="10.954014"><ele>0</ele></trkpt>
      <trkpt lat="33.819791" lon="10.95337"><ele>0</ele></trkpt>
      <trkpt lat="33.819691" lon="10.95313"><ele>0</ele></trkpt>
      <trkpt lat="33.81968" lon="10.953083"><ele>0</ele></trkpt>
      <trkpt lat="33.819683" lon="10.953022"><ele>0</ele></trkpt>
      <trkpt lat="33.819706" lon="10.952954"><ele>0</ele></trkpt>
      <trkpt lat="33.819767" lon="10.952844"><ele>0</ele></trkpt>
      <trkpt lat="33.819789" lon="10.952781"><ele>0</ele></trkpt>
      <trkpt lat="33.819798" lon="10.952713"><ele>0</ele></trkpt>
      <trkpt lat="33.819792" lon="10.952624"><ele>0</ele></trkpt>
      <trkpt lat="33.819777" lon="10.952544"><ele>0</ele></trkpt>
      <trkpt lat="33.81972" lon="10.952419"><ele>0</ele></trkpt>
      <trkpt lat="33.819711" lon="10.9524"><ele>0</ele></trkpt>
      <trkpt lat="33.819637" lon="10.952317"><ele>0</ele></trkpt>
      <trkpt lat="33.81959" lon="10.952284"><ele>0</ele></trkpt>
      <trkpt lat="33.819464" lon="10.952243"><ele>0</ele></trkpt>
      <trkpt lat="33.819415" lon="10.952213"><ele>0</ele></trkpt>
      <trkpt lat="33.819368" lon="10.952135"><ele>0</ele></trkpt>
      <trkpt lat="33.819352" lon="10.952077"><ele>0</ele></trkpt>
      <trkpt lat="33.81933" lon="10.951883"><ele>0</ele></trkpt>
      <trkpt lat="33.819339" lon="10.951795"><ele>0</ele></trkpt>
      <trkpt lat="33.81941" lon="10.951651"><ele>0</ele></trkpt>
      <trkpt lat="33.819418" lon="10.951594"><ele>0</ele></trkpt>
      <trkpt lat="33.819415" lon="10.951561"><ele>0</ele></trkpt>
      <trkpt lat="33.819382" lon="10.951477"><ele>0</ele></trkpt>
      <trkpt lat="33.819352" lon="10.951362"><ele>0</ele></trkpt>
      <trkpt lat="33.819354" lon="10.951081"><ele>0</ele></trkpt>
      <trkpt lat="33.81935" lon="10.951039"><ele>0</ele></trkpt>
      <trkpt lat="33.819331" lon="10.950994"><ele>0</ele></trkpt>
      <trkpt lat="33.819139" lon="10.950615"><ele>0</ele></trkpt>
      <trkpt lat="33.819017" lon="10.950293"><ele>0</ele></trkpt>
      <trkpt lat="33.818901" lon="10.950015"><ele>0</ele></trkpt>
      <trkpt lat="33.818754" lon="10.949734"><ele>0</ele></trkpt>
      <trkpt lat="33.818818" lon="10.949674"><ele>0</ele></trkpt>
      <trkpt lat="33.819169" lon="10.949285"><ele>0</ele></trkpt>
      <trkpt lat="33.819367" lon="10.949167"><ele>0</ele></trkpt>
      <trkpt lat="33.819473" lon="10.949077"><ele>0</ele></trkpt>
      <trkpt lat="33.819852" lon="10.948976"><ele>0</ele></trkpt>
      <trkpt lat="33.819957" lon="10.948916"><ele>0</ele></trkpt>
      <trkpt lat="33.819995" lon="10.948871"><ele>0</ele></trkpt>
      <trkpt lat="33.820016" lon="10.948825"><ele>0</ele></trkpt>
      <trkpt lat="33.820017" lon="10.948798"><ele>0</ele></trkpt>
      <trkpt lat="33.82001" lon="10.948766"><ele>0</ele></trkpt>
      <trkpt lat="33.819974" lon="10.948672"><ele>0</ele></trkpt>
      <trkpt lat="33.819966" lon="10.948629"><ele>0</ele></trkpt>
      <trkpt lat="33.819975" lon="10.948591"><ele>0</ele></trkpt>
      <trkpt lat="33.819998" lon="10.94856"><ele>0</ele></trkpt>
      <trkpt lat="33.820047" lon="10.948516"><ele>0</ele></trkpt>
      <trkpt lat="33.82025" lon="10.948328"><ele>0</ele></trkpt>
      <trkpt lat="33.820299" lon="10.948273"><ele>0</ele></trkpt>
      <trkpt lat="33.820331" lon="10.948222"><ele>0</ele></trkpt>
      <trkpt lat="33.820361" lon="10.948151"><ele>0</ele></trkpt>
      <trkpt lat="33.820394" lon="10.948025"><ele>0</ele></trkpt>
      <trkpt lat="33.820452" lon="10.947714"><ele>0</ele></trkpt>
      <trkpt lat="33.820467" lon="10.947658"><ele>0</ele></trkpt>
      <trkpt lat="33.820485" lon="10.947466"><ele>0</ele></trkpt>
      <trkpt lat="33.820485" lon="10.947287"><ele>0</ele></trkpt>
      <trkpt lat="33.820464" lon="10.946975"><ele>0</ele></trkpt>
      <trkpt lat="33.82044" lon="10.94682"><ele>0</ele></trkpt>
      <trkpt lat="33.820424" lon="10.946782"><ele>0</ele></trkpt>
      <trkpt lat="33.820385" lon="10.946729"><ele>0</ele></trkpt>
      <trkpt lat="33.820199" lon="10.946515"><ele>0</ele></trkpt>
      <trkpt lat="33.819955" lon="10.946206"><ele>0</ele></trkpt>
      <trkpt lat="33.819903" lon="10.94613"><ele>0</ele></trkpt>
      <trkpt lat="33.819949" lon="10.94609"><ele>0</ele></trkpt>
      <trkpt lat="33.820028" lon="10.946055"><ele>0</ele></trkpt>
      <trkpt lat="33.82006" lon="10.946052"><ele>0</ele></trkpt>
      <trkpt lat="33.820096" lon="10.946058"><ele>0</ele></trkpt>
      <trkpt lat="33.820105" lon="10.945954"><ele>0</ele></trkpt>
      <trkpt lat="33.820155" lon="10.945905"><ele>0</ele></trkpt>
      <trkpt lat="33.820268" lon="10.945934"><ele>0</ele></trkpt>
      <trkpt lat="33.82033" lon="10.945887"><ele>0</ele></trkpt>
      <trkpt lat="33.820318" lon="10.945868"><ele>0</ele></trkpt>
      <trkpt lat="33.82033" lon="10.945887"><ele>0</ele></trkpt>
      <trkpt lat="33.820268" lon="10.945934"><ele>0</ele></trkpt>
      <trkpt lat="33.820155" lon="10.945905"><ele>0</ele></trkpt>
      <trkpt lat="33.820105" lon="10.945954"><ele>0</ele></trkpt>
      <trkpt lat="33.820096" lon="10.946058"><ele>0</ele></trkpt>
      <trkpt lat="33.820133" lon="10.946073"><ele>0</ele></trkpt>
      <trkpt lat="33.820188" lon="10.946111"><ele>0</ele></trkpt>
      <trkpt lat="33.820448" lon="10.946325"><ele>0</ele></trkpt>
      <trkpt lat="33.820568" lon="10.946407"><ele>0</ele></trkpt>
      <trkpt lat="33.821251" lon="10.946843"><ele>0</ele></trkpt>
      <trkpt lat="33.821655" lon="10.947124"><ele>0</ele></trkpt>
      <trkpt lat="33.821811" lon="10.947078"><ele>0</ele></trkpt>
      <trkpt lat="33.82189" lon="10.947064"><ele>0</ele></trkpt>
      <trkpt lat="33.822179" lon="10.947001"><ele>0</ele></trkpt>
      <trkpt lat="33.822287" lon="10.946955"><ele>0</ele></trkpt>
      <trkpt lat="33.822698" lon="10.946715"><ele>0</ele></trkpt>
      <trkpt lat="33.822796" lon="10.946675"><ele>0</ele></trkpt>
      <trkpt lat="33.822983" lon="10.946629"><ele>0</ele></trkpt>
      <trkpt lat="33.823187" lon="10.946626"><ele>0</ele></trkpt>
      <trkpt lat="33.823316" lon="10.946609"><ele>0</ele></trkpt>
      <trkpt lat="33.823425" lon="10.94658"><ele>0</ele></trkpt>
      <trkpt lat="33.823998" lon="10.946407"><ele>0</ele></trkpt>
      <trkpt lat="33.824127" lon="10.946381"><ele>0</ele></trkpt>
      <trkpt lat="33.823998" lon="10.946407"><ele>0</ele></trkpt>
      <trkpt lat="33.823425" lon="10.94658"><ele>0</ele></trkpt>
      <trkpt lat="33.823316" lon="10.946609"><ele>0</ele></trkpt>
      <trkpt lat="33.823187" lon="10.946626"><ele>0</ele></trkpt>
      <trkpt lat="33.822983" lon="10.946629"><ele>0</ele></trkpt>
      <trkpt lat="33.822796" lon="10.946675"><ele>0</ele></trkpt>
      <trkpt lat="33.822698" lon="10.946715"><ele>0</ele></trkpt>
      <trkpt lat="33.822287" lon="10.946955"><ele>0</ele></trkpt>
      <trkpt lat="33.822179" lon="10.947001"><ele>0</ele></trkpt>
      <trkpt lat="33.82189" lon="10.947064"><ele>0</ele></trkpt>
      <trkpt lat="33.821811" lon="10.947078"><ele>0</ele></trkpt>
      <trkpt lat="33.821655" lon="10.947124"><ele>0</ele></trkpt>
      <trkpt lat="33.82168" lon="10.94728"><ele>0</ele></trkpt>
      <trkpt lat="33.821693" lon="10.947305"><ele>0</ele></trkpt>
      <trkpt lat="33.821824" lon="10.94745"><ele>0</ele></trkpt>
      <trkpt lat="33.821867" lon="10.94752"><ele>0</ele></trkpt>
      <trkpt lat="33.821907" lon="10.947627"><ele>0</ele></trkpt>
      <trkpt lat="33.82199" lon="10.947782"><ele>0</ele></trkpt>
      <trkpt lat="33.822101" lon="10.94794"><ele>0</ele></trkpt>
      <trkpt lat="33.822131" lon="10.948017"><ele>0</ele></trkpt>
      <trkpt lat="33.822145" lon="10.948095"><ele>0</ele></trkpt>
      <trkpt lat="33.822203" lon="10.948191"><ele>0</ele></trkpt>
      <trkpt lat="33.82223" lon="10.948266"><ele>0</ele></trkpt>
      <trkpt lat="33.822284" lon="10.948431"><ele>0</ele></trkpt>
      <trkpt lat="33.822317" lon="10.94859"><ele>0</ele></trkpt>
      <trkpt lat="33.822337" lon="10.948639"><ele>0</ele></trkpt>
      <trkpt lat="33.822376" lon="10.948704"><ele>0</ele></trkpt>
      <trkpt lat="33.822405" lon="10.948892"><ele>0</ele></trkpt>
      <trkpt lat="33.822413" lon="10.948985"><ele>0</ele></trkpt>
      <trkpt lat="33.822295" lon="10.949113"><ele>0</ele></trkpt>
      <trkpt lat="33.822139" lon="10.949321"><ele>0</ele></trkpt>
      <trkpt lat="33.822052" lon="10.94949"><ele>0</ele></trkpt>
      <trkpt lat="33.821919" lon="10.949686"><ele>0</ele></trkpt>
      <trkpt lat="33.821842" lon="10.949823"><ele>0</ele></trkpt>
      <trkpt lat="33.821837" lon="10.949863"><ele>0</ele></trkpt>
      <trkpt lat="33.821848" lon="10.94989"><ele>0</ele></trkpt>
      <trkpt lat="33.821876" lon="10.949918"><ele>0</ele></trkpt>
      <trkpt lat="33.82192" lon="10.949902"><ele>0</ele></trkpt>
      <trkpt lat="33.822137" lon="10.949782"><ele>0</ele></trkpt>
      <trkpt lat="33.822206" lon="10.949764"><ele>0</ele></trkpt>
      <trkpt lat="33.822255" lon="10.94978"><ele>0</ele></trkpt>
      <trkpt lat="33.822275" lon="10.949801"><ele>0</ele></trkpt>
      <trkpt lat="33.822291" lon="10.949858"><ele>0</ele></trkpt>
      <trkpt lat="33.822301" lon="10.950008"><ele>0</ele></trkpt>
      <trkpt lat="33.822296" lon="10.950142"><ele>0</ele></trkpt>
      <trkpt lat="33.822282" lon="10.950224"><ele>0</ele></trkpt>
      <trkpt lat="33.822291" lon="10.950291"><ele>0</ele></trkpt>
      <trkpt lat="33.822375" lon="10.950673"><ele>0</ele></trkpt>
      <trkpt lat="33.822484" lon="10.951078"><ele>0</ele></trkpt>
      <trkpt lat="33.822488" lon="10.951114"><ele>0</ele></trkpt>
      <trkpt lat="33.822649" lon="10.951655"><ele>0</ele></trkpt>
      <trkpt lat="33.822697" lon="10.951763"><ele>0</ele></trkpt>
      <trkpt lat="33.822785" lon="10.951913"><ele>0</ele></trkpt>
      <trkpt lat="33.822845" lon="10.952065"><ele>0</ele></trkpt>
      <trkpt lat="33.822839" lon="10.952131"><ele>0</ele></trkpt>
      <trkpt lat="33.822807" lon="10.952253"><ele>0</ele></trkpt>
      <trkpt lat="33.822802" lon="10.95228"><ele>0</ele></trkpt>
      <trkpt lat="33.82281" lon="10.95234"><ele>0</ele></trkpt>
      <trkpt lat="33.822935" lon="10.952808"><ele>0</ele></trkpt>
      <trkpt lat="33.822999" lon="10.953037"><ele>0</ele></trkpt>
      <trkpt lat="33.822996" lon="10.953264"><ele>0</ele></trkpt>
      <trkpt lat="33.823008" lon="10.95332"><ele>0</ele></trkpt>
      <trkpt lat="33.823074" lon="10.953465"><ele>0</ele></trkpt>
      <trkpt lat="33.823149" lon="10.953744"><ele>0</ele></trkpt>
      <trkpt lat="33.823169" lon="10.95384"><ele>0</ele></trkpt>
      <trkpt lat="33.8232" lon="10.953941"><ele>0</ele></trkpt>
      <trkpt lat="33.823293" lon="10.954198"><ele>0</ele></trkpt>
      <trkpt lat="33.823338" lon="10.954405"><ele>0</ele></trkpt>
      <trkpt lat="33.823383" lon="10.954716"><ele>0</ele></trkpt>
      <trkpt lat="33.823441" lon="10.955028"><ele>0</ele></trkpt>
      <trkpt lat="33.823496" lon="10.955339"><ele>0</ele></trkpt>
      <trkpt lat="33.823533" lon="10.955601"><ele>0</ele></trkpt>
      <trkpt lat="33.82357" lon="10.955754"><ele>0</ele></trkpt>
      <trkpt lat="33.823633" lon="10.955947"><ele>0</ele></trkpt>
      <trkpt lat="33.823666" lon="10.956079"><ele>0</ele></trkpt>
      <trkpt lat="33.823819" lon="10.956417"><ele>0</ele></trkpt>
      <trkpt lat="33.823904" lon="10.956637"><ele>0</ele></trkpt>
      <trkpt lat="33.823945" lon="10.956727"><ele>0</ele></trkpt>
      <trkpt lat="33.823986" lon="10.956792"><ele>0</ele></trkpt>
      <trkpt lat="33.824081" lon="10.956796"><ele>0</ele></trkpt>
      <trkpt lat="33.824125" lon="10.95697"><ele>0</ele></trkpt>
      <trkpt lat="33.824171" lon="10.95709"><ele>0</ele></trkpt>
      <trkpt lat="33.824299" lon="10.957339"><ele>0</ele></trkpt>
      <trkpt lat="33.824358" lon="10.957435"><ele>0</ele></trkpt>
      <trkpt lat="33.824378" lon="10.957485"><ele>0</ele></trkpt>
      <trkpt lat="33.824435" lon="10.957576"><ele>0</ele></trkpt>
      <trkpt lat="33.824486" lon="10.957677"><ele>0</ele></trkpt>
      <trkpt lat="33.8246" lon="10.957839"><ele>0</ele></trkpt>
      <trkpt lat="33.824664" lon="10.957952"><ele>0</ele></trkpt>
      <trkpt lat="33.824712" lon="10.958079"><ele>0</ele></trkpt>
      <trkpt lat="33.824743" lon="10.958222"><ele>0</ele></trkpt>
      <trkpt lat="33.824776" lon="10.958314"><ele>0</ele></trkpt>
      <trkpt lat="33.824809" lon="10.958377"><ele>0</ele></trkpt>
      <trkpt lat="33.824862" lon="10.95846"><ele>0</ele></trkpt>
      <trkpt lat="33.824941" lon="10.95855"><ele>0</ele></trkpt>
      <trkpt lat="33.825104" lon="10.958706"><ele>0</ele></trkpt>
      <trkpt lat="33.825176" lon="10.958785"><ele>0</ele></trkpt>
      <trkpt lat="33.82523" lon="10.958857"><ele>0</ele></trkpt>
      <trkpt lat="33.82526" lon="10.958912"><ele>0</ele></trkpt>
      <trkpt lat="33.825279" lon="10.958989"><ele>0</ele></trkpt>
      <trkpt lat="33.825283" lon="10.959119"><ele>0</ele></trkpt>
      <trkpt lat="33.825298" lon="10.959201"><ele>0</ele></trkpt>
      <trkpt lat="33.825374" lon="10.95928"><ele>0</ele></trkpt>
      <trkpt lat="33.825304" lon="10.959383"><ele>0</ele></trkpt>
      <trkpt lat="33.824963" lon="10.959574"><ele>0</ele></trkpt>
      <trkpt lat="33.824725" lon="10.959646"><ele>0</ele></trkpt></trkseg></trk></gpx>