<?xml version="1.0" encoding="UTF-8"?><gpx version="1.1" creator="Heripia 3.7.408" xmlns="http://www.topografix.com/GPX/1/1" xmlns:xsi="http://www.w3.org/2001/XMLSchema-instance" xsi:schemaLocation="http://www.topografix.com/GPX/1/1 http://www.topografix.com/GPX/1/1/gpx.xsd">
    <metadata>
        <name>Circuit de Mosquée Ouedrane à Phare Aghir</name>
        <desc>Circuit généré par Heripia — heripia.com</desc>
        <link href="https://heripia.com/">
            <text>Heripia [HW-ID:HW-01KJB21G695QTYPJYJ4XYW7QHE]</text>
        </link>
    </metadata>
    <wpt lat="33.763028" lon="10.968778">
      <name>Mosquée Ouedrane</name>
      <desc></desc>
    </wpt>
    <wpt lat="33.76632577573908" lon="10.971047793701809">
      <name>Mosquée des six coupoles</name>
      <desc></desc>
    </wpt>
    <wpt lat="33.766501115888644" lon="10.984541764908952">
      <name>Mosquée Chababia</name>
      <desc></desc>
    </wpt>
    <wpt lat="33.759895" lon="10.990438">
      <name>Mosquée Sidi Haren</name>
      <desc></desc>
    </wpt>
    <wpt lat="33.75688148085831" lon="11.013649106025698">
      <name>Restaurant Port D&apos;Aghir</name>
      <desc></desc>
    </wpt>
    <wpt lat="33.753597" lon="11.012438">
      <name>Phare Aghir</name>
      <desc></desc>
    </wpt><trk><name>Circuit de Mosquée Ouedrane à Phare Aghir</name><desc><![CDATA[Circuit généré par Heripia — heripia.com]]></desc><trkseg><trkpt lat="33.762885" lon="10.968738"><ele>0</ele></trkpt>
      <trkpt lat="33.762937" lon="10.968636"><ele>0</ele></trkpt>
      <trkpt lat="33.762996" lon="10.968591"><ele>0</ele></trkpt>
      <trkpt lat="33.763102" lon="10.968516"><ele>0</ele></trkpt>
      <trkpt lat="33.763167" lon="10.968647"><ele>0</ele></trkpt>
      <trkpt lat="33.76315" lon="10.968894"><ele>0</ele></trkpt>
      <trkpt lat="33.76311" lon="10.96914"><ele>0</ele></trkpt>
      <trkpt lat="33.763113" lon="10.969442"><ele>0</ele></trkpt>
      <trkpt lat="33.763191" lon="10.969634"><ele>0</ele></trkpt>
      <trkpt lat="33.763371" lon="10.969955"><ele>0</ele></trkpt>
      <trkpt lat="33.763619" lon="10.970349"><ele>0</ele></trkpt>
      <trkpt lat="33.763663" lon="10.970394"><ele>0</ele></trkpt>
      <trkpt lat="33.763705" lon="10.970421"><ele>0</ele></trkpt>
      <trkpt lat="33.763794" lon="10.970435"><ele>0</ele></trkpt>
      <trkpt lat="33.764178" lon="10.970369"><ele>0</ele></trkpt>
      <trkpt lat="33.764234" lon="10.970366"><ele>0</ele></trkpt>
      <trkpt lat="33.764312" lon="10.970395"><ele>0</ele></trkpt>
      <trkpt lat="33.764346" lon="10.970432"><ele>0</ele></trkpt>
      <trkpt lat="33.764383" lon="10.970521"><ele>0</ele></trkpt>
      <trkpt lat="33.764537" lon="10.970789"><ele>0</ele></trkpt>
      <trkpt lat="33.764626" lon="10.970903"><ele>0</ele></trkpt>
      <trkpt lat="33.765036" lon="10.971335"><ele>0</ele></trkpt>
      <trkpt lat="33.765105" lon="10.97145"><ele>0</ele></trkpt>
      <trkpt lat="33.765168" lon="10.97154"><ele>0</ele></trkpt>
      <trkpt lat="33.765256" lon="10.971635"><ele>0</ele></trkpt>
      <trkpt lat="33.765361" lon="10.971727"><ele>0</ele></trkpt>
      <trkpt lat="33.765578" lon="10.971961"><ele>0</ele></trkpt>
      <trkpt lat="33.765846" lon="10.97229"><ele>0</ele></trkpt>
      <trkpt lat="33.766403" lon="10.971952"><ele>0</ele></trkpt>
      <trkpt lat="33.76651" lon="10.971904"><ele>0</ele></trkpt>
      <trkpt lat="33.766552" lon="10.971901"><ele>0</ele></trkpt>
      <trkpt lat="33.766627" lon="10.971931"><ele>0</ele></trkpt>
      <trkpt lat="33.766646" lon="10.971865"><ele>0</ele></trkpt>
      <trkpt lat="33.766704" lon="10.971673"><ele>0</ele></trkpt>
      <trkpt lat="33.766805" lon="10.971406"><ele>0</ele></trkpt>
      <trkpt lat="33.766746" lon="10.971333"><ele>0</ele></trkpt>
      <trkpt lat="33.766683" lon="10.971239"><ele>0</ele></trkpt>
      <trkpt lat="33.76655" lon="10.971017"><ele>0</ele></trkpt>
      <trkpt lat="33.766683" lon="10.971239"><ele>0</ele></trkpt>
      <trkpt lat="33.766746" lon="10.971333"><ele>0</ele></trkpt>
      <trkpt lat="33.766805" lon="10.971406"><ele>0</ele></trkpt>
      <trkpt lat="33.766704" lon="10.971673"><ele>0</ele></trkpt>
      <trkpt lat="33.766646" lon="10.971865"><ele>0</ele></trkpt>
      <trkpt lat="33.766627" lon="10.971931"><ele>0</ele></trkpt>
      <trkpt lat="33.766567" lon="10.972183"><ele>0</ele></trkpt>
      <trkpt lat="33.766517" lon="10.972482"><ele>0</ele></trkpt>
      <trkpt lat="33.7665" lon="10.972633"><ele>0</ele></trkpt>
      <trkpt lat="33.766453" lon="10.973344"><ele>0</ele></trkpt>
      <trkpt lat="33.76642" lon="10.973579"><ele>0</ele></trkpt>
      <trkpt lat="33.766355" lon="10.973869"><ele>0</ele></trkpt>
      <trkpt lat="33.766147" lon="10.974575"><ele>0</ele></trkpt>
      <trkpt lat="33.766037" lon="10.975041"><ele>0</ele></trkpt>
      <trkpt lat="33.765989" lon="10.975268"><ele>0</ele></trkpt>
      <trkpt lat="33.765954" lon="10.975497"><ele>0</ele></trkpt>
      <trkpt lat="33.765951" lon="10.975519"><ele>0</ele></trkpt>
      <trkpt lat="33.765919" lon="10.975738"><ele>0</ele></trkpt>
      <trkpt lat="33.765912" lon="10.975845"><ele>0</ele></trkpt>
      <trkpt lat="33.765917" lon="10.976439"><ele>0</ele></trkpt>
      <trkpt lat="33.765911" lon="10.976642"><ele>0</ele></trkpt>
      <trkpt lat="33.765844" lon="10.977342"><ele>0</ele></trkpt>
      <trkpt lat="33.765836" lon="10.97748"><ele>0</ele></trkpt>
      <trkpt lat="33.765846" lon="10.977763"><ele>0</ele></trkpt>
      <trkpt lat="33.765862" lon="10.97787"><ele>0</ele></trkpt>
      <trkpt lat="33.76592" lon="10.978067"><ele>0</ele></trkpt>
      <trkpt lat="33.765992" lon="10.978247"><ele>0</ele></trkpt>
      <trkpt lat="33.766193" lon="10.978696"><ele>0</ele></trkpt>
      <trkpt lat="33.766202" lon="10.978762"><ele>0</ele></trkpt>
      <trkpt lat="33.766201" lon="10.978873"><ele>0</ele></trkpt>
      <trkpt lat="33.766168" lon="10.979196"><ele>0</ele></trkpt>
      <trkpt lat="33.766084" lon="10.979864"><ele>0</ele></trkpt>
      <trkpt lat="33.766067" lon="10.980068"><ele>0</ele></trkpt>
      <trkpt lat="33.766072" lon="10.980254"><ele>0</ele></trkpt>
      <trkpt lat="33.766104" lon="10.980465"><ele>0</ele></trkpt>
      <trkpt lat="33.766196" lon="10.980857"><ele>0</ele></trkpt>
      <trkpt lat="33.766279" lon="10.981265"><ele>0</ele></trkpt>
      <trkpt lat="33.7663" lon="10.981445"><ele>0</ele></trkpt>
      <trkpt lat="33.766324" lon="10.981779"><ele>0</ele></trkpt>
      <trkpt lat="33.766353" lon="10.982196"><ele>0</ele></trkpt>
      <trkpt lat="33.766364" lon="10.982599"><ele>0</ele></trkpt>
      <trkpt lat="33.766358" lon="10.982776"><ele>0</ele></trkpt>
      <trkpt lat="33.766332" lon="10.982972"><ele>0</ele></trkpt>
      <trkpt lat="33.766292" lon="10.983203"><ele>0</ele></trkpt>
      <trkpt lat="33.766131" lon="10.983963"><ele>0</ele></trkpt>
      <trkpt lat="33.766115" lon="10.98408"><ele>0</ele></trkpt>
      <trkpt lat="33.76611" lon="10.984442"><ele>0</ele></trkpt>
      <trkpt lat="33.766092" lon="10.984666"><ele>0</ele></trkpt>
      <trkpt lat="33.766134" lon="10.984691"><ele>0</ele></trkpt>
      <trkpt lat="33.766179" lon="10.984705"><ele>0</ele></trkpt>
      <trkpt lat="33.766226" lon="10.984708"><ele>0</ele></trkpt>
      <trkpt lat="33.766454" lon="10.984442"><ele>0</ele></trkpt>
      <trkpt lat="33.766226" lon="10.984708"><ele>0</ele></trkpt>
      <trkpt lat="33.766061" lon="10.984871"><ele>0</ele></trkpt>
      <trkpt lat="33.765925" lon="10.985109"><ele>0</ele></trkpt>
      <trkpt lat="33.765825" lon="10.985257"><ele>0</ele></trkpt>
      <trkpt lat="33.765707" lon="10.985398"><ele>0</ele></trkpt>
      <trkpt lat="33.765501" lon="10.985585"><ele>0</ele></trkpt>
      <trkpt lat="33.764887" lon="10.986009"><ele>0</ele></trkpt>
      <trkpt lat="33.764793" lon="10.986081"><ele>0</ele></trkpt>
      <trkpt lat="33.764735" lon="10.986135"><ele>0</ele></trkpt>
      <trkpt lat="33.764699" lon="10.986175"><ele>0</ele></trkpt>
      <trkpt lat="33.764683" lon="10.986207"><ele>0</ele></trkpt>
      <trkpt lat="33.764526" lon="10.986327"><ele>0</ele></trkpt>
      <trkpt lat="33.76442" lon="10.986412"><ele>0</ele></trkpt>
      <trkpt lat="33.764272" lon="10.986496"><ele>0</ele></trkpt>
      <trkpt lat="33.764111" lon="10.986596"><ele>0</ele></trkpt>
      <trkpt lat="33.763945" lon="10.986714"><ele>0</ele></trkpt>
      <trkpt lat="33.763836" lon="10.98676"><ele>0</ele></trkpt>
      <trkpt lat="33.763128" lon="10.98698"><ele>0</ele></trkpt>
      <trkpt lat="33.762936" lon="10.987052"><ele>0</ele></trkpt>
      <trkpt lat="33.762726" lon="10.987151"><ele>0</ele></trkpt>
      <trkpt lat="33.762643" lon="10.987202"><ele>0</ele></trkpt>
      <trkpt lat="33.762434" lon="10.987366"><ele>0</ele></trkpt>
      <trkpt lat="33.762391" lon="10.987389"><ele>0</ele></trkpt>
      <trkpt lat="33.762345" lon="10.987502"><ele>0</ele></trkpt>
      <trkpt lat="33.762337" lon="10.987545"><ele>0</ele></trkpt>
      <trkpt lat="33.762308" lon="10.987667"><ele>0</ele></trkpt>
      <trkpt lat="33.76232" lon="10.98774"><ele>0</ele></trkpt>
      <trkpt lat="33.76231" lon="10.987789"><ele>0</ele></trkpt>
      <trkpt lat="33.762283" lon="10.987852"><ele>0</ele></trkpt>
      <trkpt lat="33.762238" lon="10.987928"><ele>0</ele></trkpt>
      <trkpt lat="33.762038" lon="10.988186"><ele>0</ele></trkpt>
      <trkpt lat="33.761868" lon="10.98837"><ele>0</ele></trkpt>
      <trkpt lat="33.761545" lon="10.988696"><ele>0</ele></trkpt>
      <trkpt lat="33.761531" lon="10.98873"><ele>0</ele></trkpt>
      <trkpt lat="33.761501" lon="10.989063"><ele>0</ele></trkpt>
      <trkpt lat="33.761489" lon="10.98914"><ele>0</ele></trkpt>
      <trkpt lat="33.761473" lon="10.989177"><ele>0</ele></trkpt>
      <trkpt lat="33.761445" lon="10.989212"><ele>0</ele></trkpt>
      <trkpt lat="33.761403" lon="10.98924"><ele>0</ele></trkpt>
      <trkpt lat="33.76126" lon="10.9893"><ele>0</ele></trkpt>
      <trkpt lat="33.761218" lon="10.989325"><ele>0</ele></trkpt>
      <trkpt lat="33.761198" lon="10.989341"><ele>0</ele></trkpt>
      <trkpt lat="33.761177" lon="10.989403"><ele>0</ele></trkpt>
      <trkpt lat="33.761166" lon="10.989414"><ele>0</ele></trkpt>
      <trkpt lat="33.761143" lon="10.989421"><ele>0</ele></trkpt>
      <trkpt lat="33.760923" lon="10.989595"><ele>0</ele></trkpt>
      <trkpt lat="33.760859" lon="10.989664"><ele>0</ele></trkpt>
      <trkpt lat="33.760764" lon="10.9898"><ele>0</ele></trkpt>
      <trkpt lat="33.760694" lon="10.98992"><ele>0</ele></trkpt>
      <trkpt lat="33.760654" lon="10.989958"><ele>0</ele></trkpt>
      <trkpt lat="33.760406" lon="10.990098"><ele>0</ele></trkpt>
      <trkpt lat="33.760312" lon="10.990158"><ele>0</ele></trkpt>
      <trkpt lat="33.760229" lon="10.990229"><ele>0</ele></trkpt>
      <trkpt lat="33.760193" lon="10.990272"><ele>0</ele></trkpt>
      <trkpt lat="33.76016" lon="10.990292"><ele>0</ele></trkpt>
      <trkpt lat="33.760116" lon="10.990296"><ele>0</ele></trkpt>
      <trkpt lat="33.760027" lon="10.990235"><ele>0</ele></trkpt>
      <trkpt lat="33.759957" lon="10.990174"><ele>0</ele></trkpt>
      <trkpt lat="33.759908" lon="10.990119"><ele>0</ele></trkpt>
      <trkpt lat="33.75983" lon="10.989998"><ele>0</ele></trkpt>
      <trkpt lat="33.759776" lon="10.989878"><ele>0</ele></trkpt>
      <trkpt lat="33.759662" lon="10.989551"><ele>0</ele></trkpt>
      <trkpt lat="33.759621" lon="10.98945"><ele>0</ele></trkpt>
      <trkpt lat="33.759522" lon="10.989265"><ele>0</ele></trkpt>
      <trkpt lat="33.759252" lon="10.988751"><ele>0</ele></trkpt>
      <trkpt lat="33.759237" lon="10.988655"><ele>0</ele></trkpt>
      <trkpt lat="33.759233" lon="10.988473"><ele>0</ele></trkpt>
      <trkpt lat="33.759084" lon="10.988498"><ele>0</ele></trkpt>
      <trkpt lat="33.758991" lon="10.988523"><ele>0</ele></trkpt>
      <trkpt lat="33.758906" lon="10.988556"><ele>0</ele></trkpt>
      <trkpt lat="33.758625" lon="10.98873"><ele>0</ele></trkpt>
      <trkpt lat="33.75855" lon="10.988762"><ele>0</ele></trkpt>
      <trkpt lat="33.758142" lon="10.988903"><ele>0</ele></trkpt>
      <trkpt lat="33.758045" lon="10.988938"><ele>0</ele></trkpt>
      <trkpt lat="33.757798" lon="10.989045"><ele>0</ele></trkpt>
      <trkpt lat="33.757147" lon="10.989426"><ele>0</ele></trkpt>
      <trkpt lat="33.756727" lon="10.989648"><ele>0</ele></trkpt>
      <trkpt lat="33.756612" lon="10.989715"><ele>0</ele></trkpt>
      <trkpt lat="33.756424" lon="10.989884"><ele>0</ele></trkpt>
      <trkpt lat="33.756246" lon="10.99001"><ele>0</ele></trkpt>
      <trkpt lat="33.755948" lon="10.990197"><ele>0</ele></trkpt>
      <trkpt lat="33.755674" lon="10.990347"><ele>0</ele></trkpt>
      <trkpt lat="33.755555" lon="10.99043"><ele>0</ele></trkpt>
      <trkpt lat="33.755346" lon="10.990619"><ele>0</ele></trkpt>
      <trkpt lat="33.755146" lon="10.990825"><ele>0</ele></trkpt>
      <trkpt lat="33.755072" lon="10.990896"><ele>0</ele></trkpt>
      <trkpt lat="33.754993" lon="10.990981"><ele>0</ele></trkpt>
      <trkpt lat="33.754833" lon="10.991134"><ele>0</ele></trkpt>
      <trkpt lat="33.754729" lon="10.991224"><ele>0</ele></trkpt>
      <trkpt lat="33.754671" lon="10.991266"><ele>0</ele></trkpt>
      <trkpt lat="33.754844" lon="10.991646"><ele>0</ele></trkpt>
      <trkpt lat="33.754932" lon="10.991933"><ele>0</ele></trkpt>
      <trkpt lat="33.754941" lon="10.991963"><ele>0</ele></trkpt>
      <trkpt lat="33.754949" lon="10.992004"><ele>0</ele></trkpt>
      <trkpt lat="33.755" lon="10.99208"><ele>0</ele></trkpt>
      <trkpt lat="33.75502" lon="10.992138"><ele>0</ele></trkpt>
      <trkpt lat="33.755153" lon="10.992713"><ele>0</ele></trkpt>
      <trkpt lat="33.755199" lon="10.992941"><ele>0</ele></trkpt>
      <trkpt lat="33.755208" lon="10.99301"><ele>0</ele></trkpt>
      <trkpt lat="33.755202" lon="10.993032"><ele>0</ele></trkpt>
      <trkpt lat="33.755132" lon="10.993126"><ele>0</ele></trkpt>
      <trkpt lat="33.755119" lon="10.993179"><ele>0</ele></trkpt>
      <trkpt lat="33.755112" lon="10.993374"><ele>0</ele></trkpt>
      <trkpt lat="33.755079" lon="10.993516"><ele>0</ele></trkpt>
      <trkpt lat="33.755058" lon="10.993575"><ele>0</ele></trkpt>
      <trkpt lat="33.755025" lon="10.99364"><ele>0</ele></trkpt>
      <trkpt lat="33.754993" lon="10.993675"><ele>0</ele></trkpt>
      <trkpt lat="33.754953" lon="10.993696"><ele>0</ele></trkpt>
      <trkpt lat="33.754786" lon="10.99376"><ele>0</ele></trkpt>
      <trkpt lat="33.754601" lon="10.993912"><ele>0</ele></trkpt>
      <trkpt lat="33.754533" lon="10.994004"><ele>0</ele></trkpt>
      <trkpt lat="33.754508" lon="10.99402"><ele>0</ele></trkpt>
      <trkpt lat="33.754477" lon="10.994034"><ele>0</ele></trkpt>
      <trkpt lat="33.75428" lon="10.994059"><ele>0</ele></trkpt>
      <trkpt lat="33.754257" lon="10.994072"><ele>0</ele></trkpt>
      <trkpt lat="33.75425" lon="10.994102"><ele>0</ele></trkpt>
      <trkpt lat="33.754257" lon="10.99437"><ele>0</ele></trkpt>
      <trkpt lat="33.754246" lon="10.994474"><ele>0</ele></trkpt>
      <trkpt lat="33.754" lon="10.994574"><ele>0</ele></trkpt>
      <trkpt lat="33.753817" lon="10.994635"><ele>0</ele></trkpt>
      <trkpt lat="33.753511" lon="10.994768"><ele>0</ele></trkpt>
      <trkpt lat="33.753429" lon="10.994792"><ele>0</ele></trkpt>
      <trkpt lat="33.753095" lon="10.99493"><ele>0</ele></trkpt>
      <trkpt lat="33.752837" lon="10.995046"><ele>0</ele></trkpt>
      <trkpt lat="33.752749" lon="10.995095"><ele>0</ele></trkpt>
      <trkpt lat="33.752613" lon="10.995148"><ele>0</ele></trkpt>
      <trkpt lat="33.752306" lon="10.995289"><ele>0</ele></trkpt>
      <trkpt lat="33.752014" lon="10.995456"><ele>0</ele></trkpt>
      <trkpt lat="33.752114" lon="10.995637"><ele>0</ele></trkpt>
      <trkpt lat="33.752616" lon="10.996479"><ele>0</ele></trkpt>
      <trkpt lat="33.753295" lon="10.997565"><ele>0</ele></trkpt>
      <trkpt lat="33.75336" lon="10.997576"><ele>0</ele></trkpt>
      <trkpt lat="33.753402" lon="10.997569"><ele>0</ele></trkpt>
      <trkpt lat="33.753384" lon="10.997602"><ele>0</ele></trkpt>
      <trkpt lat="33.753373" lon="10.997639"><ele>0</ele></trkpt>
      <trkpt lat="33.753378" lon="10.997698"><ele>0</ele></trkpt>
      <trkpt lat="33.753881" lon="10.998515"><ele>0</ele></trkpt>
      <trkpt lat="33.754454" lon="10.999462"><ele>0</ele></trkpt>
      <trkpt lat="33.754903" lon="11.000227"><ele>0</ele></trkpt>
      <trkpt lat="33.755005" lon="11.000399"><ele>0</ele></trkpt>
      <trkpt lat="33.755152" lon="11.000714"><ele>0</ele></trkpt>
      <trkpt lat="33.755248" lon="11.000939"><ele>0</ele></trkpt>
      <trkpt lat="33.755392" lon="11.001334"><ele>0</ele></trkpt>
      <trkpt lat="33.755503" lon="11.001659"><ele>0</ele></trkpt>
      <trkpt lat="33.755667" lon="11.002192"><ele>0</ele></trkpt>
      <trkpt lat="33.755855" lon="11.002749"><ele>0</ele></trkpt>
      <trkpt lat="33.755616" lon="11.002867"><ele>0</ele></trkpt>
      <trkpt lat="33.755579" lon="11.002913"><ele>0</ele></trkpt>
      <trkpt lat="33.75552" lon="11.003022"><ele>0</ele></trkpt>
      <trkpt lat="33.755448" lon="11.003268"><ele>0</ele></trkpt>
      <trkpt lat="33.7554" lon="11.003366"><ele>0</ele></trkpt>
      <trkpt lat="33.75528" lon="11.003493"><ele>0</ele></trkpt>
      <trkpt lat="33.755197" lon="11.003562"><ele>0</ele></trkpt>
      <trkpt lat="33.755087" lon="11.003616"><ele>0</ele></trkpt>
      <trkpt lat="33.755042" lon="11.003652"><ele>0</ele></trkpt>
      <trkpt lat="33.755074" lon="11.003733"><ele>0</ele></trkpt>
      <trkpt lat="33.755135" lon="11.00386"><ele>0</ele></trkpt>
      <trkpt lat="33.755291" lon="11.004161"><ele>0</ele></trkpt>
      <trkpt lat="33.755627" lon="11.004642"><ele>0</ele></trkpt>
      <trkpt lat="33.755874" lon="11.00497"><ele>0</ele></trkpt>
      <trkpt lat="33.756026" lon="11.005055"><ele>0</ele></trkpt>
      <trkpt lat="33.756322" lon="11.005178"><ele>0</ele></trkpt>
      <trkpt lat="33.756432" lon="11.005197"><ele>0</ele></trkpt>
      <trkpt lat="33.756628" lon="11.005162"><ele>0</ele></trkpt>
      <trkpt lat="33.756687" lon="11.005135"><ele>0</ele></trkpt>
      <trkpt lat="33.756738" lon="11.005089"><ele>0</ele></trkpt>
      <trkpt lat="33.75694" lon="11.005442"><ele>0</ele></trkpt>
      <trkpt lat="33.757142" lon="11.005734"><ele>0</ele></trkpt>
      <trkpt lat="33.757252" lon="11.00588"><ele>0</ele></trkpt>
      <trkpt lat="33.757498" lon="11.006203"><ele>0</ele></trkpt>
      <trkpt lat="33.758046" lon="11.006875"><ele>0</ele></trkpt>
      <trkpt lat="33.757949" lon="11.006967"><ele>0</ele></trkpt>
      <trkpt lat="33.757889" lon="11.007001"><ele>0</ele></trkpt>
      <trkpt lat="33.758081" lon="11.007286"><ele>0</ele></trkpt>
      <trkpt lat="33.758193" lon="11.007479"><ele>0</ele></trkpt>
      <trkpt lat="33.758432" lon="11.007834"><ele>0</ele></trkpt>
      <trkpt lat="33.758485" lon="11.007933"><ele>0</ele></trkpt>
      <trkpt lat="33.758557" lon="11.008075"><ele>0</ele></trkpt>
      <trkpt lat="33.758584" lon="11.008177"><ele>0</ele></trkpt>
      <trkpt lat="33.758677" lon="11.008848"><ele>0</ele></trkpt>
      <trkpt lat="33.758682" lon="11.008948"><ele>0</ele></trkpt>
      <trkpt lat="33.758603" lon="11.009644"><ele>0</ele></trkpt>
      <trkpt lat="33.758573" lon="11.010111"><ele>0</ele></trkpt>
      <trkpt lat="33.758532" lon="11.010603"><ele>0</ele></trkpt>
      <trkpt lat="33.758574" lon="11.010608"><ele>0</ele></trkpt>
      <trkpt lat="33.758677" lon="11.010619"><ele>0</ele></trkpt>
      <trkpt lat="33.758533" lon="11.01179"><ele>0</ele></trkpt>
      <trkpt lat="33.758488" lon="11.012034"><ele>0</ele></trkpt>
      <trkpt lat="33.758347" lon="11.012671"><ele>0</ele></trkpt>
      <trkpt lat="33.758238" lon="11.013111"><ele>0</ele></trkpt>
      <trkpt lat="33.758199" lon="11.013332"><ele>0</ele></trkpt>
      <trkpt lat="33.758134" lon="11.013427"><ele>0</ele></trkpt>
      <trkpt lat="33.758099" lon="11.013453"><ele>0</ele></trkpt>
      <trkpt lat="33.758042" lon="11.013458"><ele>0</ele></trkpt>
      <trkpt lat="33.757996" lon="11.013441"><ele>0</ele></trkpt>
      <trkpt lat="33.757822" lon="11.013289"><ele>0</ele></trkpt>
      <trkpt lat="33.757791" lon="11.013283"><ele>0</ele></trkpt>
      <trkpt lat="33.757753" lon="11.013288"><ele>0</ele></trkpt>
      <trkpt lat="33.757687" lon="11.013317"><ele>0</ele></trkpt>
      <trkpt lat="33.757207" lon="11.013721"><ele>0</ele></trkpt>
      <trkpt lat="33.757142" lon="11.013752"><ele>0</ele></trkpt>
      <trkpt lat="33.757053" lon="11.013781"><ele>0</ele></trkpt>
      <trkpt lat="33.756945" lon="11.013786"><ele>0</ele></trkpt>
      <trkpt lat="33.75675" lon="11.013796"><ele>0</ele></trkpt>
      <trkpt lat="33.756168" lon="11.013789"><ele>0</ele></trkpt>
      <trkpt lat="33.755483" lon="11.013785"><ele>0</ele></trkpt>
      <trkpt lat="33.755118" lon="11.01376"><ele>0</ele></trkpt>
      <trkpt lat="33.754949" lon="11.013735"><ele>0</ele></trkpt>
      <trkpt lat="33.754732" lon="11.013688"><ele>0</ele></trkpt>
      <trkpt lat="33.754683" lon="11.01366"><ele>0</ele></trkpt>
      <trkpt lat="33.754445" lon="11.0136"><ele>0</ele></trkpt>
      <trkpt lat="33.754312" lon="11.013553"><ele>0</ele></trkpt>
      <trkpt lat="33.754139" lon="11.013472"><ele>0</ele></trkpt>
      <trkpt lat="33.754064" lon="11.013423"><ele>0</ele></trkpt>
      <trkpt lat="33.754004" lon="11.013357"><ele>0</ele></trkpt>
      <trkpt lat="33.753939" lon="11.013258"><ele>0</ele></trkpt>
      <trkpt lat="33.753592" lon="11.012538"><ele>0</ele></trkpt></trkseg></trk></gpx>