<?xml version="1.0" encoding="UTF-8"?><gpx version="1.1" creator="Heripia 3.7.409" xmlns="http://www.topografix.com/GPX/1/1" xmlns:xsi="http://www.w3.org/2001/XMLSchema-instance" xsi:schemaLocation="http://www.topografix.com/GPX/1/1 http://www.topografix.com/GPX/1/1/gpx.xsd">
    <metadata>
        <name>Circuit de Mosquée Sidi Salem à Marché aux poissons de Houmt Souk</name>
        <desc>Circuit généré par Heripia — heripia.com</desc>
        <link href="https://heripia.com/">
            <text>Heripia [HW-ID:HW-1771324790804]</text>
        </link>
    </metadata>
    <wpt lat="33.896083" lon="10.826917">
      <name>Mosquée Sidi Salem</name>
      <desc></desc>
    </wpt>
    <wpt lat="33.87920299349094" lon="10.838884410025315">
      <name>Mausolée Abdallah Ben Hassine</name>
      <desc></desc>
    </wpt>
    <wpt lat="33.879667" lon="10.840583">
      <name>Mosquée Sidi Msahel</name>
      <desc></desc>
    </wpt>
    <wpt lat="33.87855468821014" lon="10.841127333516292">
      <name>Mosquée Ben Mimoun</name>
      <desc></desc>
    </wpt>
    <wpt lat="33.87950695174614" lon="10.842136591672897">
      <name>Ancien atelier de tissage</name>
      <desc>Anciens ateliers de tissage</desc>
    </wpt>
    <wpt lat="33.881472" lon="10.847222">
      <name>Mosquée Sidi Bousaïd (Boumellal)</name>
      <desc></desc>
      <link href="https://evendo.com/locations/tunisia/djerba/landmark/mosquee-sidi-bou-said
Répertoire J. Fathallah, n° 12 | http://palaisbenayed.com/wp-content/uploads/2021/03/r%C3%A9pertoire-des-mosqu%C3%A9es-de-Djerba.pdf">
        <text>Lien vers le site</text>
      </link>
    </wpt>
    <wpt lat="33.881" lon="10.854083">
      <name>Mosquée Sidi Elbahri</name>
      <desc></desc>
      <link href="https://www.turess.com/fr/letemps/52984?utm
Répertoire J. Fathallah, n° 6 | http://palaisbenayed.com/wp-content/uploads/2021/03/r%C3%A9pertoire-des-mosqu%C3%A9es-de-Djerba.pdf">
        <text>Lien vers le site</text>
      </link>
    </wpt>
    <wpt lat="33.884576169924706" lon="10.856090779389143">
      <name>Église Grecque Orthodoxe Saint-Nicolas</name>
      <desc>Eglise grecque orthodoxe dédiée à Saint-Nicolas, patrons des enfants, mais aussi des marins, pêcheurs et commercçant</desc>
      <link href="https://www.webdo.tn/fr/actualite/chroniques/djerba-vingt-deux-mosquees-une-eglise-et-une-synagogue/208839/">
        <text>Lien vers le site</text>
      </link>
    </wpt>
    <wpt lat="33.87548525371795" lon="10.858654975891115">
      <name>Marché aux poissons de Houmt Souk</name>
      <desc></desc>
    </wpt><trk><name>Circuit de Mosquée Sidi Salem à Marché aux poissons de Houmt Souk</name><desc><![CDATA[Circuit généré par Heripia — heripia.com]]></desc><trkseg><trkpt lat="33.895847" lon="10.827239"><ele>0</ele></trkpt>
      <trkpt lat="33.895726" lon="10.827371"><ele>0</ele></trkpt>
      <trkpt lat="33.895511" lon="10.827391"><ele>0</ele></trkpt>
      <trkpt lat="33.895023" lon="10.827422"><ele>0</ele></trkpt>
      <trkpt lat="33.894763" lon="10.827494"><ele>0</ele></trkpt>
      <trkpt lat="33.894752" lon="10.827509"><ele>0</ele></trkpt>
      <trkpt lat="33.894723" lon="10.827528"><ele>0</ele></trkpt>
      <trkpt lat="33.894691" lon="10.827535"><ele>0</ele></trkpt>
      <trkpt lat="33.894658" lon="10.827528"><ele>0</ele></trkpt>
      <trkpt lat="33.89463" lon="10.827508"><ele>0</ele></trkpt>
      <trkpt lat="33.894608" lon="10.827478"><ele>0</ele></trkpt>
      <trkpt lat="33.894616" lon="10.827564"><ele>0</ele></trkpt>
      <trkpt lat="33.894615" lon="10.827643"><ele>0</ele></trkpt>
      <trkpt lat="33.894603" lon="10.827751"><ele>0</ele></trkpt>
      <trkpt lat="33.894327" lon="10.829593"><ele>0</ele></trkpt>
      <trkpt lat="33.894059" lon="10.829516"><ele>0</ele></trkpt>
      <trkpt lat="33.893228" lon="10.829465"><ele>0</ele></trkpt>
      <trkpt lat="33.89297" lon="10.829467"><ele>0</ele></trkpt>
      <trkpt lat="33.892739" lon="10.829499"><ele>0</ele></trkpt>
      <trkpt lat="33.892525" lon="10.82955"><ele>0</ele></trkpt>
      <trkpt lat="33.892296" lon="10.829617"><ele>0</ele></trkpt>
      <trkpt lat="33.891652" lon="10.829786"><ele>0</ele></trkpt>
      <trkpt lat="33.891483" lon="10.829843"><ele>0</ele></trkpt>
      <trkpt lat="33.891392" lon="10.829904"><ele>0</ele></trkpt>
      <trkpt lat="33.891243" lon="10.830041"><ele>0</ele></trkpt>
      <trkpt lat="33.891122" lon="10.830087"><ele>0</ele></trkpt>
      <trkpt lat="33.890931" lon="10.830124"><ele>0</ele></trkpt>
      <trkpt lat="33.890437" lon="10.830165"><ele>0</ele></trkpt>
      <trkpt lat="33.889791" lon="10.830265"><ele>0</ele></trkpt>
      <trkpt lat="33.889731" lon="10.830256"><ele>0</ele></trkpt>
      <trkpt lat="33.889672" lon="10.830222"><ele>0</ele></trkpt>
      <trkpt lat="33.889627" lon="10.830153"><ele>0</ele></trkpt>
      <trkpt lat="33.889574" lon="10.830104"><ele>0</ele></trkpt>
      <trkpt lat="33.889488" lon="10.830085"><ele>0</ele></trkpt>
      <trkpt lat="33.889367" lon="10.830089"><ele>0</ele></trkpt>
      <trkpt lat="33.889241" lon="10.830124"><ele>0</ele></trkpt>
      <trkpt lat="33.888985" lon="10.83023"><ele>0</ele></trkpt>
      <trkpt lat="33.888722" lon="10.830368"><ele>0</ele></trkpt>
      <trkpt lat="33.88865" lon="10.830422"><ele>0</ele></trkpt>
      <trkpt lat="33.888463" lon="10.830609"><ele>0</ele></trkpt>
      <trkpt lat="33.888327" lon="10.830731"><ele>0</ele></trkpt>
      <trkpt lat="33.888246" lon="10.830784"><ele>0</ele></trkpt>
      <trkpt lat="33.888395" lon="10.83157"><ele>0</ele></trkpt>
      <trkpt lat="33.888433" lon="10.831704"><ele>0</ele></trkpt>
      <trkpt lat="33.888467" lon="10.831763"><ele>0</ele></trkpt>
      <trkpt lat="33.888531" lon="10.831832"><ele>0</ele></trkpt>
      <trkpt lat="33.88872" lon="10.831978"><ele>0</ele></trkpt>
      <trkpt lat="33.888851" lon="10.832113"><ele>0</ele></trkpt>
      <trkpt lat="33.888877" lon="10.832164"><ele>0</ele></trkpt>
      <trkpt lat="33.888475" lon="10.832404"><ele>0</ele></trkpt>
      <trkpt lat="33.888252" lon="10.832485"><ele>0</ele></trkpt>
      <trkpt lat="33.888047" lon="10.83252"><ele>0</ele></trkpt>
      <trkpt lat="33.887767" lon="10.832536"><ele>0</ele></trkpt>
      <trkpt lat="33.887749" lon="10.832462"><ele>0</ele></trkpt>
      <trkpt lat="33.887717" lon="10.832383"><ele>0</ele></trkpt>
      <trkpt lat="33.887678" lon="10.832329"><ele>0</ele></trkpt>
      <trkpt lat="33.887629" lon="10.832301"><ele>0</ele></trkpt>
      <trkpt lat="33.887512" lon="10.83229"><ele>0</ele></trkpt>
      <trkpt lat="33.887355" lon="10.832312"><ele>0</ele></trkpt>
      <trkpt lat="33.887177" lon="10.832356"><ele>0</ele></trkpt>
      <trkpt lat="33.88684" lon="10.832499"><ele>0</ele></trkpt>
      <trkpt lat="33.886832" lon="10.832603"><ele>0</ele></trkpt>
      <trkpt lat="33.886809" lon="10.832704"><ele>0</ele></trkpt>
      <trkpt lat="33.88682" lon="10.832786"><ele>0</ele></trkpt>
      <trkpt lat="33.886855" lon="10.832926"><ele>0</ele></trkpt>
      <trkpt lat="33.886924" lon="10.833408"><ele>0</ele></trkpt>
      <trkpt lat="33.886961" lon="10.833554"><ele>0</ele></trkpt>
      <trkpt lat="33.886988" lon="10.833651"><ele>0</ele></trkpt>
      <trkpt lat="33.886935" lon="10.83371"><ele>0</ele></trkpt>
      <trkpt lat="33.886852" lon="10.833871"><ele>0</ele></trkpt>
      <trkpt lat="33.886822" lon="10.833914"><ele>0</ele></trkpt>
      <trkpt lat="33.886783" lon="10.833938"><ele>0</ele></trkpt>
      <trkpt lat="33.886706" lon="10.833967"><ele>0</ele></trkpt>
      <trkpt lat="33.886536" lon="10.834007"><ele>0</ele></trkpt>
      <trkpt lat="33.886272" lon="10.834047"><ele>0</ele></trkpt>
      <trkpt lat="33.886229" lon="10.834067"><ele>0</ele></trkpt>
      <trkpt lat="33.886209" lon="10.834107"><ele>0</ele></trkpt>
      <trkpt lat="33.886193" lon="10.834157"><ele>0</ele></trkpt>
      <trkpt lat="33.886155" lon="10.834207"><ele>0</ele></trkpt>
      <trkpt lat="33.886096" lon="10.834228"><ele>0</ele></trkpt>
      <trkpt lat="33.885977" lon="10.834243"><ele>0</ele></trkpt>
      <trkpt lat="33.885972" lon="10.834398"><ele>0</ele></trkpt>
      <trkpt lat="33.885962" lon="10.834449"><ele>0</ele></trkpt>
      <trkpt lat="33.885931" lon="10.834498"><ele>0</ele></trkpt>
      <trkpt lat="33.885192" lon="10.834675"><ele>0</ele></trkpt>
      <trkpt lat="33.885239" lon="10.835328"><ele>0</ele></trkpt>
      <trkpt lat="33.88524" lon="10.835406"><ele>0</ele></trkpt>
      <trkpt lat="33.885231" lon="10.835451"><ele>0</ele></trkpt>
      <trkpt lat="33.885211" lon="10.835504"><ele>0</ele></trkpt>
      <trkpt lat="33.885166" lon="10.835571"><ele>0</ele></trkpt>
      <trkpt lat="33.885188" lon="10.835714"><ele>0</ele></trkpt>
      <trkpt lat="33.885223" lon="10.835848"><ele>0</ele></trkpt>
      <trkpt lat="33.885274" lon="10.835988"><ele>0</ele></trkpt>
      <trkpt lat="33.885312" lon="10.836067"><ele>0</ele></trkpt>
      <trkpt lat="33.885372" lon="10.836169"><ele>0</ele></trkpt>
      <trkpt lat="33.885175" lon="10.836273"><ele>0</ele></trkpt>
      <trkpt lat="33.88507" lon="10.836336"><ele>0</ele></trkpt>
      <trkpt lat="33.884878" lon="10.836468"><ele>0</ele></trkpt>
      <trkpt lat="33.884801" lon="10.836547"><ele>0</ele></trkpt>
      <trkpt lat="33.884674" lon="10.836668"><ele>0</ele></trkpt>
      <trkpt lat="33.884518" lon="10.836849"><ele>0</ele></trkpt>
      <trkpt lat="33.884163" lon="10.837154"><ele>0</ele></trkpt>
      <trkpt lat="33.884076" lon="10.837252"><ele>0</ele></trkpt>
      <trkpt lat="33.883904" lon="10.837505"><ele>0</ele></trkpt>
      <trkpt lat="33.883771" lon="10.837645"><ele>0</ele></trkpt>
      <trkpt lat="33.883687" lon="10.837708"><ele>0</ele></trkpt>
      <trkpt lat="33.883685" lon="10.837865"><ele>0</ele></trkpt>
      <trkpt lat="33.883674" lon="10.837946"><ele>0</ele></trkpt>
      <trkpt lat="33.883655" lon="10.83801"><ele>0</ele></trkpt>
      <trkpt lat="33.883603" lon="10.838069"><ele>0</ele></trkpt>
      <trkpt lat="33.883555" lon="10.838105"><ele>0</ele></trkpt>
      <trkpt lat="33.883452" lon="10.83816"><ele>0</ele></trkpt>
      <trkpt lat="33.883271" lon="10.838226"><ele>0</ele></trkpt>
      <trkpt lat="33.883061" lon="10.838317"><ele>0</ele></trkpt>
      <trkpt lat="33.882989" lon="10.838356"><ele>0</ele></trkpt>
      <trkpt lat="33.88279" lon="10.838443"><ele>0</ele></trkpt>
      <trkpt lat="33.882677" lon="10.838505"><ele>0</ele></trkpt>
      <trkpt lat="33.882551" lon="10.838587"><ele>0</ele></trkpt>
      <trkpt lat="33.882455" lon="10.838671"><ele>0</ele></trkpt>
      <trkpt lat="33.882375" lon="10.838699"><ele>0</ele></trkpt>
      <trkpt lat="33.882154" lon="10.838761"><ele>0</ele></trkpt>
      <trkpt lat="33.881942" lon="10.838839"><ele>0</ele></trkpt>
      <trkpt lat="33.881828" lon="10.838897"><ele>0</ele></trkpt>
      <trkpt lat="33.881736" lon="10.838958"><ele>0</ele></trkpt>
      <trkpt lat="33.881529" lon="10.839114"><ele>0</ele></trkpt>
      <trkpt lat="33.881276" lon="10.839275"><ele>0</ele></trkpt>
      <trkpt lat="33.881205" lon="10.839343"><ele>0</ele></trkpt>
      <trkpt lat="33.881127" lon="10.839511"><ele>0</ele></trkpt>
      <trkpt lat="33.881072" lon="10.839516"><ele>0</ele></trkpt>
      <trkpt lat="33.880674" lon="10.839614"><ele>0</ele></trkpt>
      <trkpt lat="33.880569" lon="10.839633"><ele>0</ele></trkpt>
      <trkpt lat="33.880431" lon="10.83967"><ele>0</ele></trkpt>
      <trkpt lat="33.88023" lon="10.839732"><ele>0</ele></trkpt>
      <trkpt lat="33.880168" lon="10.839526"><ele>0</ele></trkpt>
      <trkpt lat="33.880113" lon="10.839413"><ele>0</ele></trkpt>
      <trkpt lat="33.880094" lon="10.839396"><ele>0</ele></trkpt>
      <trkpt lat="33.880078" lon="10.839392"><ele>0</ele></trkpt>
      <trkpt lat="33.88006" lon="10.839394"><ele>0</ele></trkpt>
      <trkpt lat="33.879875" lon="10.839473"><ele>0</ele></trkpt>
      <trkpt lat="33.879626" lon="10.839595"><ele>0</ele></trkpt>
      <trkpt lat="33.879441" lon="10.839701"><ele>0</ele></trkpt>
      <trkpt lat="33.879248" lon="10.839733"><ele>0</ele></trkpt>
      <trkpt lat="33.879312" lon="10.839434"><ele>0</ele></trkpt>
      <trkpt lat="33.879347" lon="10.839217"><ele>0</ele></trkpt>
      <trkpt lat="33.879341" lon="10.838982"><ele>0</ele></trkpt>
      <trkpt lat="33.879347" lon="10.839217"><ele>0</ele></trkpt>
      <trkpt lat="33.879312" lon="10.839434"><ele>0</ele></trkpt>
      <trkpt lat="33.879248" lon="10.839733"><ele>0</ele></trkpt>
      <trkpt lat="33.879208" lon="10.839914"><ele>0</ele></trkpt>
      <trkpt lat="33.879204" lon="10.839992"><ele>0</ele></trkpt>
      <trkpt lat="33.879171" lon="10.840289"><ele>0</ele></trkpt>
      <trkpt lat="33.87915" lon="10.840429"><ele>0</ele></trkpt>
      <trkpt lat="33.879395" lon="10.840601"><ele>0</ele></trkpt>
      <trkpt lat="33.879496" lon="10.840643"><ele>0</ele></trkpt>
      <trkpt lat="33.879395" lon="10.840601"><ele>0</ele></trkpt>
      <trkpt lat="33.87915" lon="10.840429"><ele>0</ele></trkpt>
      <trkpt lat="33.879085" lon="10.840746"><ele>0</ele></trkpt>
      <trkpt lat="33.878987" lon="10.841152"><ele>0</ele></trkpt>
      <trkpt lat="33.878845" lon="10.841096"><ele>0</ele></trkpt>
      <trkpt lat="33.87872" lon="10.841085"><ele>0</ele></trkpt>
      <trkpt lat="33.878565" lon="10.841092"><ele>0</ele></trkpt>
      <trkpt lat="33.878565" lon="10.841092"><ele>0</ele></trkpt>
      <trkpt lat="33.87872" lon="10.841085"><ele>0</ele></trkpt>
      <trkpt lat="33.878845" lon="10.841096"><ele>0</ele></trkpt>
      <trkpt lat="33.878987" lon="10.841152"><ele>0</ele></trkpt>
      <trkpt lat="33.878874" lon="10.841667"><ele>0</ele></trkpt>
      <trkpt lat="33.878959" lon="10.841758"><ele>0</ele></trkpt>
      <trkpt lat="33.879012" lon="10.841847"><ele>0</ele></trkpt>
      <trkpt lat="33.879067" lon="10.84196"><ele>0</ele></trkpt>
      <trkpt lat="33.879097" lon="10.842132"><ele>0</ele></trkpt>
      <trkpt lat="33.879233" lon="10.842083"><ele>0</ele></trkpt>
      <trkpt lat="33.879456" lon="10.842023"><ele>0</ele></trkpt>
      <trkpt lat="33.879444" lon="10.842126"><ele>0</ele></trkpt>
      <trkpt lat="33.879438" lon="10.842183"><ele>0</ele></trkpt>
      <trkpt lat="33.879422" lon="10.842337"><ele>0</ele></trkpt>
      <trkpt lat="33.879388" lon="10.842564"><ele>0</ele></trkpt>
      <trkpt lat="33.879376" lon="10.842698"><ele>0</ele></trkpt>
      <trkpt lat="33.879379" lon="10.842794"><ele>0</ele></trkpt>
      <trkpt lat="33.879462" lon="10.843112"><ele>0</ele></trkpt>
      <trkpt lat="33.879488" lon="10.843429"><ele>0</ele></trkpt>
      <trkpt lat="33.879489" lon="10.843442"><ele>0</ele></trkpt>
      <trkpt lat="33.879664" lon="10.843587"><ele>0</ele></trkpt>
      <trkpt lat="33.880007" lon="10.843883"><ele>0</ele></trkpt>
      <trkpt lat="33.880201" lon="10.844041"><ele>0</ele></trkpt>
      <trkpt lat="33.880305" lon="10.84411"><ele>0</ele></trkpt>
      <trkpt lat="33.880536" lon="10.844266"><ele>0</ele></trkpt>
      <trkpt lat="33.880886" lon="10.844531"><ele>0</ele></trkpt>
      <trkpt lat="33.88097" lon="10.844639"><ele>0</ele></trkpt>
      <trkpt lat="33.881067" lon="10.844785"><ele>0</ele></trkpt>
      <trkpt lat="33.881223" lon="10.845013"><ele>0</ele></trkpt>
      <trkpt lat="33.881251" lon="10.845198"><ele>0</ele></trkpt>
      <trkpt lat="33.881301" lon="10.845363"><ele>0</ele></trkpt>
      <trkpt lat="33.881377" lon="10.845575"><ele>0</ele></trkpt>
      <trkpt lat="33.881402" lon="10.84568"><ele>0</ele></trkpt>
      <trkpt lat="33.881439" lon="10.845936"><ele>0</ele></trkpt>
      <trkpt lat="33.881496" lon="10.846215"><ele>0</ele></trkpt>
      <trkpt lat="33.881501" lon="10.846352"><ele>0</ele></trkpt>
      <trkpt lat="33.881483" lon="10.846475"><ele>0</ele></trkpt>
      <trkpt lat="33.881439" lon="10.846585"><ele>0</ele></trkpt>
      <trkpt lat="33.881377" lon="10.846683"><ele>0</ele></trkpt>
      <trkpt lat="33.8813" lon="10.846808"><ele>0</ele></trkpt>
      <trkpt lat="33.881277" lon="10.846844"><ele>0</ele></trkpt>
      <trkpt lat="33.881259" lon="10.846904"><ele>0</ele></trkpt>
      <trkpt lat="33.881252" lon="10.847019"><ele>0</ele></trkpt>
      <trkpt lat="33.881279" lon="10.847545"><ele>0</ele></trkpt>
      <trkpt lat="33.881416" lon="10.847497"><ele>0</ele></trkpt>
      <trkpt lat="33.881279" lon="10.847545"><ele>0</ele></trkpt>
      <trkpt lat="33.881339" lon="10.848519"><ele>0</ele></trkpt>
      <trkpt lat="33.881263" lon="10.84849"><ele>0</ele></trkpt>
      <trkpt lat="33.881016" lon="10.848463"><ele>0</ele></trkpt>
      <trkpt lat="33.880918" lon="10.848463"><ele>0</ele></trkpt>
      <trkpt lat="33.880771" lon="10.848486"><ele>0</ele></trkpt>
      <trkpt lat="33.880575" lon="10.848561"><ele>0</ele></trkpt>
      <trkpt lat="33.880431" lon="10.848637"><ele>0</ele></trkpt>
      <trkpt lat="33.880312" lon="10.84874"><ele>0</ele></trkpt>
      <trkpt lat="33.880093" lon="10.848846"><ele>0</ele></trkpt>
      <trkpt lat="33.879953" lon="10.848972"><ele>0</ele></trkpt>
      <trkpt lat="33.879847" lon="10.849106"><ele>0</ele></trkpt>
      <trkpt lat="33.879592" lon="10.849328"><ele>0</ele></trkpt>
      <trkpt lat="33.87952" lon="10.849383"><ele>0</ele></trkpt>
      <trkpt lat="33.879468" lon="10.8494"><ele>0</ele></trkpt>
      <trkpt lat="33.879559" lon="10.849686"><ele>0</ele></trkpt>
      <trkpt lat="33.879639" lon="10.84986"><ele>0</ele></trkpt>
      <trkpt lat="33.879611" lon="10.849939"><ele>0</ele></trkpt>
      <trkpt lat="33.879591" lon="10.850032"><ele>0</ele></trkpt>
      <trkpt lat="33.87958" lon="10.85014"><ele>0</ele></trkpt>
      <trkpt lat="33.879582" lon="10.85026"><ele>0</ele></trkpt>
      <trkpt lat="33.879594" lon="10.850402"><ele>0</ele></trkpt>
      <trkpt lat="33.879614" lon="10.85049"><ele>0</ele></trkpt>
      <trkpt lat="33.879718" lon="10.850848"><ele>0</ele></trkpt>
      <trkpt lat="33.879746" lon="10.851096"><ele>0</ele></trkpt>
      <trkpt lat="33.879795" lon="10.851337"><ele>0</ele></trkpt>
      <trkpt lat="33.879842" lon="10.851483"><ele>0</ele></trkpt>
      <trkpt lat="33.880141" lon="10.851463"><ele>0</ele></trkpt>
      <trkpt lat="33.88019" lon="10.851644"><ele>0</ele></trkpt>
      <trkpt lat="33.880218" lon="10.851818"><ele>0</ele></trkpt>
      <trkpt lat="33.880232" lon="10.852482"><ele>0</ele></trkpt>
      <trkpt lat="33.880409" lon="10.852542"><ele>0</ele></trkpt>
      <trkpt lat="33.880437" lon="10.85267"><ele>0</ele></trkpt>
      <trkpt lat="33.88051" lon="10.853086"><ele>0</ele></trkpt>
      <trkpt lat="33.880524" lon="10.853259"><ele>0</ele></trkpt>
      <trkpt lat="33.880527" lon="10.853322"><ele>0</ele></trkpt>
      <trkpt lat="33.880503" lon="10.853598"><ele>0</ele></trkpt>
      <trkpt lat="33.880476" lon="10.853693"><ele>0</ele></trkpt>
      <trkpt lat="33.880508" lon="10.853742"><ele>0</ele></trkpt>
      <trkpt lat="33.880586" lon="10.853999"><ele>0</ele></trkpt>
      <trkpt lat="33.880618" lon="10.854045"><ele>0</ele></trkpt>
      <trkpt lat="33.880704" lon="10.854117"><ele>0</ele></trkpt>
      <trkpt lat="33.880764" lon="10.854157"><ele>0</ele></trkpt>
      <trkpt lat="33.880806" lon="10.854164"><ele>0</ele></trkpt>
      <trkpt lat="33.880875" lon="10.854156"><ele>0</ele></trkpt>
      <trkpt lat="33.8809" lon="10.854149"><ele>0</ele></trkpt>
      <trkpt lat="33.880875" lon="10.854156"><ele>0</ele></trkpt>
      <trkpt lat="33.880873" lon="10.854202"><ele>0</ele></trkpt>
      <trkpt lat="33.880862" lon="10.854226"><ele>0</ele></trkpt>
      <trkpt lat="33.880846" lon="10.85424"><ele>0</ele></trkpt>
      <trkpt lat="33.880599" lon="10.854354"><ele>0</ele></trkpt>
      <trkpt lat="33.880653" lon="10.85442"><ele>0</ele></trkpt>
      <trkpt lat="33.880737" lon="10.854556"><ele>0</ele></trkpt>
      <trkpt lat="33.880777" lon="10.854577"><ele>0</ele></trkpt>
      <trkpt lat="33.880912" lon="10.854571"><ele>0</ele></trkpt>
      <trkpt lat="33.881049" lon="10.854556"><ele>0</ele></trkpt>
      <trkpt lat="33.881096" lon="10.854564"><ele>0</ele></trkpt>
      <trkpt lat="33.881539" lon="10.854409"><ele>0</ele></trkpt>
      <trkpt lat="33.881994" lon="10.854281"><ele>0</ele></trkpt>
      <trkpt lat="33.882044" lon="10.854475"><ele>0</ele></trkpt>
      <trkpt lat="33.882059" lon="10.854501"><ele>0</ele></trkpt>
      <trkpt lat="33.882084" lon="10.854519"><ele>0</ele></trkpt>
      <trkpt lat="33.882125" lon="10.854519"><ele>0</ele></trkpt>
      <trkpt lat="33.882239" lon="10.854491"><ele>0</ele></trkpt>
      <trkpt lat="33.882601" lon="10.854369"><ele>0</ele></trkpt>
      <trkpt lat="33.883026" lon="10.854251"><ele>0</ele></trkpt>
      <trkpt lat="33.883036" lon="10.854399"><ele>0</ele></trkpt>
      <trkpt lat="33.883076" lon="10.854714"><ele>0</ele></trkpt>
      <trkpt lat="33.883111" lon="10.854893"><ele>0</ele></trkpt>
      <trkpt lat="33.88319" lon="10.855241"><ele>0</ele></trkpt>
      <trkpt lat="33.883249" lon="10.855434"><ele>0</ele></trkpt>
      <trkpt lat="33.883895" lon="10.855251"><ele>0</ele></trkpt>
      <trkpt lat="33.884233" lon="10.85522"><ele>0</ele></trkpt>
      <trkpt lat="33.884632" lon="10.85525"><ele>0</ele></trkpt>
      <trkpt lat="33.884776" lon="10.855291"><ele>0</ele></trkpt>
      <trkpt lat="33.884933" lon="10.855371"><ele>0</ele></trkpt>
      <trkpt lat="33.884846" lon="10.855561"><ele>0</ele></trkpt>
      <trkpt lat="33.884802" lon="10.855616"><ele>0</ele></trkpt>
      <trkpt lat="33.884782" lon="10.855688"><ele>0</ele></trkpt>
      <trkpt lat="33.884727" lon="10.855797"><ele>0</ele></trkpt>
      <trkpt lat="33.884646" lon="10.855878"><ele>0</ele></trkpt>
      <trkpt lat="33.884541" lon="10.855949"><ele>0</ele></trkpt>
      <trkpt lat="33.884391" lon="10.855959"><ele>0</ele></trkpt>
      <trkpt lat="33.883341" lon="10.855954"><ele>0</ele></trkpt>
      <trkpt lat="33.883356" lon="10.856015"><ele>0</ele></trkpt>
      <trkpt lat="33.883496" lon="10.856617"><ele>0</ele></trkpt>
      <trkpt lat="33.883046" lon="10.856778"><ele>0</ele></trkpt>
      <trkpt lat="33.882899" lon="10.856867"><ele>0</ele></trkpt>
      <trkpt lat="33.88258" lon="10.857059"><ele>0</ele></trkpt>
      <trkpt lat="33.882544" lon="10.85707"><ele>0</ele></trkpt>
      <trkpt lat="33.88248" lon="10.857074"><ele>0</ele></trkpt>
      <trkpt lat="33.882399" lon="10.857058"><ele>0</ele></trkpt>
      <trkpt lat="33.88248" lon="10.857245"><ele>0</ele></trkpt>
      <trkpt lat="33.882496" lon="10.857324"><ele>0</ele></trkpt>
      <trkpt lat="33.88249" lon="10.857347"><ele>0</ele></trkpt>
      <trkpt lat="33.882476" lon="10.857364"><ele>0</ele></trkpt>
      <trkpt lat="33.882396" lon="10.857419"><ele>0</ele></trkpt>
      <trkpt lat="33.882201" lon="10.857528"><ele>0</ele></trkpt>
      <trkpt lat="33.882163" lon="10.857431"><ele>0</ele></trkpt>
      <trkpt lat="33.882087" lon="10.85734"><ele>0</ele></trkpt>
      <trkpt lat="33.881566" lon="10.857603"><ele>0</ele></trkpt>
      <trkpt lat="33.881448" lon="10.857442"><ele>0</ele></trkpt>
      <trkpt lat="33.881089" lon="10.857671"><ele>0</ele></trkpt>
      <trkpt lat="33.880918" lon="10.85775"><ele>0</ele></trkpt>
      <trkpt lat="33.880841" lon="10.857799"><ele>0</ele></trkpt>
      <trkpt lat="33.880806" lon="10.85784"><ele>0</ele></trkpt>
      <trkpt lat="33.880644" lon="10.858139"><ele>0</ele></trkpt>
      <trkpt lat="33.880624" lon="10.858186"><ele>0</ele></trkpt>
      <trkpt lat="33.880412" lon="10.858085"><ele>0</ele></trkpt>
      <trkpt lat="33.880163" lon="10.85798"><ele>0</ele></trkpt>
      <trkpt lat="33.880112" lon="10.858148"><ele>0</ele></trkpt>
      <trkpt lat="33.88008" lon="10.858417"><ele>0</ele></trkpt>
      <trkpt lat="33.880042" lon="10.858562"><ele>0</ele></trkpt>
      <trkpt lat="33.880012" lon="10.858601"><ele>0</ele></trkpt>
      <trkpt lat="33.879986" lon="10.858599"><ele>0</ele></trkpt>
      <trkpt lat="33.879712" lon="10.858505"><ele>0</ele></trkpt>
      <trkpt lat="33.879508" lon="10.858434"><ele>0</ele></trkpt>
      <trkpt lat="33.879422" lon="10.858405"><ele>0</ele></trkpt>
      <trkpt lat="33.879302" lon="10.858515"><ele>0</ele></trkpt>
      <trkpt lat="33.878971" lon="10.858794"><ele>0</ele></trkpt>
      <trkpt lat="33.878695" lon="10.859074"><ele>0</ele></trkpt>
      <trkpt lat="33.878556" lon="10.858928"><ele>0</ele></trkpt>
      <trkpt lat="33.878511" lon="10.858961"><ele>0</ele></trkpt>
      <trkpt lat="33.878475" lon="10.858973"><ele>0</ele></trkpt>
      <trkpt lat="33.878436" lon="10.858959"><ele>0</ele></trkpt>
      <trkpt lat="33.878407" lon="10.858931"><ele>0</ele></trkpt>
      <trkpt lat="33.878379" lon="10.858874"><ele>0</ele></trkpt>
      <trkpt lat="33.878376" lon="10.858763"><ele>0</ele></trkpt>
      <trkpt lat="33.878291" lon="10.858754"><ele>0</ele></trkpt>
      <trkpt lat="33.877963" lon="10.858708"><ele>0</ele></trkpt>
      <trkpt lat="33.877725" lon="10.858678"><ele>0</ele></trkpt>
      <trkpt lat="33.877329" lon="10.858735"><ele>0</ele></trkpt>
      <trkpt lat="33.877019" lon="10.858825"><ele>0</ele></trkpt>
      <trkpt lat="33.876929" lon="10.858496"><ele>0</ele></trkpt>
      <trkpt lat="33.876501" lon="10.858489"><ele>0</ele></trkpt>
      <trkpt lat="33.876125" lon="10.858458"><ele>0</ele></trkpt>
      <trkpt lat="33.875896" lon="10.858459"><ele>0</ele></trkpt>
      <trkpt lat="33.875759" lon="10.858372"><ele>0</ele></trkpt>
      <trkpt lat="33.875711" lon="10.858544"><ele>0</ele></trkpt>
      <trkpt lat="33.875696" lon="10.858562"><ele>0</ele></trkpt>
      <trkpt lat="33.875681" lon="10.858572"><ele>0</ele></trkpt>
      <trkpt lat="33.875611" lon="10.858572"><ele>0</ele></trkpt>
      <trkpt lat="33.875492" lon="10.85855"><ele>0</ele></trkpt>
      <trkpt lat="33.875469" lon="10.858649"><ele>0</ele></trkpt></trkseg></trk></gpx>