<?xml version="1.0" encoding="UTF-8"?><gpx version="1.1" creator="Heripia 3.7.410" xmlns="http://www.topografix.com/GPX/1/1" xmlns:xsi="http://www.w3.org/2001/XMLSchema-instance" xsi:schemaLocation="http://www.topografix.com/GPX/1/1 http://www.topografix.com/GPX/1/1/gpx.xsd">
    <metadata>
        <name>Circuit de Mosquée Ghoula à Vieux bâtiments Djerbiens</name>
        <desc>Circuit généré par Heripia — heripia.com</desc>
        <link href="https://heripia.com/">
            <text>Heripia [HW-ID:HW-01M2ZK38D1N3BD6JSKM0VT1D9S]</text>
        </link>
    </metadata>
    <wpt lat="33.776948697531495" lon="10.794902295487537">
      <name>Mosquée Ghoula</name>
      <desc></desc>
    </wpt>
    <wpt lat="33.78470995166932" lon="10.7926082611084">
      <name>Houch Tghazouisni</name>
      <desc></desc>
    </wpt>
    <wpt lat="33.789972" lon="10.805833">
      <name>Mosquée Ouilihi</name>
      <desc></desc>
    </wpt>
    <wpt lat="33.78591108333333" lon="10.812530555555536">
      <name>Mosquée Abrane</name>
      <desc></desc>
    </wpt>
    <wpt lat="33.7779436" lon="10.8151331">
      <name>Mosquée Ejjmia</name>
      <desc></desc>
    </wpt>
    <wpt lat="33.7736292" lon="10.8179202">
      <name>Mosquée Ben Moumen</name>
      <desc></desc>
    </wpt>
    <wpt lat="33.7749813" lon="10.8214816">
      <name>Bir Jebya ELMAY</name>
      <desc></desc>
    </wpt>
    <wpt lat="33.774928675883324" lon="10.823941826820374">
      <name>Vieux bâtiments Djerbiens</name>
      <desc></desc>
    </wpt><trk><name>Circuit de Mosquée Ghoula à Vieux bâtiments Djerbiens</name><desc><![CDATA[Circuit généré par Heripia — heripia.com]]></desc><trkseg><trkpt lat="33.776906" lon="10.794809"><ele>0</ele></trkpt>
      <trkpt lat="33.776983" lon="10.794759"><ele>0</ele></trkpt>
      <trkpt lat="33.777094" lon="10.794723"><ele>0</ele></trkpt>
      <trkpt lat="33.777266" lon="10.794693"><ele>0</ele></trkpt>
      <trkpt lat="33.777794" lon="10.794619"><ele>0</ele></trkpt>
      <trkpt lat="33.777858" lon="10.79458"><ele>0</ele></trkpt>
      <trkpt lat="33.778127" lon="10.794375"><ele>0</ele></trkpt>
      <trkpt lat="33.77819" lon="10.794312"><ele>0</ele></trkpt>
      <trkpt lat="33.778231" lon="10.794255"><ele>0</ele></trkpt>
      <trkpt lat="33.778281" lon="10.794097"><ele>0</ele></trkpt>
      <trkpt lat="33.778337" lon="10.793946"><ele>0</ele></trkpt>
      <trkpt lat="33.778442" lon="10.793781"><ele>0</ele></trkpt>
      <trkpt lat="33.778527" lon="10.793704"><ele>0</ele></trkpt>
      <trkpt lat="33.778585" lon="10.793668"><ele>0</ele></trkpt>
      <trkpt lat="33.77865" lon="10.79364"><ele>0</ele></trkpt>
      <trkpt lat="33.778885" lon="10.793585"><ele>0</ele></trkpt>
      <trkpt lat="33.779237" lon="10.793529"><ele>0</ele></trkpt>
      <trkpt lat="33.77942" lon="10.793479"><ele>0</ele></trkpt>
      <trkpt lat="33.779494" lon="10.793439"><ele>0</ele></trkpt>
      <trkpt lat="33.77957" lon="10.793446"><ele>0</ele></trkpt>
      <trkpt lat="33.779693" lon="10.793469"><ele>0</ele></trkpt>
      <trkpt lat="33.779867" lon="10.79353"><ele>0</ele></trkpt>
      <trkpt lat="33.780024" lon="10.793611"><ele>0</ele></trkpt>
      <trkpt lat="33.780127" lon="10.7935"><ele>0</ele></trkpt>
      <trkpt lat="33.780153" lon="10.793459"><ele>0</ele></trkpt>
      <trkpt lat="33.780191" lon="10.793367"><ele>0</ele></trkpt>
      <trkpt lat="33.780211" lon="10.793291"><ele>0</ele></trkpt>
      <trkpt lat="33.780229" lon="10.793201"><ele>0</ele></trkpt>
      <trkpt lat="33.780244" lon="10.793019"><ele>0</ele></trkpt>
      <trkpt lat="33.78032" lon="10.792875"><ele>0</ele></trkpt>
      <trkpt lat="33.780395" lon="10.792708"><ele>0</ele></trkpt>
      <trkpt lat="33.78056" lon="10.792304"><ele>0</ele></trkpt>
      <trkpt lat="33.780703" lon="10.792022"><ele>0</ele></trkpt>
      <trkpt lat="33.780804" lon="10.791784"><ele>0</ele></trkpt>
      <trkpt lat="33.780875" lon="10.791651"><ele>0</ele></trkpt>
      <trkpt lat="33.781501" lon="10.792053"><ele>0</ele></trkpt>
      <trkpt lat="33.781777" lon="10.792161"><ele>0</ele></trkpt>
      <trkpt lat="33.782067" lon="10.792372"><ele>0</ele></trkpt>
      <trkpt lat="33.782337" lon="10.79254"><ele>0</ele></trkpt>
      <trkpt lat="33.782749" lon="10.792759"><ele>0</ele></trkpt>
      <trkpt lat="33.782922" lon="10.79287"><ele>0</ele></trkpt>
      <trkpt lat="33.783232" lon="10.793004"><ele>0</ele></trkpt>
      <trkpt lat="33.783419" lon="10.793034"><ele>0</ele></trkpt>
      <trkpt lat="33.783978" lon="10.793187"><ele>0</ele></trkpt>
      <trkpt lat="33.784199" lon="10.793211"><ele>0</ele></trkpt>
      <trkpt lat="33.784208" lon="10.793138"><ele>0</ele></trkpt>
      <trkpt lat="33.784303" lon="10.792906"><ele>0</ele></trkpt>
      <trkpt lat="33.784402" lon="10.792751"><ele>0</ele></trkpt>
      <trkpt lat="33.784502" lon="10.79253"><ele>0</ele></trkpt>
      <trkpt lat="33.784538" lon="10.792477"><ele>0</ele></trkpt>
      <trkpt lat="33.784502" lon="10.79253"><ele>0</ele></trkpt>
      <trkpt lat="33.784402" lon="10.792751"><ele>0</ele></trkpt>
      <trkpt lat="33.784303" lon="10.792906"><ele>0</ele></trkpt>
      <trkpt lat="33.784208" lon="10.793138"><ele>0</ele></trkpt>
      <trkpt lat="33.784199" lon="10.793211"><ele>0</ele></trkpt>
      <trkpt lat="33.784842" lon="10.793323"><ele>0</ele></trkpt>
      <trkpt lat="33.785181" lon="10.793373"><ele>0</ele></trkpt>
      <trkpt lat="33.785213" lon="10.793468"><ele>0</ele></trkpt>
      <trkpt lat="33.785209" lon="10.79361"><ele>0</ele></trkpt>
      <trkpt lat="33.785237" lon="10.793697"><ele>0</ele></trkpt>
      <trkpt lat="33.785267" lon="10.793878"><ele>0</ele></trkpt>
      <trkpt lat="33.785256" lon="10.793967"><ele>0</ele></trkpt>
      <trkpt lat="33.785203" lon="10.794157"><ele>0</ele></trkpt>
      <trkpt lat="33.785114" lon="10.794327"><ele>0</ele></trkpt>
      <trkpt lat="33.785112" lon="10.794397"><ele>0</ele></trkpt>
      <trkpt lat="33.785137" lon="10.794489"><ele>0</ele></trkpt>
      <trkpt lat="33.785297" lon="10.794759"><ele>0</ele></trkpt>
      <trkpt lat="33.785402" lon="10.794882"><ele>0</ele></trkpt>
      <trkpt lat="33.785302" lon="10.795078"><ele>0</ele></trkpt>
      <trkpt lat="33.785123" lon="10.795392"><ele>0</ele></trkpt>
      <trkpt lat="33.785052" lon="10.795476"><ele>0</ele></trkpt>
      <trkpt lat="33.7849" lon="10.795625"><ele>0</ele></trkpt>
      <trkpt lat="33.784713" lon="10.795793"><ele>0</ele></trkpt>
      <trkpt lat="33.784618" lon="10.795928"><ele>0</ele></trkpt>
      <trkpt lat="33.78463" lon="10.79602"><ele>0</ele></trkpt>
      <trkpt lat="33.784658" lon="10.796146"><ele>0</ele></trkpt>
      <trkpt lat="33.784696" lon="10.796246"><ele>0</ele></trkpt>
      <trkpt lat="33.784764" lon="10.796369"><ele>0</ele></trkpt>
      <trkpt lat="33.784814" lon="10.796428"><ele>0</ele></trkpt>
      <trkpt lat="33.784844" lon="10.796457"><ele>0</ele></trkpt>
      <trkpt lat="33.784862" lon="10.796488"><ele>0</ele></trkpt>
      <trkpt lat="33.784869" lon="10.796529"><ele>0</ele></trkpt>
      <trkpt lat="33.784859" lon="10.796607"><ele>0</ele></trkpt>
      <trkpt lat="33.784843" lon="10.796641"><ele>0</ele></trkpt>
      <trkpt lat="33.784793" lon="10.7967"><ele>0</ele></trkpt>
      <trkpt lat="33.784784" lon="10.796733"><ele>0</ele></trkpt>
      <trkpt lat="33.784788" lon="10.796765"><ele>0</ele></trkpt>
      <trkpt lat="33.784813" lon="10.796814"><ele>0</ele></trkpt>
      <trkpt lat="33.784896" lon="10.796933"><ele>0</ele></trkpt>
      <trkpt lat="33.785017" lon="10.797129"><ele>0</ele></trkpt>
      <trkpt lat="33.785114" lon="10.797271"><ele>0</ele></trkpt>
      <trkpt lat="33.785128" lon="10.797302"><ele>0</ele></trkpt>
      <trkpt lat="33.785129" lon="10.797338"><ele>0</ele></trkpt>
      <trkpt lat="33.785105" lon="10.797398"><ele>0</ele></trkpt>
      <trkpt lat="33.785014" lon="10.797492"><ele>0</ele></trkpt>
      <trkpt lat="33.784872" lon="10.797604"><ele>0</ele></trkpt>
      <trkpt lat="33.784779" lon="10.797703"><ele>0</ele></trkpt>
      <trkpt lat="33.78468" lon="10.797871"><ele>0</ele></trkpt>
      <trkpt lat="33.784601" lon="10.798048"><ele>0</ele></trkpt>
      <trkpt lat="33.784638" lon="10.798043"><ele>0</ele></trkpt>
      <trkpt lat="33.78468" lon="10.798052"><ele>0</ele></trkpt>
      <trkpt lat="33.784733" lon="10.798092"><ele>0</ele></trkpt>
      <trkpt lat="33.784855" lon="10.798205"><ele>0</ele></trkpt>
      <trkpt lat="33.785134" lon="10.79862"><ele>0</ele></trkpt>
      <trkpt lat="33.78555" lon="10.798908"><ele>0</ele></trkpt>
      <trkpt lat="33.785717" lon="10.799046"><ele>0</ele></trkpt>
      <trkpt lat="33.785889" lon="10.799244"><ele>0</ele></trkpt>
      <trkpt lat="33.786029" lon="10.799319"><ele>0</ele></trkpt>
      <trkpt lat="33.786181" lon="10.799364"><ele>0</ele></trkpt>
      <trkpt lat="33.786318" lon="10.799427"><ele>0</ele></trkpt>
      <trkpt lat="33.786372" lon="10.799478"><ele>0</ele></trkpt>
      <trkpt lat="33.786497" lon="10.799694"><ele>0</ele></trkpt>
      <trkpt lat="33.786565" lon="10.799794"><ele>0</ele></trkpt>
      <trkpt lat="33.786765" lon="10.799767"><ele>0</ele></trkpt>
      <trkpt lat="33.787056" lon="10.799628"><ele>0</ele></trkpt>
      <trkpt lat="33.787267" lon="10.799502"><ele>0</ele></trkpt>
      <trkpt lat="33.787368" lon="10.799431"><ele>0</ele></trkpt>
      <trkpt lat="33.787414" lon="10.799426"><ele>0</ele></trkpt>
      <trkpt lat="33.787466" lon="10.799432"><ele>0</ele></trkpt>
      <trkpt lat="33.787936" lon="10.800208"><ele>0</ele></trkpt>
      <trkpt lat="33.78797" lon="10.800237"><ele>0</ele></trkpt>
      <trkpt lat="33.788014" lon="10.800255"><ele>0</ele></trkpt>
      <trkpt lat="33.788053" lon="10.800262"><ele>0</ele></trkpt>
      <trkpt lat="33.788192" lon="10.800256"><ele>0</ele></trkpt>
      <trkpt lat="33.788227" lon="10.800271"><ele>0</ele></trkpt>
      <trkpt lat="33.788266" lon="10.800302"><ele>0</ele></trkpt>
      <trkpt lat="33.788332" lon="10.800446"><ele>0</ele></trkpt>
      <trkpt lat="33.788397" lon="10.800657"><ele>0</ele></trkpt>
      <trkpt lat="33.78846" lon="10.800911"><ele>0</ele></trkpt>
      <trkpt lat="33.788482" lon="10.800943"><ele>0</ele></trkpt>
      <trkpt lat="33.788519" lon="10.800972"><ele>0</ele></trkpt>
      <trkpt lat="33.788788" lon="10.801113"><ele>0</ele></trkpt>
      <trkpt lat="33.788814" lon="10.801133"><ele>0</ele></trkpt>
      <trkpt lat="33.788827" lon="10.801153"><ele>0</ele></trkpt>
      <trkpt lat="33.788835" lon="10.801181"><ele>0</ele></trkpt>
      <trkpt lat="33.788846" lon="10.801443"><ele>0</ele></trkpt>
      <trkpt lat="33.788859" lon="10.801493"><ele>0</ele></trkpt>
      <trkpt lat="33.78891" lon="10.801609"><ele>0</ele></trkpt>
      <trkpt lat="33.788998" lon="10.801746"><ele>0</ele></trkpt>
      <trkpt lat="33.789056" lon="10.801808"><ele>0</ele></trkpt>
      <trkpt lat="33.789247" lon="10.801954"><ele>0</ele></trkpt>
      <trkpt lat="33.789315" lon="10.801979"><ele>0</ele></trkpt>
      <trkpt lat="33.789341" lon="10.801931"><ele>0</ele></trkpt>
      <trkpt lat="33.789377" lon="10.801912"><ele>0</ele></trkpt>
      <trkpt lat="33.789701" lon="10.801912"><ele>0</ele></trkpt>
      <trkpt lat="33.789719" lon="10.801996"><ele>0</ele></trkpt>
      <trkpt lat="33.78973" lon="10.802083"><ele>0</ele></trkpt>
      <trkpt lat="33.789741" lon="10.80239"><ele>0</ele></trkpt>
      <trkpt lat="33.78972" lon="10.802877"><ele>0</ele></trkpt>
      <trkpt lat="33.789735" lon="10.803348"><ele>0</ele></trkpt>
      <trkpt lat="33.789728" lon="10.80395"><ele>0</ele></trkpt>
      <trkpt lat="33.789732" lon="10.804012"><ele>0</ele></trkpt>
      <trkpt lat="33.789756" lon="10.804111"><ele>0</ele></trkpt>
      <trkpt lat="33.789984" lon="10.804235"><ele>0</ele></trkpt>
      <trkpt lat="33.790021" lon="10.804319"><ele>0</ele></trkpt>
      <trkpt lat="33.790022" lon="10.804358"><ele>0</ele></trkpt>
      <trkpt lat="33.789963" lon="10.804559"><ele>0</ele></trkpt>
      <trkpt lat="33.789904" lon="10.804693"><ele>0</ele></trkpt>
      <trkpt lat="33.789855" lon="10.804778"><ele>0</ele></trkpt>
      <trkpt lat="33.78977" lon="10.80484"><ele>0</ele></trkpt>
      <trkpt lat="33.78975" lon="10.804878"><ele>0</ele></trkpt>
      <trkpt lat="33.789744" lon="10.804933"><ele>0</ele></trkpt>
      <trkpt lat="33.789836" lon="10.80512"><ele>0</ele></trkpt>
      <trkpt lat="33.7899" lon="10.80521"><ele>0</ele></trkpt>
      <trkpt lat="33.789959" lon="10.805309"><ele>0</ele></trkpt>
      <trkpt lat="33.790087" lon="10.805483"><ele>0</ele></trkpt>
      <trkpt lat="33.790134" lon="10.805525"><ele>0</ele></trkpt>
      <trkpt lat="33.790087" lon="10.805483"><ele>0</ele></trkpt>
      <trkpt lat="33.789959" lon="10.805309"><ele>0</ele></trkpt>
      <trkpt lat="33.789916" lon="10.805279"><ele>0</ele></trkpt>
      <trkpt lat="33.789881" lon="10.805271"><ele>0</ele></trkpt>
      <trkpt lat="33.789852" lon="10.805274"><ele>0</ele></trkpt>
      <trkpt lat="33.789802" lon="10.805306"><ele>0</ele></trkpt>
      <trkpt lat="33.789669" lon="10.805461"><ele>0</ele></trkpt>
      <trkpt lat="33.789586" lon="10.805537"><ele>0</ele></trkpt>
      <trkpt lat="33.789523" lon="10.805569"><ele>0</ele></trkpt>
      <trkpt lat="33.789353" lon="10.805627"><ele>0</ele></trkpt>
      <trkpt lat="33.788682" lon="10.805762"><ele>0</ele></trkpt>
      <trkpt lat="33.788466" lon="10.805886"><ele>0</ele></trkpt>
      <trkpt lat="33.788355" lon="10.805914"><ele>0</ele></trkpt>
      <trkpt lat="33.788035" lon="10.80597"><ele>0</ele></trkpt>
      <trkpt lat="33.787517" lon="10.806024"><ele>0</ele></trkpt>
      <trkpt lat="33.787366" lon="10.806071"><ele>0</ele></trkpt>
      <trkpt lat="33.787228" lon="10.806129"><ele>0</ele></trkpt>
      <trkpt lat="33.787094" lon="10.806215"><ele>0</ele></trkpt>
      <trkpt lat="33.786906" lon="10.806366"><ele>0</ele></trkpt>
      <trkpt lat="33.786949" lon="10.806537"><ele>0</ele></trkpt>
      <trkpt lat="33.787012" lon="10.806639"><ele>0</ele></trkpt>
      <trkpt lat="33.78727" lon="10.806854"><ele>0</ele></trkpt>
      <trkpt lat="33.787319" lon="10.80693"><ele>0</ele></trkpt>
      <trkpt lat="33.787373" lon="10.807066"><ele>0</ele></trkpt>
      <trkpt lat="33.787428" lon="10.807279"><ele>0</ele></trkpt>
      <trkpt lat="33.787469" lon="10.807393"><ele>0</ele></trkpt>
      <trkpt lat="33.78756" lon="10.807536"><ele>0</ele></trkpt>
      <trkpt lat="33.787737" lon="10.807735"><ele>0</ele></trkpt>
      <trkpt lat="33.787819" lon="10.807794"><ele>0</ele></trkpt>
      <trkpt lat="33.787915" lon="10.807826"><ele>0</ele></trkpt>
      <trkpt lat="33.788004" lon="10.80791"><ele>0</ele></trkpt>
      <trkpt lat="33.788297" lon="10.808309"><ele>0</ele></trkpt>
      <trkpt lat="33.788419" lon="10.808521"><ele>0</ele></trkpt>
      <trkpt lat="33.788447" lon="10.808607"><ele>0</ele></trkpt>
      <trkpt lat="33.788462" lon="10.808866"><ele>0</ele></trkpt>
      <trkpt lat="33.788508" lon="10.808984"><ele>0</ele></trkpt>
      <trkpt lat="33.788526" lon="10.809125"><ele>0</ele></trkpt>
      <trkpt lat="33.788517" lon="10.809492"><ele>0</ele></trkpt>
      <trkpt lat="33.788555" lon="10.809861"><ele>0</ele></trkpt>
      <trkpt lat="33.788548" lon="10.810294"><ele>0</ele></trkpt>
      <trkpt lat="33.788547" lon="10.81051"><ele>0</ele></trkpt>
      <trkpt lat="33.788595" lon="10.81115"><ele>0</ele></trkpt>
      <trkpt lat="33.78858" lon="10.811369"><ele>0</ele></trkpt>
      <trkpt lat="33.788601" lon="10.81147"><ele>0</ele></trkpt>
      <trkpt lat="33.788659" lon="10.811569"><ele>0</ele></trkpt>
      <trkpt lat="33.788675" lon="10.811622"><ele>0</ele></trkpt>
      <trkpt lat="33.788662" lon="10.811667"><ele>0</ele></trkpt>
      <trkpt lat="33.788607" lon="10.811736"><ele>0</ele></trkpt>
      <trkpt lat="33.788584" lon="10.811807"><ele>0</ele></trkpt>
      <trkpt lat="33.788596" lon="10.811913"><ele>0</ele></trkpt>
      <trkpt lat="33.788678" lon="10.812174"><ele>0</ele></trkpt>
      <trkpt lat="33.788721" lon="10.812545"><ele>0</ele></trkpt>
      <trkpt lat="33.788751" lon="10.812838"><ele>0</ele></trkpt>
      <trkpt lat="33.788746" lon="10.812895"><ele>0</ele></trkpt>
      <trkpt lat="33.788726" lon="10.812954"><ele>0</ele></trkpt>
      <trkpt lat="33.788691" lon="10.813002"><ele>0</ele></trkpt>
      <trkpt lat="33.788318" lon="10.813217"><ele>0</ele></trkpt>
      <trkpt lat="33.788232" lon="10.813281"><ele>0</ele></trkpt>
      <trkpt lat="33.788179" lon="10.813353"><ele>0</ele></trkpt>
      <trkpt lat="33.787188" lon="10.812985"><ele>0</ele></trkpt>
      <trkpt lat="33.786803" lon="10.812867"><ele>0</ele></trkpt>
      <trkpt lat="33.786686" lon="10.812811"><ele>0</ele></trkpt>
      <trkpt lat="33.786521" lon="10.81272"><ele>0</ele></trkpt>
      <trkpt lat="33.786098" lon="10.812433"><ele>0</ele></trkpt>
      <trkpt lat="33.785198" lon="10.811825"><ele>0</ele></trkpt>
      <trkpt lat="33.784618" lon="10.811464"><ele>0</ele></trkpt>
      <trkpt lat="33.783853" lon="10.810955"><ele>0</ele></trkpt>
      <trkpt lat="33.78366" lon="10.810834"><ele>0</ele></trkpt>
      <trkpt lat="33.783561" lon="10.810859"><ele>0</ele></trkpt>
      <trkpt lat="33.783484" lon="10.810892"><ele>0</ele></trkpt>
      <trkpt lat="33.783392" lon="10.810921"><ele>0</ele></trkpt>
      <trkpt lat="33.783315" lon="10.810938"><ele>0</ele></trkpt>
      <trkpt lat="33.783224" lon="10.810947"><ele>0</ele></trkpt>
      <trkpt lat="33.783117" lon="10.810942"><ele>0</ele></trkpt>
      <trkpt lat="33.783044" lon="10.810947"><ele>0</ele></trkpt>
      <trkpt lat="33.783006" lon="10.810959"><ele>0</ele></trkpt>
      <trkpt lat="33.782848" lon="10.811123"><ele>0</ele></trkpt>
      <trkpt lat="33.782604" lon="10.811284"><ele>0</ele></trkpt>
      <trkpt lat="33.782415" lon="10.811432"><ele>0</ele></trkpt>
      <trkpt lat="33.782125" lon="10.811618"><ele>0</ele></trkpt>
      <trkpt lat="33.782038" lon="10.811661"><ele>0</ele></trkpt>
      <trkpt lat="33.781832" lon="10.81174"><ele>0</ele></trkpt>
      <trkpt lat="33.781789" lon="10.811778"><ele>0</ele></trkpt>
      <trkpt lat="33.781766" lon="10.811819"><ele>0</ele></trkpt>
      <trkpt lat="33.781747" lon="10.811875"><ele>0</ele></trkpt>
      <trkpt lat="33.781681" lon="10.812125"><ele>0</ele></trkpt>
      <trkpt lat="33.781639" lon="10.812195"><ele>0</ele></trkpt>
      <trkpt lat="33.781454" lon="10.812365"><ele>0</ele></trkpt>
      <trkpt lat="33.781297" lon="10.812546"><ele>0</ele></trkpt>
      <trkpt lat="33.781257" lon="10.812615"><ele>0</ele></trkpt>
      <trkpt lat="33.781237" lon="10.812671"><ele>0</ele></trkpt>
      <trkpt lat="33.781199" lon="10.812761"><ele>0</ele></trkpt>
      <trkpt lat="33.781155" lon="10.812839"><ele>0</ele></trkpt>
      <trkpt lat="33.781118" lon="10.812885"><ele>0</ele></trkpt>
      <trkpt lat="33.780945" lon="10.813059"><ele>0</ele></trkpt>
      <trkpt lat="33.780772" lon="10.813218"><ele>0</ele></trkpt>
      <trkpt lat="33.780727" lon="10.813252"><ele>0</ele></trkpt>
      <trkpt lat="33.780684" lon="10.813272"><ele>0</ele></trkpt>
      <trkpt lat="33.78057" lon="10.81329"><ele>0</ele></trkpt>
      <trkpt lat="33.780479" lon="10.813317"><ele>0</ele></trkpt>
      <trkpt lat="33.780246" lon="10.81345"><ele>0</ele></trkpt>
      <trkpt lat="33.780159" lon="10.813428"><ele>0</ele></trkpt>
      <trkpt lat="33.780104" lon="10.813432"><ele>0</ele></trkpt>
      <trkpt lat="33.78006" lon="10.81346"><ele>0</ele></trkpt>
      <trkpt lat="33.779903" lon="10.813693"><ele>0</ele></trkpt>
      <trkpt lat="33.779725" lon="10.813916"><ele>0</ele></trkpt>
      <trkpt lat="33.779527" lon="10.814134"><ele>0</ele></trkpt>
      <trkpt lat="33.77936" lon="10.814301"><ele>0</ele></trkpt>
      <trkpt lat="33.779194" lon="10.814445"><ele>0</ele></trkpt>
      <trkpt lat="33.778845" lon="10.814766"><ele>0</ele></trkpt>
      <trkpt lat="33.778708" lon="10.814879"><ele>0</ele></trkpt>
      <trkpt lat="33.778524" lon="10.815006"><ele>0</ele></trkpt>
      <trkpt lat="33.778325" lon="10.815113"><ele>0</ele></trkpt>
      <trkpt lat="33.778032" lon="10.815251"><ele>0</ele></trkpt>
      <trkpt lat="33.777877" lon="10.815352"><ele>0</ele></trkpt>
      <trkpt lat="33.777891" lon="10.815302"><ele>0</ele></trkpt>
      <trkpt lat="33.77789" lon="10.815272"><ele>0</ele></trkpt>
      <trkpt lat="33.777851" lon="10.815184"><ele>0</ele></trkpt>
      <trkpt lat="33.77789" lon="10.815272"><ele>0</ele></trkpt>
      <trkpt lat="33.777891" lon="10.815302"><ele>0</ele></trkpt>
      <trkpt lat="33.777877" lon="10.815352"><ele>0</ele></trkpt>
      <trkpt lat="33.777755" lon="10.815425"><ele>0</ele></trkpt>
      <trkpt lat="33.777468" lon="10.815627"><ele>0</ele></trkpt>
      <trkpt lat="33.777407" lon="10.815657"><ele>0</ele></trkpt>
      <trkpt lat="33.777231" lon="10.815677"><ele>0</ele></trkpt>
      <trkpt lat="33.777101" lon="10.815706"><ele>0</ele></trkpt>
      <trkpt lat="33.777069" lon="10.815725"><ele>0</ele></trkpt>
      <trkpt lat="33.776972" lon="10.815867"><ele>0</ele></trkpt>
      <trkpt lat="33.776913" lon="10.815917"><ele>0</ele></trkpt>
      <trkpt lat="33.77666" lon="10.816093"><ele>0</ele></trkpt>
      <trkpt lat="33.77649" lon="10.816157"><ele>0</ele></trkpt>
      <trkpt lat="33.776463" lon="10.816203"><ele>0</ele></trkpt>
      <trkpt lat="33.776458" lon="10.816244"><ele>0</ele></trkpt>
      <trkpt lat="33.776428" lon="10.816196"><ele>0</ele></trkpt>
      <trkpt lat="33.776391" lon="10.816177"><ele>0</ele></trkpt>
      <trkpt lat="33.776185" lon="10.81621"><ele>0</ele></trkpt>
      <trkpt lat="33.775982" lon="10.816255"><ele>0</ele></trkpt>
      <trkpt lat="33.775893" lon="10.816289"><ele>0</ele></trkpt>
      <trkpt lat="33.775766" lon="10.816378"><ele>0</ele></trkpt>
      <trkpt lat="33.775597" lon="10.816547"><ele>0</ele></trkpt>
      <trkpt lat="33.775503" lon="10.816663"><ele>0</ele></trkpt>
      <trkpt lat="33.77538" lon="10.816797"><ele>0</ele></trkpt>
      <trkpt lat="33.775139" lon="10.817009"><ele>0</ele></trkpt>
      <trkpt lat="33.775002" lon="10.817118"><ele>0</ele></trkpt>
      <trkpt lat="33.774864" lon="10.817207"><ele>0</ele></trkpt>
      <trkpt lat="33.774763" lon="10.817281"><ele>0</ele></trkpt>
      <trkpt lat="33.774573" lon="10.817488"><ele>0</ele></trkpt>
      <trkpt lat="33.774459" lon="10.817586"><ele>0</ele></trkpt>
      <trkpt lat="33.774326" lon="10.817666"><ele>0</ele></trkpt>
      <trkpt lat="33.774077" lon="10.817686"><ele>0</ele></trkpt>
      <trkpt lat="33.773875" lon="10.817684"><ele>0</ele></trkpt>
      <trkpt lat="33.773718" lon="10.817655"><ele>0</ele></trkpt>
      <trkpt lat="33.773875" lon="10.817684"><ele>0</ele></trkpt>
      <trkpt lat="33.773993" lon="10.817961"><ele>0</ele></trkpt>
      <trkpt lat="33.774013" lon="10.818044"><ele>0</ele></trkpt>
      <trkpt lat="33.773935" lon="10.818201"><ele>0</ele></trkpt>
      <trkpt lat="33.773908" lon="10.81829"><ele>0</ele></trkpt>
      <trkpt lat="33.773904" lon="10.818348"><ele>0</ele></trkpt>
      <trkpt lat="33.773915" lon="10.818401"><ele>0</ele></trkpt>
      <trkpt lat="33.773952" lon="10.81847"><ele>0</ele></trkpt>
      <trkpt lat="33.774112" lon="10.81863"><ele>0</ele></trkpt>
      <trkpt lat="33.774215" lon="10.818785"><ele>0</ele></trkpt>
      <trkpt lat="33.77429" lon="10.818933"><ele>0</ele></trkpt>
      <trkpt lat="33.774321" lon="10.819044"><ele>0</ele></trkpt>
      <trkpt lat="33.774364" lon="10.819157"><ele>0</ele></trkpt>
      <trkpt lat="33.774411" lon="10.819241"><ele>0</ele></trkpt>
      <trkpt lat="33.774532" lon="10.819385"><ele>0</ele></trkpt>
      <trkpt lat="33.774666" lon="10.819506"><ele>0</ele></trkpt>
      <trkpt lat="33.774737" lon="10.819551"><ele>0</ele></trkpt>
      <trkpt lat="33.774767" lon="10.819584"><ele>0</ele></trkpt>
      <trkpt lat="33.7748" lon="10.819656"><ele>0</ele></trkpt>
      <trkpt lat="33.774798" lon="10.81973"><ele>0</ele></trkpt>
      <trkpt lat="33.77481" lon="10.819766"><ele>0</ele></trkpt>
      <trkpt lat="33.774836" lon="10.8198"><ele>0</ele></trkpt>
      <trkpt lat="33.77499" lon="10.819868"><ele>0</ele></trkpt>
      <trkpt lat="33.775071" lon="10.819907"><ele>0</ele></trkpt>
      <trkpt lat="33.775119" lon="10.81996"><ele>0</ele></trkpt>
      <trkpt lat="33.775208" lon="10.820034"><ele>0</ele></trkpt>
      <trkpt lat="33.775404" lon="10.820226"><ele>0</ele></trkpt>
      <trkpt lat="33.775492" lon="10.82033"><ele>0</ele></trkpt>
      <trkpt lat="33.775602" lon="10.820441"><ele>0</ele></trkpt>
      <trkpt lat="33.775653" lon="10.820503"><ele>0</ele></trkpt>
      <trkpt lat="33.775708" lon="10.820591"><ele>0</ele></trkpt>
      <trkpt lat="33.775815" lon="10.82071"><ele>0</ele></trkpt>
      <trkpt lat="33.775898" lon="10.820783"><ele>0</ele></trkpt>
      <trkpt lat="33.775967" lon="10.820863"><ele>0</ele></trkpt>
      <trkpt lat="33.775596" lon="10.821197"><ele>0</ele></trkpt>
      <trkpt lat="33.775239" lon="10.821539"><ele>0</ele></trkpt>
      <trkpt lat="33.775171" lon="10.821589"><ele>0</ele></trkpt>
      <trkpt lat="33.77514" lon="10.821604"><ele>0</ele></trkpt>
      <trkpt lat="33.775049" lon="10.821581"><ele>0</ele></trkpt>
      <trkpt lat="33.775013" lon="10.821586"><ele>0</ele></trkpt>
      <trkpt lat="33.774982" lon="10.821601"><ele>0</ele></trkpt>
      <trkpt lat="33.774773" lon="10.821757"><ele>0</ele></trkpt>
      <trkpt lat="33.774839" lon="10.821852"><ele>0</ele></trkpt>
      <trkpt lat="33.774977" lon="10.822082"><ele>0</ele></trkpt>
      <trkpt lat="33.775032" lon="10.822186"><ele>0</ele></trkpt>
      <trkpt lat="33.775112" lon="10.822393"><ele>0</ele></trkpt>
      <trkpt lat="33.775164" lon="10.822647"><ele>0</ele></trkpt>
      <trkpt lat="33.775183" lon="10.822813"><ele>0</ele></trkpt>
      <trkpt lat="33.775196" lon="10.823004"><ele>0</ele></trkpt>
      <trkpt lat="33.774973" lon="10.823001"><ele>0</ele></trkpt>
      <trkpt lat="33.77492" lon="10.823024"><ele>0</ele></trkpt>
      <trkpt lat="33.774558" lon="10.82322"><ele>0</ele></trkpt>
      <trkpt lat="33.774491" lon="10.823294"><ele>0</ele></trkpt>
      <trkpt lat="33.774369" lon="10.823328"><ele>0</ele></trkpt>
      <trkpt lat="33.774238" lon="10.823351"><ele>0</ele></trkpt>
      <trkpt lat="33.774212" lon="10.823375"><ele>0</ele></trkpt>
      <trkpt lat="33.774187" lon="10.823432"><ele>0</ele></trkpt>
      <trkpt lat="33.774065" lon="10.823528"><ele>0</ele></trkpt>
      <trkpt lat="33.774051" lon="10.82355"><ele>0</ele></trkpt>
      <trkpt lat="33.774047" lon="10.823564"><ele>0</ele></trkpt>
      <trkpt lat="33.774052" lon="10.82364"><ele>0</ele></trkpt>
      <trkpt lat="33.774045" lon="10.823674"><ele>0</ele></trkpt>
      <trkpt lat="33.773993" lon="10.823758"><ele>0</ele></trkpt>
      <trkpt lat="33.77394" lon="10.823821"><ele>0</ele></trkpt>
      <trkpt lat="33.773936" lon="10.823864"><ele>0</ele></trkpt>
      <trkpt lat="33.774102" lon="10.824225"><ele>0</ele></trkpt>
      <trkpt lat="33.774348" lon="10.82456"><ele>0</ele></trkpt>
      <trkpt lat="33.774795" lon="10.824316"><ele>0</ele></trkpt>
      <trkpt lat="33.775064" lon="10.824154"><ele>0</ele></trkpt></trkseg></trk></gpx>