<?xml version="1.0" encoding="UTF-8"?><gpx version="1.1" creator="Heripia 3.7.410" xmlns="http://www.topografix.com/GPX/1/1" xmlns:xsi="http://www.w3.org/2001/XMLSchema-instance" xsi:schemaLocation="http://www.topografix.com/GPX/1/1 http://www.topografix.com/GPX/1/1/gpx.xsd">
    <metadata>
        <name>Circuit de Mosquée Sidi Tahar à Mosquée El Jadid (Boumellal)</name>
        <desc>Circuit généré par Heripia — heripia.com</desc>
        <link href="https://heripia.com/">
            <text>Heripia [HW-ID:HW-01M2ZC26CA20KVH2443RJTTB2C]</text>
        </link>
    </metadata>
    <wpt lat="33.863629878511645" lon="10.798814592842618">
      <name>Mosquée Sidi Tahar</name>
      <desc></desc>
    </wpt>
    <wpt lat="33.86202557545826" lon="10.806473154993117">
      <name>Mosquée Sidi El Tayeib</name>
      <desc></desc>
    </wpt>
    <wpt lat="33.86191783421097" lon="10.821201358600382">
      <name>Mosquée Aboumessouer</name>
      <desc></desc>
      <link href="https://djerba.holiday/les-mosquees-et-monuments-historiques-de-djerba-un-voyage-a-travers-le-temps-la-spiritualite-et-le-patrimoine-mondial-de-lunesco/
Répertoire J. Fathallah, n° 63 | http://palaisbenayed.com/wp-content/uploads/2021/03/r%C3%A9pertoire-des-mosqu%C3%A9es-de-Djerba.pdf
https://fr.wikipedia.org/wiki/Grande_mosqu%C3%A9e_des_Ban%C5%AB_Yahr%C4%81san">
        <text>Lien vers le site</text>
      </link>
    </wpt>
    <wpt lat="33.873083" lon="10.845306">
      <name>Mosquée Sediq</name>
      <desc></desc>
    </wpt>
    <wpt lat="33.875917" lon="10.84875">
      <name>Mosquée El Jadid (Boumellal)</name>
      <desc></desc>
    </wpt><trk><name>Circuit de Mosquée Sidi Tahar à Mosquée El Jadid (Boumellal)</name><desc><![CDATA[Circuit généré par Heripia — heripia.com]]></desc><trkseg><trkpt lat="33.863613" lon="10.798893"><ele>0</ele></trkpt>
      <trkpt lat="33.86365" lon="10.798904"><ele>0</ele></trkpt>
      <trkpt lat="33.863741" lon="10.798912"><ele>0</ele></trkpt>
      <trkpt lat="33.863738" lon="10.799197"><ele>0</ele></trkpt>
      <trkpt lat="33.863719" lon="10.79959"><ele>0</ele></trkpt>
      <trkpt lat="33.863718" lon="10.799818"><ele>0</ele></trkpt>
      <trkpt lat="33.863709" lon="10.799947"><ele>0</ele></trkpt>
      <trkpt lat="33.863694" lon="10.8002"><ele>0</ele></trkpt>
      <trkpt lat="33.864046" lon="10.800324"><ele>0</ele></trkpt>
      <trkpt lat="33.864154" lon="10.800368"><ele>0</ele></trkpt>
      <trkpt lat="33.864181" lon="10.800391"><ele>0</ele></trkpt>
      <trkpt lat="33.864191" lon="10.800419"><ele>0</ele></trkpt>
      <trkpt lat="33.864191" lon="10.800449"><ele>0</ele></trkpt>
      <trkpt lat="33.864124" lon="10.800772"><ele>0</ele></trkpt>
      <trkpt lat="33.864043" lon="10.801085"><ele>0</ele></trkpt>
      <trkpt lat="33.86405" lon="10.801618"><ele>0</ele></trkpt>
      <trkpt lat="33.864044" lon="10.801719"><ele>0</ele></trkpt>
      <trkpt lat="33.864032" lon="10.801736"><ele>0</ele></trkpt>
      <trkpt lat="33.86401" lon="10.801749"><ele>0</ele></trkpt>
      <trkpt lat="33.863973" lon="10.801753"><ele>0</ele></trkpt>
      <trkpt lat="33.863829" lon="10.801736"><ele>0</ele></trkpt>
      <trkpt lat="33.863456" lon="10.801739"><ele>0</ele></trkpt>
      <trkpt lat="33.863377" lon="10.801718"><ele>0</ele></trkpt>
      <trkpt lat="33.863322" lon="10.801685"><ele>0</ele></trkpt>
      <trkpt lat="33.863141" lon="10.801584"><ele>0</ele></trkpt>
      <trkpt lat="33.863031" lon="10.801533"><ele>0</ele></trkpt>
      <trkpt lat="33.86296" lon="10.801511"><ele>0</ele></trkpt>
      <trkpt lat="33.862879" lon="10.801506"><ele>0</ele></trkpt>
      <trkpt lat="33.862812" lon="10.801548"><ele>0</ele></trkpt>
      <trkpt lat="33.86278" lon="10.801556"><ele>0</ele></trkpt>
      <trkpt lat="33.862669" lon="10.801517"><ele>0</ele></trkpt>
      <trkpt lat="33.862637" lon="10.801519"><ele>0</ele></trkpt>
      <trkpt lat="33.862626" lon="10.80154"><ele>0</ele></trkpt>
      <trkpt lat="33.862625" lon="10.802026"><ele>0</ele></trkpt>
      <trkpt lat="33.862404" lon="10.802045"><ele>0</ele></trkpt>
      <trkpt lat="33.862143" lon="10.802034"><ele>0</ele></trkpt>
      <trkpt lat="33.861803" lon="10.802103"><ele>0</ele></trkpt>
      <trkpt lat="33.861745" lon="10.802099"><ele>0</ele></trkpt>
      <trkpt lat="33.861607" lon="10.802066"><ele>0</ele></trkpt>
      <trkpt lat="33.861519" lon="10.802071"><ele>0</ele></trkpt>
      <trkpt lat="33.861452" lon="10.802102"><ele>0</ele></trkpt>
      <trkpt lat="33.861413" lon="10.802141"><ele>0</ele></trkpt>
      <trkpt lat="33.861385" lon="10.802188"><ele>0</ele></trkpt>
      <trkpt lat="33.861332" lon="10.802322"><ele>0</ele></trkpt>
      <trkpt lat="33.86123" lon="10.802652"><ele>0</ele></trkpt>
      <trkpt lat="33.861179" lon="10.802721"><ele>0</ele></trkpt>
      <trkpt lat="33.861114" lon="10.802744"><ele>0</ele></trkpt>
      <trkpt lat="33.861048" lon="10.80274"><ele>0</ele></trkpt>
      <trkpt lat="33.860771" lon="10.80261"><ele>0</ele></trkpt>
      <trkpt lat="33.860623" lon="10.802563"><ele>0</ele></trkpt>
      <trkpt lat="33.860529" lon="10.802547"><ele>0</ele></trkpt>
      <trkpt lat="33.86043" lon="10.802546"><ele>0</ele></trkpt>
      <trkpt lat="33.860261" lon="10.80259"><ele>0</ele></trkpt>
      <trkpt lat="33.859966" lon="10.802714"><ele>0</ele></trkpt>
      <trkpt lat="33.859918" lon="10.802718"><ele>0</ele></trkpt>
      <trkpt lat="33.859675" lon="10.802987"><ele>0</ele></trkpt>
      <trkpt lat="33.859596" lon="10.803088"><ele>0</ele></trkpt>
      <trkpt lat="33.859433" lon="10.803334"><ele>0</ele></trkpt>
      <trkpt lat="33.85914" lon="10.803576"><ele>0</ele></trkpt>
      <trkpt lat="33.859066" lon="10.803648"><ele>0</ele></trkpt>
      <trkpt lat="33.859009" lon="10.803727"><ele>0</ele></trkpt>
      <trkpt lat="33.858968" lon="10.803801"><ele>0</ele></trkpt>
      <trkpt lat="33.858958" lon="10.803844"><ele>0</ele></trkpt>
      <trkpt lat="33.85909" lon="10.804102"><ele>0</ele></trkpt>
      <trkpt lat="33.859162" lon="10.804288"><ele>0</ele></trkpt>
      <trkpt lat="33.859206" lon="10.804368"><ele>0</ele></trkpt>
      <trkpt lat="33.859246" lon="10.804418"><ele>0</ele></trkpt>
      <trkpt lat="33.859316" lon="10.804461"><ele>0</ele></trkpt>
      <trkpt lat="33.859536" lon="10.804504"><ele>0</ele></trkpt>
      <trkpt lat="33.859607" lon="10.804519"><ele>0</ele></trkpt>
      <trkpt lat="33.859673" lon="10.804545"><ele>0</ele></trkpt>
      <trkpt lat="33.859776" lon="10.804622"><ele>0</ele></trkpt>
      <trkpt lat="33.859867" lon="10.804701"><ele>0</ele></trkpt>
      <trkpt lat="33.85995" lon="10.804859"><ele>0</ele></trkpt>
      <trkpt lat="33.860046" lon="10.804937"><ele>0</ele></trkpt>
      <trkpt lat="33.860105" lon="10.805019"><ele>0</ele></trkpt>
      <trkpt lat="33.860132" lon="10.805083"><ele>0</ele></trkpt>
      <trkpt lat="33.860153" lon="10.805162"><ele>0</ele></trkpt>
      <trkpt lat="33.860157" lon="10.80529"><ele>0</ele></trkpt>
      <trkpt lat="33.860185" lon="10.805408"><ele>0</ele></trkpt>
      <trkpt lat="33.860271" lon="10.805547"><ele>0</ele></trkpt>
      <trkpt lat="33.860368" lon="10.805661"><ele>0</ele></trkpt>
      <trkpt lat="33.860497" lon="10.805761"><ele>0</ele></trkpt>
      <trkpt lat="33.860675" lon="10.805956"><ele>0</ele></trkpt>
      <trkpt lat="33.860742" lon="10.805979"><ele>0</ele></trkpt>
      <trkpt lat="33.86087" lon="10.805956"><ele>0</ele></trkpt>
      <trkpt lat="33.861076" lon="10.805931"><ele>0</ele></trkpt>
      <trkpt lat="33.86127" lon="10.805893"><ele>0</ele></trkpt>
      <trkpt lat="33.861403" lon="10.805881"><ele>0</ele></trkpt>
      <trkpt lat="33.861509" lon="10.805888"><ele>0</ele></trkpt>
      <trkpt lat="33.861553" lon="10.805919"><ele>0</ele></trkpt>
      <trkpt lat="33.861611" lon="10.806035"><ele>0</ele></trkpt>
      <trkpt lat="33.861638" lon="10.806111"><ele>0</ele></trkpt>
      <trkpt lat="33.861661" lon="10.80614"><ele>0</ele></trkpt>
      <trkpt lat="33.861764" lon="10.806147"><ele>0</ele></trkpt>
      <trkpt lat="33.861986" lon="10.80612"><ele>0</ele></trkpt>
      <trkpt lat="33.86214" lon="10.806092"><ele>0</ele></trkpt>
      <trkpt lat="33.862144" lon="10.806223"><ele>0</ele></trkpt>
      <trkpt lat="33.862161" lon="10.80638"><ele>0</ele></trkpt>
      <trkpt lat="33.862244" lon="10.806913"><ele>0</ele></trkpt>
      <trkpt lat="33.862289" lon="10.807124"><ele>0</ele></trkpt>
      <trkpt lat="33.861967" lon="10.807116"><ele>0</ele></trkpt>
      <trkpt lat="33.861707" lon="10.807093"><ele>0</ele></trkpt>
      <trkpt lat="33.861668" lon="10.8071"><ele>0</ele></trkpt>
      <trkpt lat="33.861641" lon="10.807124"><ele>0</ele></trkpt>
      <trkpt lat="33.861511" lon="10.807415"><ele>0</ele></trkpt>
      <trkpt lat="33.861474" lon="10.807473"><ele>0</ele></trkpt>
      <trkpt lat="33.861433" lon="10.807505"><ele>0</ele></trkpt>
      <trkpt lat="33.861406" lon="10.807516"><ele>0</ele></trkpt>
      <trkpt lat="33.86131" lon="10.807528"><ele>0</ele></trkpt>
      <trkpt lat="33.861263" lon="10.807569"><ele>0</ele></trkpt>
      <trkpt lat="33.861085" lon="10.807862"><ele>0</ele></trkpt>
      <trkpt lat="33.860917" lon="10.808174"><ele>0</ele></trkpt>
      <trkpt lat="33.860893" lon="10.808204"><ele>0</ele></trkpt>
      <trkpt lat="33.86087" lon="10.808213"><ele>0</ele></trkpt>
      <trkpt lat="33.86085" lon="10.808213"><ele>0</ele></trkpt>
      <trkpt lat="33.860719" lon="10.808154"><ele>0</ele></trkpt>
      <trkpt lat="33.860643" lon="10.808111"><ele>0</ele></trkpt>
      <trkpt lat="33.860487" lon="10.807998"><ele>0</ele></trkpt>
      <trkpt lat="33.860414" lon="10.807977"><ele>0</ele></trkpt>
      <trkpt lat="33.860352" lon="10.807981"><ele>0</ele></trkpt>
      <trkpt lat="33.860226" lon="10.808007"><ele>0</ele></trkpt>
      <trkpt lat="33.860186" lon="10.807992"><ele>0</ele></trkpt>
      <trkpt lat="33.860131" lon="10.807933"><ele>0</ele></trkpt>
      <trkpt lat="33.860041" lon="10.807872"><ele>0</ele></trkpt>
      <trkpt lat="33.859996" lon="10.80782"><ele>0</ele></trkpt>
      <trkpt lat="33.859962" lon="10.807797"><ele>0</ele></trkpt>
      <trkpt lat="33.859915" lon="10.807787"><ele>0</ele></trkpt>
      <trkpt lat="33.859711" lon="10.807865"><ele>0</ele></trkpt>
      <trkpt lat="33.859635" lon="10.807885"><ele>0</ele></trkpt>
      <trkpt lat="33.85955" lon="10.807944"><ele>0</ele></trkpt>
      <trkpt lat="33.859125" lon="10.808518"><ele>0</ele></trkpt>
      <trkpt lat="33.85902" lon="10.808651"><ele>0</ele></trkpt>
      <trkpt lat="33.858926" lon="10.808755"><ele>0</ele></trkpt>
      <trkpt lat="33.859064" lon="10.809125"><ele>0</ele></trkpt>
      <trkpt lat="33.859101" lon="10.809276"><ele>0</ele></trkpt>
      <trkpt lat="33.859202" lon="10.809774"><ele>0</ele></trkpt>
      <trkpt lat="33.859354" lon="10.810246"><ele>0</ele></trkpt>
      <trkpt lat="33.859486" lon="10.810717"><ele>0</ele></trkpt>
      <trkpt lat="33.859262" lon="10.810794"><ele>0</ele></trkpt>
      <trkpt lat="33.859134" lon="10.810867"><ele>0</ele></trkpt>
      <trkpt lat="33.858781" lon="10.811096"><ele>0</ele></trkpt>
      <trkpt lat="33.858341" lon="10.811396"><ele>0</ele></trkpt>
      <trkpt lat="33.858395" lon="10.811588"><ele>0</ele></trkpt>
      <trkpt lat="33.858437" lon="10.811713"><ele>0</ele></trkpt>
      <trkpt lat="33.858505" lon="10.81187"><ele>0</ele></trkpt>
      <trkpt lat="33.858522" lon="10.811949"><ele>0</ele></trkpt>
      <trkpt lat="33.858524" lon="10.812059"><ele>0</ele></trkpt>
      <trkpt lat="33.858535" lon="10.812134"><ele>0</ele></trkpt>
      <trkpt lat="33.858567" lon="10.812237"><ele>0</ele></trkpt>
      <trkpt lat="33.858645" lon="10.81238"><ele>0</ele></trkpt>
      <trkpt lat="33.858733" lon="10.812481"><ele>0</ele></trkpt>
      <trkpt lat="33.858769" lon="10.812543"><ele>0</ele></trkpt>
      <trkpt lat="33.858834" lon="10.812686"><ele>0</ele></trkpt>
      <trkpt lat="33.858981" lon="10.813189"><ele>0</ele></trkpt>
      <trkpt lat="33.859095" lon="10.813428"><ele>0</ele></trkpt>
      <trkpt lat="33.859253" lon="10.813725"><ele>0</ele></trkpt>
      <trkpt lat="33.859419" lon="10.814099"><ele>0</ele></trkpt>
      <trkpt lat="33.859496" lon="10.814233"><ele>0</ele></trkpt>
      <trkpt lat="33.859643" lon="10.81445"><ele>0</ele></trkpt>
      <trkpt lat="33.859943" lon="10.814866"><ele>0</ele></trkpt>
      <trkpt lat="33.860004" lon="10.814963"><ele>0</ele></trkpt>
      <trkpt lat="33.860099" lon="10.815127"><ele>0</ele></trkpt>
      <trkpt lat="33.860214" lon="10.815365"><ele>0</ele></trkpt>
      <trkpt lat="33.860422" lon="10.815768"><ele>0</ele></trkpt>
      <trkpt lat="33.860454" lon="10.81584"><ele>0</ele></trkpt>
      <trkpt lat="33.860617" lon="10.816322"><ele>0</ele></trkpt>
      <trkpt lat="33.860793" lon="10.816817"><ele>0</ele></trkpt>
      <trkpt lat="33.860879" lon="10.817081"><ele>0</ele></trkpt>
      <trkpt lat="33.860986" lon="10.817304"><ele>0</ele></trkpt>
      <trkpt lat="33.861114" lon="10.817518"><ele>0</ele></trkpt>
      <trkpt lat="33.861173" lon="10.817647"><ele>0</ele></trkpt>
      <trkpt lat="33.861355" lon="10.818095"><ele>0</ele></trkpt>
      <trkpt lat="33.861394" lon="10.818205"><ele>0</ele></trkpt>
      <trkpt lat="33.861657" lon="10.819082"><ele>0</ele></trkpt>
      <trkpt lat="33.861777" lon="10.819459"><ele>0</ele></trkpt>
      <trkpt lat="33.861849" lon="10.819701"><ele>0</ele></trkpt>
      <trkpt lat="33.861975" lon="10.820015"><ele>0</ele></trkpt>
      <trkpt lat="33.862116" lon="10.820305"><ele>0</ele></trkpt>
      <trkpt lat="33.861825" lon="10.821078"><ele>0</ele></trkpt>
      <trkpt lat="33.862116" lon="10.820305"><ele>0</ele></trkpt>
      <trkpt lat="33.862201" lon="10.820456"><ele>0</ele></trkpt>
      <trkpt lat="33.862496" lon="10.821025"><ele>0</ele></trkpt>
      <trkpt lat="33.862586" lon="10.821227"><ele>0</ele></trkpt>
      <trkpt lat="33.862614" lon="10.821287"><ele>0</ele></trkpt>
      <trkpt lat="33.862654" lon="10.821313"><ele>0</ele></trkpt>
      <trkpt lat="33.862691" lon="10.821323"><ele>0</ele></trkpt>
      <trkpt lat="33.862753" lon="10.821323"><ele>0</ele></trkpt>
      <trkpt lat="33.862861" lon="10.821251"><ele>0</ele></trkpt>
      <trkpt lat="33.863014" lon="10.821203"><ele>0</ele></trkpt>
      <trkpt lat="33.863064" lon="10.821758"><ele>0</ele></trkpt>
      <trkpt lat="33.863352" lon="10.821787"><ele>0</ele></trkpt>
      <trkpt lat="33.863504" lon="10.821764"><ele>0</ele></trkpt>
      <trkpt lat="33.863755" lon="10.821668"><ele>0</ele></trkpt>
      <trkpt lat="33.863958" lon="10.8216"><ele>0</ele></trkpt>
      <trkpt lat="33.864346" lon="10.821692"><ele>0</ele></trkpt>
      <trkpt lat="33.864722" lon="10.821793"><ele>0</ele></trkpt>
      <trkpt lat="33.864808" lon="10.821801"><ele>0</ele></trkpt>
      <trkpt lat="33.86536" lon="10.821773"><ele>0</ele></trkpt>
      <trkpt lat="33.865979" lon="10.821767"><ele>0</ele></trkpt>
      <trkpt lat="33.866006" lon="10.822303"><ele>0</ele></trkpt>
      <trkpt lat="33.865962" lon="10.823185"><ele>0</ele></trkpt>
      <trkpt lat="33.865946" lon="10.823394"><ele>0</ele></trkpt>
      <trkpt lat="33.865904" lon="10.823695"><ele>0</ele></trkpt>
      <trkpt lat="33.865833" lon="10.823908"><ele>0</ele></trkpt>
      <trkpt lat="33.865831" lon="10.823952"><ele>0</ele></trkpt>
      <trkpt lat="33.865841" lon="10.824164"><ele>0</ele></trkpt>
      <trkpt lat="33.865931" lon="10.824631"><ele>0</ele></trkpt>
      <trkpt lat="33.865995" lon="10.825037"><ele>0</ele></trkpt>
      <trkpt lat="33.865996" lon="10.825123"><ele>0</ele></trkpt>
      <trkpt lat="33.86613" lon="10.82515"><ele>0</ele></trkpt>
      <trkpt lat="33.866175" lon="10.82519"><ele>0</ele></trkpt>
      <trkpt lat="33.866211" lon="10.825399"><ele>0</ele></trkpt>
      <trkpt lat="33.866212" lon="10.825482"><ele>0</ele></trkpt>
      <trkpt lat="33.866232" lon="10.825598"><ele>0</ele></trkpt>
      <trkpt lat="33.866275" lon="10.825661"><ele>0</ele></trkpt>
      <trkpt lat="33.866297" lon="10.825713"><ele>0</ele></trkpt>
      <trkpt lat="33.866312" lon="10.825773"><ele>0</ele></trkpt>
      <trkpt lat="33.866319" lon="10.82584"><ele>0</ele></trkpt>
      <trkpt lat="33.866327" lon="10.826127"><ele>0</ele></trkpt>
      <trkpt lat="33.866347" lon="10.826363"><ele>0</ele></trkpt>
      <trkpt lat="33.866374" lon="10.826573"><ele>0</ele></trkpt>
      <trkpt lat="33.866381" lon="10.826682"><ele>0</ele></trkpt>
      <trkpt lat="33.866403" lon="10.826739"><ele>0</ele></trkpt>
      <trkpt lat="33.866442" lon="10.826751"><ele>0</ele></trkpt>
      <trkpt lat="33.866501" lon="10.826737"><ele>0</ele></trkpt>
      <trkpt lat="33.866605" lon="10.826691"><ele>0</ele></trkpt>
      <trkpt lat="33.866681" lon="10.826674"><ele>0</ele></trkpt>
      <trkpt lat="33.866731" lon="10.826679"><ele>0</ele></trkpt>
      <trkpt lat="33.866771" lon="10.826699"><ele>0</ele></trkpt>
      <trkpt lat="33.867033" lon="10.827019"><ele>0</ele></trkpt>
      <trkpt lat="33.867358" lon="10.827553"><ele>0</ele></trkpt>
      <trkpt lat="33.867426" lon="10.827691"><ele>0</ele></trkpt>
      <trkpt lat="33.868177" lon="10.8284"><ele>0</ele></trkpt>
      <trkpt lat="33.868262" lon="10.828516"><ele>0</ele></trkpt>
      <trkpt lat="33.868531" lon="10.829149"><ele>0</ele></trkpt>
      <trkpt lat="33.868682" lon="10.82947"><ele>0</ele></trkpt>
      <trkpt lat="33.868759" lon="10.829659"><ele>0</ele></trkpt>
      <trkpt lat="33.86879" lon="10.829804"><ele>0</ele></trkpt>
      <trkpt lat="33.868822" lon="10.830025"><ele>0</ele></trkpt>
      <trkpt lat="33.868838" lon="10.830232"><ele>0</ele></trkpt>
      <trkpt lat="33.868851" lon="10.830457"><ele>0</ele></trkpt>
      <trkpt lat="33.868837" lon="10.830714"><ele>0</ele></trkpt>
      <trkpt lat="33.868834" lon="10.830901"><ele>0</ele></trkpt>
      <trkpt lat="33.868859" lon="10.831087"><ele>0</ele></trkpt>
      <trkpt lat="33.868897" lon="10.831232"><ele>0</ele></trkpt>
      <trkpt lat="33.868957" lon="10.831424"><ele>0</ele></trkpt>
      <trkpt lat="33.869114" lon="10.831861"><ele>0</ele></trkpt>
      <trkpt lat="33.869214" lon="10.832202"><ele>0</ele></trkpt>
      <trkpt lat="33.869321" lon="10.832703"><ele>0</ele></trkpt>
      <trkpt lat="33.869353" lon="10.83284"><ele>0</ele></trkpt>
      <trkpt lat="33.86945" lon="10.833139"><ele>0</ele></trkpt>
      <trkpt lat="33.869507" lon="10.833452"><ele>0</ele></trkpt>
      <trkpt lat="33.869504" lon="10.833838"><ele>0</ele></trkpt>
      <trkpt lat="33.86948" lon="10.834137"><ele>0</ele></trkpt>
      <trkpt lat="33.869485" lon="10.834408"><ele>0</ele></trkpt>
      <trkpt lat="33.86952" lon="10.834771"><ele>0</ele></trkpt>
      <trkpt lat="33.869523" lon="10.835162"><ele>0</ele></trkpt>
      <trkpt lat="33.869554" lon="10.835591"><ele>0</ele></trkpt>
      <trkpt lat="33.869557" lon="10.83575"><ele>0</ele></trkpt>
      <trkpt lat="33.869623" lon="10.836327"><ele>0</ele></trkpt>
      <trkpt lat="33.869676" lon="10.836701"><ele>0</ele></trkpt>
      <trkpt lat="33.869648" lon="10.836906"><ele>0</ele></trkpt>
      <trkpt lat="33.869585" lon="10.837103"><ele>0</ele></trkpt>
      <trkpt lat="33.869532" lon="10.837317"><ele>0</ele></trkpt>
      <trkpt lat="33.869498" lon="10.837519"><ele>0</ele></trkpt>
      <trkpt lat="33.869494" lon="10.837681"><ele>0</ele></trkpt>
      <trkpt lat="33.869503" lon="10.837767"><ele>0</ele></trkpt>
      <trkpt lat="33.86933" lon="10.837876"><ele>0</ele></trkpt>
      <trkpt lat="33.86906" lon="10.838"><ele>0</ele></trkpt>
      <trkpt lat="33.869073" lon="10.83808"><ele>0</ele></trkpt>
      <trkpt lat="33.869067" lon="10.838206"><ele>0</ele></trkpt>
      <trkpt lat="33.869004" lon="10.838675"><ele>0</ele></trkpt>
      <trkpt lat="33.868977" lon="10.83899"><ele>0</ele></trkpt>
      <trkpt lat="33.868987" lon="10.839141"><ele>0</ele></trkpt>
      <trkpt lat="33.869003" lon="10.839255"><ele>0</ele></trkpt>
      <trkpt lat="33.869006" lon="10.839407"><ele>0</ele></trkpt>
      <trkpt lat="33.869018" lon="10.839535"><ele>0</ele></trkpt>
      <trkpt lat="33.869044" lon="10.839672"><ele>0</ele></trkpt>
      <trkpt lat="33.869111" lon="10.83988"><ele>0</ele></trkpt>
      <trkpt lat="33.869209" lon="10.840121"><ele>0</ele></trkpt>
      <trkpt lat="33.869232" lon="10.840236"><ele>0</ele></trkpt>
      <trkpt lat="33.869253" lon="10.840407"><ele>0</ele></trkpt>
      <trkpt lat="33.86927" lon="10.840714"><ele>0</ele></trkpt>
      <trkpt lat="33.869278" lon="10.840906"><ele>0</ele></trkpt>
      <trkpt lat="33.869273" lon="10.841058"><ele>0</ele></trkpt>
      <trkpt lat="33.869264" lon="10.841172"><ele>0</ele></trkpt>
      <trkpt lat="33.869235" lon="10.841339"><ele>0</ele></trkpt>
      <trkpt lat="33.86935" lon="10.841399"><ele>0</ele></trkpt>
      <trkpt lat="33.869406" lon="10.841414"><ele>0</ele></trkpt>
      <trkpt lat="33.869464" lon="10.841414"><ele>0</ele></trkpt>
      <trkpt lat="33.869553" lon="10.841402"><ele>0</ele></trkpt>
      <trkpt lat="33.869843" lon="10.841316"><ele>0</ele></trkpt>
      <trkpt lat="33.870251" lon="10.841207"><ele>0</ele></trkpt>
      <trkpt lat="33.870381" lon="10.841904"><ele>0</ele></trkpt>
      <trkpt lat="33.870394" lon="10.841985"><ele>0</ele></trkpt>
      <trkpt lat="33.870444" lon="10.842098"><ele>0</ele></trkpt>
      <trkpt lat="33.870487" lon="10.842166"><ele>0</ele></trkpt>
      <trkpt lat="33.870609" lon="10.842301"><ele>0</ele></trkpt>
      <trkpt lat="33.870812" lon="10.842641"><ele>0</ele></trkpt>
      <trkpt lat="33.870926" lon="10.842876"><ele>0</ele></trkpt>
      <trkpt lat="33.870975" lon="10.842992"><ele>0</ele></trkpt>
      <trkpt lat="33.871027" lon="10.843059"><ele>0</ele></trkpt>
      <trkpt lat="33.871049" lon="10.843071"><ele>0</ele></trkpt>
      <trkpt lat="33.871039" lon="10.843146"><ele>0</ele></trkpt>
      <trkpt lat="33.87105" lon="10.843251"><ele>0</ele></trkpt>
      <trkpt lat="33.871098" lon="10.84349"><ele>0</ele></trkpt>
      <trkpt lat="33.871134" lon="10.843632"><ele>0</ele></trkpt>
      <trkpt lat="33.871161" lon="10.843924"><ele>0</ele></trkpt>
      <trkpt lat="33.871214" lon="10.844109"><ele>0</ele></trkpt>
      <trkpt lat="33.871323" lon="10.844333"><ele>0</ele></trkpt>
      <trkpt lat="33.871477" lon="10.844375"><ele>0</ele></trkpt>
      <trkpt lat="33.871658" lon="10.844376"><ele>0</ele></trkpt>
      <trkpt lat="33.872059" lon="10.844261"><ele>0</ele></trkpt>
      <trkpt lat="33.872427" lon="10.844136"><ele>0</ele></trkpt>
      <trkpt lat="33.872615" lon="10.84408"><ele>0</ele></trkpt>
      <trkpt lat="33.872758" lon="10.844049"><ele>0</ele></trkpt>
      <trkpt lat="33.872874" lon="10.844058"><ele>0</ele></trkpt>
      <trkpt lat="33.873006" lon="10.8441"><ele>0</ele></trkpt>
      <trkpt lat="33.873245" lon="10.844135"><ele>0</ele></trkpt>
      <trkpt lat="33.873433" lon="10.844118"><ele>0</ele></trkpt>
      <trkpt lat="33.873502" lon="10.84425"><ele>0</ele></trkpt>
      <trkpt lat="33.8737" lon="10.844635"><ele>0</ele></trkpt>
      <trkpt lat="33.87327" lon="10.84481"><ele>0</ele></trkpt>
      <trkpt lat="33.872907" lon="10.844932"><ele>0</ele></trkpt>
      <trkpt lat="33.872854" lon="10.844964"><ele>0</ele></trkpt>
      <trkpt lat="33.872812" lon="10.845016"><ele>0</ele></trkpt>
      <trkpt lat="33.872786" lon="10.845065"><ele>0</ele></trkpt>
      <trkpt lat="33.872757" lon="10.845151"><ele>0</ele></trkpt>
      <trkpt lat="33.872682" lon="10.845331"><ele>0</ele></trkpt>
      <trkpt lat="33.872637" lon="10.845503"><ele>0</ele></trkpt>
      <trkpt lat="33.872644" lon="10.845697"><ele>0</ele></trkpt>
      <trkpt lat="33.872673" lon="10.845984"><ele>0</ele></trkpt>
      <trkpt lat="33.872694" lon="10.846106"><ele>0</ele></trkpt>
      <trkpt lat="33.872726" lon="10.84622"><ele>0</ele></trkpt>
      <trkpt lat="33.87278" lon="10.846377"><ele>0</ele></trkpt>
      <trkpt lat="33.872839" lon="10.846594"><ele>0</ele></trkpt>
      <trkpt lat="33.872902" lon="10.846765"><ele>0</ele></trkpt>
      <trkpt lat="33.873058" lon="10.84715"><ele>0</ele></trkpt>
      <trkpt lat="33.873219" lon="10.847696"><ele>0</ele></trkpt>
      <trkpt lat="33.87338" lon="10.847671"><ele>0</ele></trkpt>
      <trkpt lat="33.873523" lon="10.847659"><ele>0</ele></trkpt>
      <trkpt lat="33.873647" lon="10.847674"><ele>0</ele></trkpt>
      <trkpt lat="33.873718" lon="10.847695"><ele>0</ele></trkpt>
      <trkpt lat="33.873787" lon="10.847726"><ele>0</ele></trkpt>
      <trkpt lat="33.873856" lon="10.847745"><ele>0</ele></trkpt>
      <trkpt lat="33.87394" lon="10.847737"><ele>0</ele></trkpt>
      <trkpt lat="33.873982" lon="10.847725"><ele>0</ele></trkpt>
      <trkpt lat="33.874226" lon="10.847583"><ele>0</ele></trkpt>
      <trkpt lat="33.874628" lon="10.847331"><ele>0</ele></trkpt>
      <trkpt lat="33.874762" lon="10.847298"><ele>0</ele></trkpt>
      <trkpt lat="33.874793" lon="10.847291"><ele>0</ele></trkpt>
      <trkpt lat="33.875147" lon="10.847217"><ele>0</ele></trkpt>
      <trkpt lat="33.875353" lon="10.847671"><ele>0</ele></trkpt>
      <trkpt lat="33.875402" lon="10.847824"><ele>0</ele></trkpt>
      <trkpt lat="33.875489" lon="10.847794"><ele>0</ele></trkpt>
      <trkpt lat="33.875541" lon="10.847788"><ele>0</ele></trkpt>
      <trkpt lat="33.87557" lon="10.847798"><ele>0</ele></trkpt>
      <trkpt lat="33.87595" lon="10.848243"><ele>0</ele></trkpt>
      <trkpt lat="33.876021" lon="10.8484"><ele>0</ele></trkpt>
      <trkpt lat="33.876075" lon="10.848539"><ele>0</ele></trkpt>
      <trkpt lat="33.876001" lon="10.848551"><ele>0</ele></trkpt>
      <trkpt lat="33.875815" lon="10.848565"><ele>0</ele></trkpt></trkseg></trk></gpx>