<?xml version="1.0" encoding="UTF-8"?><gpx version="1.1" creator="Heripia 3.7.384" xmlns="http://www.topografix.com/GPX/1/1" xmlns:xsi="http://www.w3.org/2001/XMLSchema-instance" xsi:schemaLocation="http://www.topografix.com/GPX/1/1 http://www.topografix.com/GPX/1/1/gpx.xsd">
    <metadata>
        <name>Circuit de Mausolée Cheikh Yahia El Izmartni à Café Restaurant Santorini</name>
        <desc>Circuit généré par Heripia — heripia.com</desc>
        <link href="https://heripia.com/">
            <text>Heripia [HW-ID:HW-01M2A3J9W4NHCB5ZBVZ17T9K4Z]</text>
        </link>
    </metadata>
    <wpt lat="33.855691" lon="10.946077">
      <name>Mausolée Cheikh Yahia El Izmartni</name>
      <desc></desc>
    </wpt>
    <wpt lat="33.857842" lon="10.938527">
      <name>Mosquée El Haj Amor</name>
      <desc></desc>
    </wpt>
    <wpt lat="33.85825" lon="10.932361">
      <name>Mosquée Tlakine</name>
      <desc></desc>
    </wpt>
    <wpt lat="33.866639" lon="10.939611">
      <name>Mosquée Ami Omar</name>
      <desc></desc>
    </wpt>
    <wpt lat="33.867929" lon="10.963728">
      <name>Mosquée Sidi Mehrez</name>
      <desc></desc>
    </wpt>
    <wpt lat="33.8671005396419" lon="10.967812836170197">
      <name>Café Restaurant Santorini</name>
      <desc></desc>
    </wpt><trk><name>Circuit de Mausolée Cheikh Yahia El Izmartni à Café Restaurant Santorini</name><desc><![CDATA[

Circuit généré par Heripia — heripia.com]]></desc><trkseg><trkpt lat="33.855535" lon="10.946064"><ele>0</ele></trkpt>
      <trkpt lat="33.855521" lon="10.945948"><ele>0</ele></trkpt>
      <trkpt lat="33.855526" lon="10.945896"><ele>0</ele></trkpt>
      <trkpt lat="33.855565" lon="10.945795"><ele>0</ele></trkpt>
      <trkpt lat="33.855569" lon="10.945743"><ele>0</ele></trkpt>
      <trkpt lat="33.855605" lon="10.94565"><ele>0</ele></trkpt>
      <trkpt lat="33.855621" lon="10.945587"><ele>0</ele></trkpt>
      <trkpt lat="33.855783" lon="10.945646"><ele>0</ele></trkpt>
      <trkpt lat="33.855893" lon="10.945638"><ele>0</ele></trkpt>
      <trkpt lat="33.85599" lon="10.945628"><ele>0</ele></trkpt>
      <trkpt lat="33.856516" lon="10.945591"><ele>0</ele></trkpt>
      <trkpt lat="33.856681" lon="10.945567"><ele>0</ele></trkpt>
      <trkpt lat="33.856771" lon="10.945543"><ele>0</ele></trkpt>
      <trkpt lat="33.856847" lon="10.945387"><ele>0</ele></trkpt>
      <trkpt lat="33.856881" lon="10.945282"><ele>0</ele></trkpt>
      <trkpt lat="33.856906" lon="10.945164"><ele>0</ele></trkpt>
      <trkpt lat="33.857007" lon="10.944677"><ele>0</ele></trkpt>
      <trkpt lat="33.857117" lon="10.944326"><ele>0</ele></trkpt>
      <trkpt lat="33.857237" lon="10.943992"><ele>0</ele></trkpt>
      <trkpt lat="33.857438" lon="10.943288"><ele>0</ele></trkpt>
      <trkpt lat="33.857722" lon="10.942591"><ele>0</ele></trkpt>
      <trkpt lat="33.857701" lon="10.942453"><ele>0</ele></trkpt>
      <trkpt lat="33.857687" lon="10.942308"><ele>0</ele></trkpt>
      <trkpt lat="33.857691" lon="10.942163"><ele>0</ele></trkpt>
      <trkpt lat="33.857713" lon="10.942034"><ele>0</ele></trkpt>
      <trkpt lat="33.857772" lon="10.941842"><ele>0</ele></trkpt>
      <trkpt lat="33.857796" lon="10.941738"><ele>0</ele></trkpt>
      <trkpt lat="33.857805" lon="10.941634"><ele>0</ele></trkpt>
      <trkpt lat="33.857783" lon="10.94128"><ele>0</ele></trkpt>
      <trkpt lat="33.857796" lon="10.941168"><ele>0</ele></trkpt>
      <trkpt lat="33.857827" lon="10.941028"><ele>0</ele></trkpt>
      <trkpt lat="33.857861" lon="10.940923"><ele>0</ele></trkpt>
      <trkpt lat="33.857899" lon="10.940782"><ele>0</ele></trkpt>
      <trkpt lat="33.857916" lon="10.940683"><ele>0</ele></trkpt>
      <trkpt lat="33.857923" lon="10.940642"><ele>0</ele></trkpt>
      <trkpt lat="33.857928" lon="10.940489"><ele>0</ele></trkpt>
      <trkpt lat="33.857906" lon="10.940209"><ele>0</ele></trkpt>
      <trkpt lat="33.857898" lon="10.939916"><ele>0</ele></trkpt>
      <trkpt lat="33.85791" lon="10.939639"><ele>0</ele></trkpt>
      <trkpt lat="33.857981" lon="10.939037"><ele>0</ele></trkpt>
      <trkpt lat="33.857997" lon="10.938883"><ele>0</ele></trkpt>
      <trkpt lat="33.858" lon="10.938774"><ele>0</ele></trkpt>
      <trkpt lat="33.857994" lon="10.938677"><ele>0</ele></trkpt>
      <trkpt lat="33.857981" lon="10.938588"><ele>0</ele></trkpt>
      <trkpt lat="33.857967" lon="10.938525"><ele>0</ele></trkpt>
      <trkpt lat="33.857936" lon="10.938444"><ele>0</ele></trkpt>
      <trkpt lat="33.857916" lon="10.938404"><ele>0</ele></trkpt>
      <trkpt lat="33.857838" lon="10.938284"><ele>0</ele></trkpt>
      <trkpt lat="33.857769" lon="10.938173"><ele>0</ele></trkpt>
      <trkpt lat="33.857697" lon="10.938028"><ele>0</ele></trkpt>
      <trkpt lat="33.857654" lon="10.937902"><ele>0</ele></trkpt>
      <trkpt lat="33.85762" lon="10.937748"><ele>0</ele></trkpt>
      <trkpt lat="33.857589" lon="10.937502"><ele>0</ele></trkpt>
      <trkpt lat="33.857591" lon="10.937382"><ele>0</ele></trkpt>
      <trkpt lat="33.85758" lon="10.93696"><ele>0</ele></trkpt>
      <trkpt lat="33.857585" lon="10.936752"><ele>0</ele></trkpt>
      <trkpt lat="33.857591" lon="10.936649"><ele>0</ele></trkpt>
      <trkpt lat="33.857647" lon="10.93643"><ele>0</ele></trkpt>
      <trkpt lat="33.8578" lon="10.93599"><ele>0</ele></trkpt>
      <trkpt lat="33.857827" lon="10.935898"><ele>0</ele></trkpt>
      <trkpt lat="33.857866" lon="10.935697"><ele>0</ele></trkpt>
      <trkpt lat="33.857889" lon="10.935507"><ele>0</ele></trkpt>
      <trkpt lat="33.857912" lon="10.935152"><ele>0</ele></trkpt>
      <trkpt lat="33.857939" lon="10.934838"><ele>0</ele></trkpt>
      <trkpt lat="33.858012" lon="10.934119"><ele>0</ele></trkpt>
      <trkpt lat="33.858121" lon="10.933229"><ele>0</ele></trkpt>
      <trkpt lat="33.858139" lon="10.933104"><ele>0</ele></trkpt>
      <trkpt lat="33.858159" lon="10.932999"><ele>0</ele></trkpt>
      <trkpt lat="33.85817" lon="10.932967"><ele>0</ele></trkpt>
      <trkpt lat="33.858242" lon="10.932767"><ele>0</ele></trkpt>
      <trkpt lat="33.858315" lon="10.932658"><ele>0</ele></trkpt>
      <trkpt lat="33.858369" lon="10.932561"><ele>0</ele></trkpt>
      <trkpt lat="33.858402" lon="10.932471"><ele>0</ele></trkpt>
      <trkpt lat="33.85844" lon="10.93237"><ele>0</ele></trkpt>
      <trkpt lat="33.858573" lon="10.932399"><ele>0</ele></trkpt>
      <trkpt lat="33.85879" lon="10.932412"><ele>0</ele></trkpt>
      <trkpt lat="33.85894" lon="10.932438"><ele>0</ele></trkpt>
      <trkpt lat="33.858983" lon="10.932438"><ele>0</ele></trkpt>
      <trkpt lat="33.859185" lon="10.932456"><ele>0</ele></trkpt>
      <trkpt lat="33.859223" lon="10.93248"><ele>0</ele></trkpt>
      <trkpt lat="33.859246" lon="10.9325"><ele>0</ele></trkpt>
      <trkpt lat="33.859402" lon="10.932612"><ele>0</ele></trkpt>
      <trkpt lat="33.859632" lon="10.932767"><ele>0</ele></trkpt>
      <trkpt lat="33.859848" lon="10.932933"><ele>0</ele></trkpt>
      <trkpt lat="33.860094" lon="10.933103"><ele>0</ele></trkpt>
      <trkpt lat="33.860527" lon="10.933359"><ele>0</ele></trkpt>
      <trkpt lat="33.860798" lon="10.933476"><ele>0</ele></trkpt>
      <trkpt lat="33.860845" lon="10.9338"><ele>0</ele></trkpt>
      <trkpt lat="33.860743" lon="10.93417"><ele>0</ele></trkpt>
      <trkpt lat="33.860678" lon="10.934492"><ele>0</ele></trkpt>
      <trkpt lat="33.860632" lon="10.934914"><ele>0</ele></trkpt>
      <trkpt lat="33.860633" lon="10.935075"><ele>0</ele></trkpt>
      <trkpt lat="33.860653" lon="10.935212"><ele>0</ele></trkpt>
      <trkpt lat="33.860695" lon="10.935385"><ele>0</ele></trkpt>
      <trkpt lat="33.860709" lon="10.935577"><ele>0</ele></trkpt>
      <trkpt lat="33.860742" lon="10.936175"><ele>0</ele></trkpt>
      <trkpt lat="33.860747" lon="10.936525"><ele>0</ele></trkpt>
      <trkpt lat="33.86077" lon="10.936796"><ele>0</ele></trkpt>
      <trkpt lat="33.860795" lon="10.936953"><ele>0</ele></trkpt>
      <trkpt lat="33.860926" lon="10.937352"><ele>0</ele></trkpt>
      <trkpt lat="33.860971" lon="10.937488"><ele>0</ele></trkpt>
      <trkpt lat="33.861109" lon="10.937946"><ele>0</ele></trkpt>
      <trkpt lat="33.861221" lon="10.937928"><ele>0</ele></trkpt>
      <trkpt lat="33.861543" lon="10.938225"><ele>0</ele></trkpt>
      <trkpt lat="33.861722" lon="10.938419"><ele>0</ele></trkpt>
      <trkpt lat="33.86176" lon="10.938499"><ele>0</ele></trkpt>
      <trkpt lat="33.861778" lon="10.938574"><ele>0</ele></trkpt>
      <trkpt lat="33.861814" lon="10.938891"><ele>0</ele></trkpt>
      <trkpt lat="33.861855" lon="10.939001"><ele>0</ele></trkpt>
      <trkpt lat="33.861965" lon="10.939348"><ele>0</ele></trkpt>
      <trkpt lat="33.862055" lon="10.939653"><ele>0</ele></trkpt>
      <trkpt lat="33.862146" lon="10.939634"><ele>0</ele></trkpt>
      <trkpt lat="33.862211" lon="10.939612"><ele>0</ele></trkpt>
      <trkpt lat="33.862405" lon="10.939513"><ele>0</ele></trkpt>
      <trkpt lat="33.862513" lon="10.939467"><ele>0</ele></trkpt>
      <trkpt lat="33.862647" lon="10.939434"><ele>0</ele></trkpt>
      <trkpt lat="33.862868" lon="10.939393"><ele>0</ele></trkpt>
      <trkpt lat="33.863028" lon="10.939378"><ele>0</ele></trkpt>
      <trkpt lat="33.863243" lon="10.939378"><ele>0</ele></trkpt>
      <trkpt lat="33.863498" lon="10.939347"><ele>0</ele></trkpt>
      <trkpt lat="33.863782" lon="10.939269"><ele>0</ele></trkpt>
      <trkpt lat="33.864468" lon="10.939451"><ele>0</ele></trkpt>
      <trkpt lat="33.864683" lon="10.939478"><ele>0</ele></trkpt>
      <trkpt lat="33.864984" lon="10.939493"><ele>0</ele></trkpt>
      <trkpt lat="33.8655" lon="10.939478"><ele>0</ele></trkpt>
      <trkpt lat="33.865601" lon="10.939482"><ele>0</ele></trkpt>
      <trkpt lat="33.865834" lon="10.939522"><ele>0</ele></trkpt>
      <trkpt lat="33.865983" lon="10.939529"><ele>0</ele></trkpt>
      <trkpt lat="33.866046" lon="10.939525"><ele>0</ele></trkpt>
      <trkpt lat="33.866415" lon="10.939452"><ele>0</ele></trkpt>
      <trkpt lat="33.866502" lon="10.939761"><ele>0</ele></trkpt>
      <trkpt lat="33.866415" lon="10.939452"><ele>0</ele></trkpt>
      <trkpt lat="33.866046" lon="10.939525"><ele>0</ele></trkpt>
      <trkpt lat="33.865983" lon="10.939529"><ele>0</ele></trkpt>
      <trkpt lat="33.865834" lon="10.939522"><ele>0</ele></trkpt>
      <trkpt lat="33.865601" lon="10.939482"><ele>0</ele></trkpt>
      <trkpt lat="33.8655" lon="10.939478"><ele>0</ele></trkpt>
      <trkpt lat="33.865502" lon="10.940211"><ele>0</ele></trkpt>
      <trkpt lat="33.865486" lon="10.940363"><ele>0</ele></trkpt>
      <trkpt lat="33.865304" lon="10.941362"><ele>0</ele></trkpt>
      <trkpt lat="33.865249" lon="10.941664"><ele>0</ele></trkpt>
      <trkpt lat="33.865193" lon="10.941851"><ele>0</ele></trkpt>
      <trkpt lat="33.865128" lon="10.941989"><ele>0</ele></trkpt>
      <trkpt lat="33.86498" lon="10.942178"><ele>0</ele></trkpt>
      <trkpt lat="33.86496" lon="10.942238"><ele>0</ele></trkpt>
      <trkpt lat="33.864936" lon="10.942363"><ele>0</ele></trkpt>
      <trkpt lat="33.864908" lon="10.942549"><ele>0</ele></trkpt>
      <trkpt lat="33.864893" lon="10.942754"><ele>0</ele></trkpt>
      <trkpt lat="33.864885" lon="10.942881"><ele>0</ele></trkpt>
      <trkpt lat="33.864895" lon="10.943396"><ele>0</ele></trkpt>
      <trkpt lat="33.864888" lon="10.943557"><ele>0</ele></trkpt>
      <trkpt lat="33.864861" lon="10.943821"><ele>0</ele></trkpt>
      <trkpt lat="33.864833" lon="10.943984"><ele>0</ele></trkpt>
      <trkpt lat="33.864804" lon="10.944103"><ele>0</ele></trkpt>
      <trkpt lat="33.864672" lon="10.944516"><ele>0</ele></trkpt>
      <trkpt lat="33.864541" lon="10.945102"><ele>0</ele></trkpt>
      <trkpt lat="33.864488" lon="10.945355"><ele>0</ele></trkpt>
      <trkpt lat="33.864407" lon="10.945902"><ele>0</ele></trkpt>
      <trkpt lat="33.864377" lon="10.946054"><ele>0</ele></trkpt>
      <trkpt lat="33.864349" lon="10.946097"><ele>0</ele></trkpt>
      <trkpt lat="33.864306" lon="10.946119"><ele>0</ele></trkpt>
      <trkpt lat="33.863899" lon="10.946229"><ele>0</ele></trkpt>
      <trkpt lat="33.863774" lon="10.946273"><ele>0</ele></trkpt>
      <trkpt lat="33.86365" lon="10.946326"><ele>0</ele></trkpt>
      <trkpt lat="33.863508" lon="10.946402"><ele>0</ele></trkpt>
      <trkpt lat="33.863338" lon="10.946526"><ele>0</ele></trkpt>
      <trkpt lat="33.863285" lon="10.946594"><ele>0</ele></trkpt>
      <trkpt lat="33.863222" lon="10.946699"><ele>0</ele></trkpt>
      <trkpt lat="33.863167" lon="10.946776"><ele>0</ele></trkpt>
      <trkpt lat="33.86309" lon="10.946857"><ele>0</ele></trkpt>
      <trkpt lat="33.863022" lon="10.946907"><ele>0</ele></trkpt>
      <trkpt lat="33.862913" lon="10.946972"><ele>0</ele></trkpt>
      <trkpt lat="33.862759" lon="10.947045"><ele>0</ele></trkpt>
      <trkpt lat="33.862569" lon="10.947164"><ele>0</ele></trkpt>
      <trkpt lat="33.862441" lon="10.94725"><ele>0</ele></trkpt>
      <trkpt lat="33.862293" lon="10.947368"><ele>0</ele></trkpt>
      <trkpt lat="33.862236" lon="10.947438"><ele>0</ele></trkpt>
      <trkpt lat="33.862189" lon="10.947508"><ele>0</ele></trkpt>
      <trkpt lat="33.862135" lon="10.947671"><ele>0</ele></trkpt>
      <trkpt lat="33.861706" lon="10.947859"><ele>0</ele></trkpt>
      <trkpt lat="33.861423" lon="10.947973"><ele>0</ele></trkpt>
      <trkpt lat="33.861309" lon="10.947998"><ele>0</ele></trkpt>
      <trkpt lat="33.861369" lon="10.948091"><ele>0</ele></trkpt>
      <trkpt lat="33.861422" lon="10.948159"><ele>0</ele></trkpt>
      <trkpt lat="33.861556" lon="10.948238"><ele>0</ele></trkpt>
      <trkpt lat="33.861719" lon="10.948372"><ele>0</ele></trkpt>
      <trkpt lat="33.861986" lon="10.948632"><ele>0</ele></trkpt>
      <trkpt lat="33.862081" lon="10.948712"><ele>0</ele></trkpt>
      <trkpt lat="33.862389" lon="10.94889"><ele>0</ele></trkpt>
      <trkpt lat="33.862448" lon="10.94894"><ele>0</ele></trkpt>
      <trkpt lat="33.862615" lon="10.949139"><ele>0</ele></trkpt>
      <trkpt lat="33.862843" lon="10.949356"><ele>0</ele></trkpt>
      <trkpt lat="33.862876" lon="10.949407"><ele>0</ele></trkpt>
      <trkpt lat="33.862901" lon="10.949461"><ele>0</ele></trkpt>
      <trkpt lat="33.862915" lon="10.949529"><ele>0</ele></trkpt>
      <trkpt lat="33.862928" lon="10.949869"><ele>0</ele></trkpt>
      <trkpt lat="33.863109" lon="10.949876"><ele>0</ele></trkpt>
      <trkpt lat="33.863291" lon="10.949874"><ele>0</ele></trkpt>
      <trkpt lat="33.86364" lon="10.949817"><ele>0</ele></trkpt>
      <trkpt lat="33.863658" lon="10.950131"><ele>0</ele></trkpt>
      <trkpt lat="33.863683" lon="10.950287"><ele>0</ele></trkpt>
      <trkpt lat="33.863697" lon="10.950336"><ele>0</ele></trkpt>
      <trkpt lat="33.863717" lon="10.950373"><ele>0</ele></trkpt>
      <trkpt lat="33.863747" lon="10.950388"><ele>0</ele></trkpt>
      <trkpt lat="33.863777" lon="10.950389"><ele>0</ele></trkpt>
      <trkpt lat="33.864011" lon="10.950317"><ele>0</ele></trkpt>
      <trkpt lat="33.864089" lon="10.950305"><ele>0</ele></trkpt>
      <trkpt lat="33.864108" lon="10.950333"><ele>0</ele></trkpt>
      <trkpt lat="33.864154" lon="10.950499"><ele>0</ele></trkpt>
      <trkpt lat="33.864187" lon="10.950504"><ele>0</ele></trkpt>
      <trkpt lat="33.864453" lon="10.950478"><ele>0</ele></trkpt>
      <trkpt lat="33.864483" lon="10.950484"><ele>0</ele></trkpt>
      <trkpt lat="33.864512" lon="10.9505"><ele>0</ele></trkpt>
      <trkpt lat="33.864529" lon="10.950544"><ele>0</ele></trkpt>
      <trkpt lat="33.864586" lon="10.950896"><ele>0</ele></trkpt>
      <trkpt lat="33.864626" lon="10.951038"><ele>0</ele></trkpt>
      <trkpt lat="33.864652" lon="10.951099"><ele>0</ele></trkpt>
      <trkpt lat="33.864908" lon="10.951597"><ele>0</ele></trkpt>
      <trkpt lat="33.864912" lon="10.951638"><ele>0</ele></trkpt>
      <trkpt lat="33.864905" lon="10.951917"><ele>0</ele></trkpt>
      <trkpt lat="33.864917" lon="10.952009"><ele>0</ele></trkpt>
      <trkpt lat="33.864991" lon="10.952293"><ele>0</ele></trkpt>
      <trkpt lat="33.865091" lon="10.9525"><ele>0</ele></trkpt>
      <trkpt lat="33.865263" lon="10.952723"><ele>0</ele></trkpt>
      <trkpt lat="33.86541" lon="10.953259"><ele>0</ele></trkpt>
      <trkpt lat="33.865512" lon="10.953549"><ele>0</ele></trkpt>
      <trkpt lat="33.865588" lon="10.953916"><ele>0</ele></trkpt>
      <trkpt lat="33.865633" lon="10.953985"><ele>0</ele></trkpt>
      <trkpt lat="33.865856" lon="10.954994"><ele>0</ele></trkpt>
      <trkpt lat="33.865972" lon="10.9556"><ele>0</ele></trkpt>
      <trkpt lat="33.866112" lon="10.956455"><ele>0</ele></trkpt>
      <trkpt lat="33.866252" lon="10.957145"><ele>0</ele></trkpt>
      <trkpt lat="33.866346" lon="10.957928"><ele>0</ele></trkpt>
      <trkpt lat="33.866349" lon="10.958611"><ele>0</ele></trkpt>
      <trkpt lat="33.866447" lon="10.958596"><ele>0</ele></trkpt>
      <trkpt lat="33.866551" lon="10.958599"><ele>0</ele></trkpt>
      <trkpt lat="33.866653" lon="10.958629"><ele>0</ele></trkpt>
      <trkpt lat="33.866771" lon="10.958675"><ele>0</ele></trkpt>
      <trkpt lat="33.867373" lon="10.958748"><ele>0</ele></trkpt>
      <trkpt lat="33.867613" lon="10.958781"><ele>0</ele></trkpt>
      <trkpt lat="33.867724" lon="10.958777"><ele>0</ele></trkpt>
      <trkpt lat="33.8678" lon="10.958885"><ele>0</ele></trkpt>
      <trkpt lat="33.867676" lon="10.959037"><ele>0</ele></trkpt>
      <trkpt lat="33.867499" lon="10.959233"><ele>0</ele></trkpt>
      <trkpt lat="33.867338" lon="10.959398"><ele>0</ele></trkpt>
      <trkpt lat="33.867227" lon="10.959475"><ele>0</ele></trkpt>
      <trkpt lat="33.867261" lon="10.959474"><ele>0</ele></trkpt>
      <trkpt lat="33.867294" lon="10.959485"><ele>0</ele></trkpt>
      <trkpt lat="33.867322" lon="10.959509"><ele>0</ele></trkpt>
      <trkpt lat="33.867343" lon="10.959541"><ele>0</ele></trkpt>
      <trkpt lat="33.867354" lon="10.95958"><ele>0</ele></trkpt>
      <trkpt lat="33.867354" lon="10.959621"><ele>0</ele></trkpt>
      <trkpt lat="33.867488" lon="10.959888"><ele>0</ele></trkpt>
      <trkpt lat="33.867758" lon="10.960211"><ele>0</ele></trkpt>
      <trkpt lat="33.867974" lon="10.960464"><ele>0</ele></trkpt>
      <trkpt lat="33.86811" lon="10.960623"><ele>0</ele></trkpt>
      <trkpt lat="33.868468" lon="10.960966"><ele>0</ele></trkpt>
      <trkpt lat="33.86851" lon="10.961052"><ele>0</ele></trkpt>
      <trkpt lat="33.868526" lon="10.961182"><ele>0</ele></trkpt>
      <trkpt lat="33.868585" lon="10.96225"><ele>0</ele></trkpt>
      <trkpt lat="33.868593" lon="10.96259"><ele>0</ele></trkpt>
      <trkpt lat="33.868608" lon="10.963271"><ele>0</ele></trkpt>
      <trkpt lat="33.868606" lon="10.963469"><ele>0</ele></trkpt>
      <trkpt lat="33.868584" lon="10.963666"><ele>0</ele></trkpt>
      <trkpt lat="33.86853" lon="10.963672"><ele>0</ele></trkpt>
      <trkpt lat="33.868512" lon="10.963674"><ele>0</ele></trkpt>
      <trkpt lat="33.868406" lon="10.963695"><ele>0</ele></trkpt>
      <trkpt lat="33.868207" lon="10.963791"><ele>0</ele></trkpt>
      <trkpt lat="33.868051" lon="10.963877"><ele>0</ele></trkpt>
      <trkpt lat="33.867972" lon="10.963921"><ele>0</ele></trkpt>
      <trkpt lat="33.868051" lon="10.963877"><ele>0</ele></trkpt>
      <trkpt lat="33.868122" lon="10.963978"><ele>0</ele></trkpt>
      <trkpt lat="33.868185" lon="10.964034"><ele>0</ele></trkpt>
      <trkpt lat="33.868434" lon="10.964126"><ele>0</ele></trkpt>
      <trkpt lat="33.868465" lon="10.964136"><ele>0</ele></trkpt>
      <trkpt lat="33.868346" lon="10.96463"><ele>0</ele></trkpt>
      <trkpt lat="33.868287" lon="10.964832"><ele>0</ele></trkpt>
      <trkpt lat="33.867994" lon="10.965774"><ele>0</ele></trkpt>
      <trkpt lat="33.867969" lon="10.965855"><ele>0</ele></trkpt>
      <trkpt lat="33.867517" lon="10.967229"><ele>0</ele></trkpt>
      <trkpt lat="33.867484" lon="10.967308"><ele>0</ele></trkpt>
      <trkpt lat="33.86729" lon="10.967609"><ele>0</ele></trkpt>
      <trkpt lat="33.867212" lon="10.967711"><ele>0</ele></trkpt>
      <trkpt lat="33.867096" lon="10.967805"><ele>0</ele></trkpt></trkseg></trk></gpx>