<?xml version="1.0" encoding="UTF-8"?><gpx version="1.1" creator="Heripia 3.7.416" xmlns="http://www.topografix.com/GPX/1/1" xmlns:xsi="http://www.w3.org/2001/XMLSchema-instance" xsi:schemaLocation="http://www.topografix.com/GPX/1/1 http://www.topografix.com/GPX/1/1/gpx.xsd">
    <metadata>
        <name>Circuit de Mosquée Abdessalam à Mosquée Al Hidaya (Nakhla)</name>
        <desc>Circuit généré par Heripia — heripia.com</desc>
        <link href="https://heripia.com/">
            <text>Heripia [HW-ID:HW-01M3MKTVA1A2FHVF6MVBSFCNZN]</text>
        </link>
    </metadata>
    <wpt lat="33.800583" lon="10.900861">
      <name>Mosquée Abdessalam</name>
      <desc></desc>
    </wpt>
    <wpt lat="33.7996137" lon="10.9036928">
      <name>Mausolée Touririn</name>
      <desc></desc>
    </wpt>
    <wpt lat="33.7995531" lon="10.9047781">
      <name>Mausolée Fakira Salima</name>
      <desc></desc>
    </wpt>
    <wpt lat="33.79916714833331" lon="10.914542646022236">
      <name>Mosquée El Djafline</name>
      <desc></desc>
    </wpt>
    <wpt lat="33.8107" lon="10.92292">
      <name>Mosquée Louta Sedghiane</name>
      <desc></desc>
    </wpt>
    <wpt lat="33.814167" lon="10.923306">
      <name>Mosquée Saïd Ben Salah</name>
      <desc></desc>
    </wpt>
    <wpt lat="33.81395" lon="10.915338">
      <name>Mosquée Hallem</name>
      <desc></desc>
    </wpt>
    <wpt lat="33.82360955754788" lon="10.914051608478248">
      <name>Mosquée Al Hidaya (Nakhla)</name>
      <desc></desc>
    </wpt><trk><name>Circuit de Mosquée Abdessalam à Mosquée Al Hidaya (Nakhla)</name><desc><![CDATA[Circuit généré par Heripia — heripia.com]]></desc><trkseg><trkpt lat="33.800876" lon="10.901088"><ele>0</ele></trkpt>
      <trkpt lat="33.801125" lon="10.901621"><ele>0</ele></trkpt>
      <trkpt lat="33.801227" lon="10.901892"><ele>0</ele></trkpt>
      <trkpt lat="33.80136" lon="10.90218"><ele>0</ele></trkpt>
      <trkpt lat="33.801423" lon="10.902339"><ele>0</ele></trkpt>
      <trkpt lat="33.801465" lon="10.902501"><ele>0</ele></trkpt>
      <trkpt lat="33.801494" lon="10.902653"><ele>0</ele></trkpt>
      <trkpt lat="33.801604" lon="10.902954"><ele>0</ele></trkpt>
      <trkpt lat="33.801548" lon="10.903006"><ele>0</ele></trkpt>
      <trkpt lat="33.801471" lon="10.903046"><ele>0</ele></trkpt>
      <trkpt lat="33.801291" lon="10.903081"><ele>0</ele></trkpt>
      <trkpt lat="33.801159" lon="10.903088"><ele>0</ele></trkpt>
      <trkpt lat="33.801087" lon="10.903102"><ele>0</ele></trkpt>
      <trkpt lat="33.800933" lon="10.903146"><ele>0</ele></trkpt>
      <trkpt lat="33.800727" lon="10.903221"><ele>0</ele></trkpt>
      <trkpt lat="33.800622" lon="10.903249"><ele>0</ele></trkpt>
      <trkpt lat="33.800559" lon="10.903265"><ele>0</ele></trkpt>
      <trkpt lat="33.800516" lon="10.903276"><ele>0</ele></trkpt>
      <trkpt lat="33.800422" lon="10.903324"><ele>0</ele></trkpt>
      <trkpt lat="33.800297" lon="10.903303"><ele>0</ele></trkpt>
      <trkpt lat="33.800253" lon="10.903308"><ele>0</ele></trkpt>
      <trkpt lat="33.80021" lon="10.903333"><ele>0</ele></trkpt>
      <trkpt lat="33.800141" lon="10.903392"><ele>0</ele></trkpt>
      <trkpt lat="33.80003" lon="10.90345"><ele>0</ele></trkpt>
      <trkpt lat="33.799996" lon="10.903454"><ele>0</ele></trkpt>
      <trkpt lat="33.799798" lon="10.903425"><ele>0</ele></trkpt>
      <trkpt lat="33.799762" lon="10.903431"><ele>0</ele></trkpt>
      <trkpt lat="33.799728" lon="10.903446"><ele>0</ele></trkpt>
      <trkpt lat="33.799705" lon="10.903467"><ele>0</ele></trkpt>
      <trkpt lat="33.799697" lon="10.903499"><ele>0</ele></trkpt>
      <trkpt lat="33.79969" lon="10.903696"><ele>0</ele></trkpt>
      <trkpt lat="33.799688" lon="10.903787"><ele>0</ele></trkpt>
      <trkpt lat="33.799651" lon="10.903919"><ele>0</ele></trkpt>
      <trkpt lat="33.79961" lon="10.904258"><ele>0</ele></trkpt>
      <trkpt lat="33.799565" lon="10.904462"><ele>0</ele></trkpt>
      <trkpt lat="33.799479" lon="10.904577"><ele>0</ele></trkpt>
      <trkpt lat="33.799182" lon="10.904907"><ele>0</ele></trkpt>
      <trkpt lat="33.799125" lon="10.904987"><ele>0</ele></trkpt>
      <trkpt lat="33.799" lon="10.905259"><ele>0</ele></trkpt>
      <trkpt lat="33.798905" lon="10.905467"><ele>0</ele></trkpt>
      <trkpt lat="33.798804" lon="10.905715"><ele>0</ele></trkpt>
      <trkpt lat="33.798794" lon="10.90577"><ele>0</ele></trkpt>
      <trkpt lat="33.798794" lon="10.90589"><ele>0</ele></trkpt>
      <trkpt lat="33.798811" lon="10.905978"><ele>0</ele></trkpt>
      <trkpt lat="33.798829" lon="10.906129"><ele>0</ele></trkpt>
      <trkpt lat="33.798858" lon="10.906161"><ele>0</ele></trkpt>
      <trkpt lat="33.798878" lon="10.906205"><ele>0</ele></trkpt>
      <trkpt lat="33.798969" lon="10.906575"><ele>0</ele></trkpt>
      <trkpt lat="33.799031" lon="10.906819"><ele>0</ele></trkpt>
      <trkpt lat="33.79906" lon="10.906887"><ele>0</ele></trkpt>
      <trkpt lat="33.799194" lon="10.907012"><ele>0</ele></trkpt>
      <trkpt lat="33.79924" lon="10.907085"><ele>0</ele></trkpt>
      <trkpt lat="33.799426" lon="10.907454"><ele>0</ele></trkpt>
      <trkpt lat="33.799634" lon="10.907833"><ele>0</ele></trkpt>
      <trkpt lat="33.799641" lon="10.907903"><ele>0</ele></trkpt>
      <trkpt lat="33.799399" lon="10.90813"><ele>0</ele></trkpt>
      <trkpt lat="33.799299" lon="10.908218"><ele>0</ele></trkpt>
      <trkpt lat="33.798835" lon="10.908565"><ele>0</ele></trkpt>
      <trkpt lat="33.798808" lon="10.908576"><ele>0</ele></trkpt>
      <trkpt lat="33.798787" lon="10.908568"><ele>0</ele></trkpt>
      <trkpt lat="33.798763" lon="10.908612"><ele>0</ele></trkpt>
      <trkpt lat="33.79875" lon="10.908657"><ele>0</ele></trkpt>
      <trkpt lat="33.798745" lon="10.908688"><ele>0</ele></trkpt>
      <trkpt lat="33.798754" lon="10.908759"><ele>0</ele></trkpt>
      <trkpt lat="33.798868" lon="10.909196"><ele>0</ele></trkpt>
      <trkpt lat="33.798898" lon="10.909304"><ele>0</ele></trkpt>
      <trkpt lat="33.79897" lon="10.909546"><ele>0</ele></trkpt>
      <trkpt lat="33.798979" lon="10.909622"><ele>0</ele></trkpt>
      <trkpt lat="33.798967" lon="10.909912"><ele>0</ele></trkpt>
      <trkpt lat="33.798993" lon="10.910166"><ele>0</ele></trkpt>
      <trkpt lat="33.799026" lon="10.910413"><ele>0</ele></trkpt>
      <trkpt lat="33.799076" lon="10.910664"><ele>0</ele></trkpt>
      <trkpt lat="33.799099" lon="10.910735"><ele>0</ele></trkpt>
      <trkpt lat="33.799211" lon="10.910996"><ele>0</ele></trkpt>
      <trkpt lat="33.799218" lon="10.911049"><ele>0</ele></trkpt>
      <trkpt lat="33.799214" lon="10.91109"><ele>0</ele></trkpt>
      <trkpt lat="33.799197" lon="10.911133"><ele>0</ele></trkpt>
      <trkpt lat="33.79905" lon="10.91138"><ele>0</ele></trkpt>
      <trkpt lat="33.799045" lon="10.911415"><ele>0</ele></trkpt>
      <trkpt lat="33.799052" lon="10.911454"><ele>0</ele></trkpt>
      <trkpt lat="33.799073" lon="10.91153"><ele>0</ele></trkpt>
      <trkpt lat="33.799127" lon="10.911649"><ele>0</ele></trkpt>
      <trkpt lat="33.79915" lon="10.911664"><ele>0</ele></trkpt>
      <trkpt lat="33.799174" lon="10.911664"><ele>0</ele></trkpt>
      <trkpt lat="33.799266" lon="10.911634"><ele>0</ele></trkpt>
      <trkpt lat="33.799296" lon="10.911633"><ele>0</ele></trkpt>
      <trkpt lat="33.799317" lon="10.911649"><ele>0</ele></trkpt>
      <trkpt lat="33.799352" lon="10.911727"><ele>0</ele></trkpt>
      <trkpt lat="33.799388" lon="10.911803"><ele>0</ele></trkpt>
      <trkpt lat="33.7994" lon="10.911828"><ele>0</ele></trkpt>
      <trkpt lat="33.799425" lon="10.911856"><ele>0</ele></trkpt>
      <trkpt lat="33.799483" lon="10.911906"><ele>0</ele></trkpt>
      <trkpt lat="33.799626" lon="10.911951"><ele>0</ele></trkpt>
      <trkpt lat="33.799652" lon="10.911968"><ele>0</ele></trkpt>
      <trkpt lat="33.799699" lon="10.912023"><ele>0</ele></trkpt>
      <trkpt lat="33.799832" lon="10.912212"><ele>0</ele></trkpt>
      <trkpt lat="33.799666" lon="10.912474"><ele>0</ele></trkpt>
      <trkpt lat="33.799584" lon="10.912627"><ele>0</ele></trkpt>
      <trkpt lat="33.799285" lon="10.913139"><ele>0</ele></trkpt>
      <trkpt lat="33.799208" lon="10.913286"><ele>0</ele></trkpt>
      <trkpt lat="33.799003" lon="10.913711"><ele>0</ele></trkpt>
      <trkpt lat="33.798772" lon="10.914163"><ele>0</ele></trkpt>
      <trkpt lat="33.798841" lon="10.91425"><ele>0</ele></trkpt>
      <trkpt lat="33.798871" lon="10.914303"><ele>0</ele></trkpt>
      <trkpt lat="33.799025" lon="10.914638"><ele>0</ele></trkpt>
      <trkpt lat="33.799169" lon="10.914547"><ele>0</ele></trkpt>
      <trkpt lat="33.799025" lon="10.914638"><ele>0</ele></trkpt>
      <trkpt lat="33.799091" lon="10.914775"><ele>0</ele></trkpt>
      <trkpt lat="33.79916" lon="10.914965"><ele>0</ele></trkpt>
      <trkpt lat="33.799228" lon="10.91513"><ele>0</ele></trkpt>
      <trkpt lat="33.799346" lon="10.915376"><ele>0</ele></trkpt>
      <trkpt lat="33.799418" lon="10.915602"><ele>0</ele></trkpt>
      <trkpt lat="33.799691" lon="10.916147"><ele>0</ele></trkpt>
      <trkpt lat="33.79992" lon="10.916654"><ele>0</ele></trkpt>
      <trkpt lat="33.799961" lon="10.916762"><ele>0</ele></trkpt>
      <trkpt lat="33.799994" lon="10.91691"><ele>0</ele></trkpt>
      <trkpt lat="33.800076" lon="10.917149"><ele>0</ele></trkpt>
      <trkpt lat="33.800135" lon="10.917345"><ele>0</ele></trkpt>
      <trkpt lat="33.800154" lon="10.917391"><ele>0</ele></trkpt>
      <trkpt lat="33.800295" lon="10.917669"><ele>0</ele></trkpt>
      <trkpt lat="33.800428" lon="10.917994"><ele>0</ele></trkpt>
      <trkpt lat="33.800453" lon="10.918041"><ele>0</ele></trkpt>
      <trkpt lat="33.800478" lon="10.918072"><ele>0</ele></trkpt>
      <trkpt lat="33.800633" lon="10.91822"><ele>0</ele></trkpt>
      <trkpt lat="33.800682" lon="10.918285"><ele>0</ele></trkpt>
      <trkpt lat="33.800748" lon="10.918391"><ele>0</ele></trkpt>
      <trkpt lat="33.800788" lon="10.918487"><ele>0</ele></trkpt>
      <trkpt lat="33.800801" lon="10.918524"><ele>0</ele></trkpt>
      <trkpt lat="33.8008" lon="10.918557"><ele>0</ele></trkpt>
      <trkpt lat="33.800791" lon="10.918594"><ele>0</ele></trkpt>
      <trkpt lat="33.80076" lon="10.918641"><ele>0</ele></trkpt>
      <trkpt lat="33.800709" lon="10.9187"><ele>0</ele></trkpt>
      <trkpt lat="33.800581" lon="10.918823"><ele>0</ele></trkpt>
      <trkpt lat="33.800553" lon="10.918868"><ele>0</ele></trkpt>
      <trkpt lat="33.800549" lon="10.918947"><ele>0</ele></trkpt>
      <trkpt lat="33.800555" lon="10.919007"><ele>0</ele></trkpt>
      <trkpt lat="33.800574" lon="10.91906"><ele>0</ele></trkpt>
      <trkpt lat="33.80066" lon="10.919213"><ele>0</ele></trkpt>
      <trkpt lat="33.800677" lon="10.919263"><ele>0</ele></trkpt>
      <trkpt lat="33.800693" lon="10.919511"><ele>0</ele></trkpt>
      <trkpt lat="33.800756" lon="10.91981"><ele>0</ele></trkpt>
      <trkpt lat="33.800811" lon="10.920217"><ele>0</ele></trkpt>
      <trkpt lat="33.80082" lon="10.920322"><ele>0</ele></trkpt>
      <trkpt lat="33.800738" lon="10.920424"><ele>0</ele></trkpt>
      <trkpt lat="33.800683" lon="10.920482"><ele>0</ele></trkpt>
      <trkpt lat="33.800601" lon="10.920613"><ele>0</ele></trkpt>
      <trkpt lat="33.800575" lon="10.920675"><ele>0</ele></trkpt>
      <trkpt lat="33.800538" lon="10.920714"><ele>0</ele></trkpt>
      <trkpt lat="33.800408" lon="10.920762"><ele>0</ele></trkpt>
      <trkpt lat="33.800359" lon="10.920799"><ele>0</ele></trkpt>
      <trkpt lat="33.800188" lon="10.920959"><ele>0</ele></trkpt>
      <trkpt lat="33.800178" lon="10.920992"><ele>0</ele></trkpt>
      <trkpt lat="33.80019" lon="10.921046"><ele>0</ele></trkpt>
      <trkpt lat="33.800439" lon="10.921387"><ele>0</ele></trkpt>
      <trkpt lat="33.800554" lon="10.921562"><ele>0</ele></trkpt>
      <trkpt lat="33.800624" lon="10.921568"><ele>0</ele></trkpt>
      <trkpt lat="33.800656" lon="10.921583"><ele>0</ele></trkpt>
      <trkpt lat="33.800695" lon="10.921622"><ele>0</ele></trkpt>
      <trkpt lat="33.800739" lon="10.92172"><ele>0</ele></trkpt>
      <trkpt lat="33.800824" lon="10.921982"><ele>0</ele></trkpt>
      <trkpt lat="33.801061" lon="10.92254"><ele>0</ele></trkpt>
      <trkpt lat="33.80125" lon="10.923001"><ele>0</ele></trkpt>
      <trkpt lat="33.801305" lon="10.923072"><ele>0</ele></trkpt>
      <trkpt lat="33.801332" lon="10.923086"><ele>0</ele></trkpt>
      <trkpt lat="33.801369" lon="10.92309"><ele>0</ele></trkpt>
      <trkpt lat="33.801493" lon="10.923068"><ele>0</ele></trkpt>
      <trkpt lat="33.801553" lon="10.922927"><ele>0</ele></trkpt>
      <trkpt lat="33.801592" lon="10.922856"><ele>0</ele></trkpt>
      <trkpt lat="33.801623" lon="10.922811"><ele>0</ele></trkpt>
      <trkpt lat="33.801662" lon="10.922798"><ele>0</ele></trkpt>
      <trkpt lat="33.801704" lon="10.922798"><ele>0</ele></trkpt>
      <trkpt lat="33.801931" lon="10.922851"><ele>0</ele></trkpt>
      <trkpt lat="33.802254" lon="10.922895"><ele>0</ele></trkpt>
      <trkpt lat="33.80238" lon="10.922944"><ele>0</ele></trkpt>
      <trkpt lat="33.802548" lon="10.923059"><ele>0</ele></trkpt>
      <trkpt lat="33.802526" lon="10.923112"><ele>0</ele></trkpt>
      <trkpt lat="33.802484" lon="10.923256"><ele>0</ele></trkpt>
      <trkpt lat="33.802549" lon="10.923263"><ele>0</ele></trkpt>
      <trkpt lat="33.802697" lon="10.923157"><ele>0</ele></trkpt>
      <trkpt lat="33.802769" lon="10.923119"><ele>0</ele></trkpt>
      <trkpt lat="33.803097" lon="10.922989"><ele>0</ele></trkpt>
      <trkpt lat="33.803625" lon="10.922618"><ele>0</ele></trkpt>
      <trkpt lat="33.803729" lon="10.922554"><ele>0</ele></trkpt>
      <trkpt lat="33.803914" lon="10.92249"><ele>0</ele></trkpt>
      <trkpt lat="33.803975" lon="10.922763"><ele>0</ele></trkpt>
      <trkpt lat="33.803977" lon="10.922886"><ele>0</ele></trkpt>
      <trkpt lat="33.803989" lon="10.922964"><ele>0</ele></trkpt>
      <trkpt lat="33.804062" lon="10.923074"><ele>0</ele></trkpt>
      <trkpt lat="33.8041" lon="10.923117"><ele>0</ele></trkpt>
      <trkpt lat="33.804169" lon="10.923363"><ele>0</ele></trkpt>
      <trkpt lat="33.804244" lon="10.923717"><ele>0</ele></trkpt>
      <trkpt lat="33.804247" lon="10.923754"><ele>0</ele></trkpt>
      <trkpt lat="33.804277" lon="10.923813"><ele>0</ele></trkpt>
      <trkpt lat="33.804309" lon="10.923848"><ele>0</ele></trkpt>
      <trkpt lat="33.804553" lon="10.923787"><ele>0</ele></trkpt>
      <trkpt lat="33.804904" lon="10.923714"><ele>0</ele></trkpt>
      <trkpt lat="33.80532" lon="10.923643"><ele>0</ele></trkpt>
      <trkpt lat="33.805444" lon="10.923635"><ele>0</ele></trkpt>
      <trkpt lat="33.805533" lon="10.923655"><ele>0</ele></trkpt>
      <trkpt lat="33.805638" lon="10.923667"><ele>0</ele></trkpt>
      <trkpt lat="33.805713" lon="10.923664"><ele>0</ele></trkpt>
      <trkpt lat="33.805928" lon="10.923581"><ele>0</ele></trkpt>
      <trkpt lat="33.806048" lon="10.923549"><ele>0</ele></trkpt>
      <trkpt lat="33.806204" lon="10.923492"><ele>0</ele></trkpt>
      <trkpt lat="33.806545" lon="10.923418"><ele>0</ele></trkpt>
      <trkpt lat="33.80656" lon="10.923596"><ele>0</ele></trkpt>
      <trkpt lat="33.806558" lon="10.923896"><ele>0</ele></trkpt>
      <trkpt lat="33.806555" lon="10.92404"><ele>0</ele></trkpt>
      <trkpt lat="33.806526" lon="10.924292"><ele>0</ele></trkpt>
      <trkpt lat="33.806531" lon="10.924335"><ele>0</ele></trkpt>
      <trkpt lat="33.806552" lon="10.924377"><ele>0</ele></trkpt>
      <trkpt lat="33.806599" lon="10.924441"><ele>0</ele></trkpt>
      <trkpt lat="33.806906" lon="10.924798"><ele>0</ele></trkpt>
      <trkpt lat="33.807081" lon="10.924994"><ele>0</ele></trkpt>
      <trkpt lat="33.807222" lon="10.925133"><ele>0</ele></trkpt>
      <trkpt lat="33.807326" lon="10.925027"><ele>0</ele></trkpt>
      <trkpt lat="33.807402" lon="10.924898"><ele>0</ele></trkpt>
      <trkpt lat="33.807438" lon="10.924851"><ele>0</ele></trkpt>
      <trkpt lat="33.807509" lon="10.92477"><ele>0</ele></trkpt>
      <trkpt lat="33.807633" lon="10.924653"><ele>0</ele></trkpt>
      <trkpt lat="33.807721" lon="10.924529"><ele>0</ele></trkpt>
      <trkpt lat="33.807759" lon="10.924512"><ele>0</ele></trkpt>
      <trkpt lat="33.807801" lon="10.924512"><ele>0</ele></trkpt>
      <trkpt lat="33.807824" lon="10.924527"><ele>0</ele></trkpt>
      <trkpt lat="33.80801" lon="10.924728"><ele>0</ele></trkpt>
      <trkpt lat="33.808029" lon="10.924756"><ele>0</ele></trkpt>
      <trkpt lat="33.808044" lon="10.9248"><ele>0</ele></trkpt>
      <trkpt lat="33.808049" lon="10.924836"><ele>0</ele></trkpt>
      <trkpt lat="33.808142" lon="10.924978"><ele>0</ele></trkpt>
      <trkpt lat="33.808237" lon="10.925084"><ele>0</ele></trkpt>
      <trkpt lat="33.808266" lon="10.925091"><ele>0</ele></trkpt>
      <trkpt lat="33.808305" lon="10.925084"><ele>0</ele></trkpt>
      <trkpt lat="33.808487" lon="10.92486"><ele>0</ele></trkpt>
      <trkpt lat="33.808728" lon="10.924591"><ele>0</ele></trkpt>
      <trkpt lat="33.808899" lon="10.924426"><ele>0</ele></trkpt>
      <trkpt lat="33.80907" lon="10.924244"><ele>0</ele></trkpt>
      <trkpt lat="33.809093" lon="10.924204"><ele>0</ele></trkpt>
      <trkpt lat="33.80909" lon="10.924158"><ele>0</ele></trkpt>
      <trkpt lat="33.808999" lon="10.923991"><ele>0</ele></trkpt>
      <trkpt lat="33.808985" lon="10.923955"><ele>0</ele></trkpt>
      <trkpt lat="33.808996" lon="10.923914"><ele>0</ele></trkpt>
      <trkpt lat="33.809143" lon="10.923744"><ele>0</ele></trkpt>
      <trkpt lat="33.809214" lon="10.923681"><ele>0</ele></trkpt>
      <trkpt lat="33.809262" lon="10.92365"><ele>0</ele></trkpt>
      <trkpt lat="33.80934" lon="10.923628"><ele>0</ele></trkpt>
      <trkpt lat="33.809392" lon="10.923591"><ele>0</ele></trkpt>
      <trkpt lat="33.809443" lon="10.923549"><ele>0</ele></trkpt>
      <trkpt lat="33.809505" lon="10.923468"><ele>0</ele></trkpt>
      <trkpt lat="33.809577" lon="10.923404"><ele>0</ele></trkpt>
      <trkpt lat="33.809677" lon="10.923346"><ele>0</ele></trkpt>
      <trkpt lat="33.809767" lon="10.923305"><ele>0</ele></trkpt>
      <trkpt lat="33.809857" lon="10.923251"><ele>0</ele></trkpt>
      <trkpt lat="33.809936" lon="10.923187"><ele>0</ele></trkpt>
      <trkpt lat="33.810019" lon="10.923099"><ele>0</ele></trkpt>
      <trkpt lat="33.810116" lon="10.923013"><ele>0</ele></trkpt>
      <trkpt lat="33.810235" lon="10.922933"><ele>0</ele></trkpt>
      <trkpt lat="33.810337" lon="10.922877"><ele>0</ele></trkpt>
      <trkpt lat="33.810437" lon="10.922801"><ele>0</ele></trkpt>
      <trkpt lat="33.810526" lon="10.922723"><ele>0</ele></trkpt>
      <trkpt lat="33.810627" lon="10.922886"><ele>0</ele></trkpt>
      <trkpt lat="33.810526" lon="10.922723"><ele>0</ele></trkpt>
      <trkpt lat="33.810574" lon="10.922677"><ele>0</ele></trkpt>
      <trkpt lat="33.810719" lon="10.922592"><ele>0</ele></trkpt>
      <trkpt lat="33.810794" lon="10.922528"><ele>0</ele></trkpt>
      <trkpt lat="33.810865" lon="10.922443"><ele>0</ele></trkpt>
      <trkpt lat="33.811003" lon="10.922468"><ele>0</ele></trkpt>
      <trkpt lat="33.81103" lon="10.922501"><ele>0</ele></trkpt>
      <trkpt lat="33.811056" lon="10.922547"><ele>0</ele></trkpt>
      <trkpt lat="33.811107" lon="10.922669"><ele>0</ele></trkpt>
      <trkpt lat="33.811149" lon="10.922747"><ele>0</ele></trkpt>
      <trkpt lat="33.811351" lon="10.922955"><ele>0</ele></trkpt>
      <trkpt lat="33.811445" lon="10.923035"><ele>0</ele></trkpt>
      <trkpt lat="33.811524" lon="10.92313"><ele>0</ele></trkpt>
      <trkpt lat="33.81166" lon="10.923343"><ele>0</ele></trkpt>
      <trkpt lat="33.811691" lon="10.923373"><ele>0</ele></trkpt>
      <trkpt lat="33.811758" lon="10.923419"><ele>0</ele></trkpt>
      <trkpt lat="33.811898" lon="10.923452"><ele>0</ele></trkpt>
      <trkpt lat="33.812462" lon="10.923526"><ele>0</ele></trkpt>
      <trkpt lat="33.812645" lon="10.923496"><ele>0</ele></trkpt>
      <trkpt lat="33.812692" lon="10.923489"><ele>0</ele></trkpt>
      <trkpt lat="33.812812" lon="10.9235"><ele>0</ele></trkpt>
      <trkpt lat="33.813109" lon="10.923594"><ele>0</ele></trkpt>
      <trkpt lat="33.81328" lon="10.923672"><ele>0</ele></trkpt>
      <trkpt lat="33.813406" lon="10.923544"><ele>0</ele></trkpt>
      <trkpt lat="33.813678" lon="10.923458"><ele>0</ele></trkpt>
      <trkpt lat="33.813721" lon="10.923468"><ele>0</ele></trkpt>
      <trkpt lat="33.813766" lon="10.9235"><ele>0</ele></trkpt>
      <trkpt lat="33.813937" lon="10.923658"><ele>0</ele></trkpt>
      <trkpt lat="33.813993" lon="10.923688"><ele>0</ele></trkpt>
      <trkpt lat="33.814074" lon="10.923682"><ele>0</ele></trkpt>
      <trkpt lat="33.814243" lon="10.923604"><ele>0</ele></trkpt>
      <trkpt lat="33.814248" lon="10.923476"><ele>0</ele></trkpt>
      <trkpt lat="33.814265" lon="10.92341"><ele>0</ele></trkpt>
      <trkpt lat="33.814248" lon="10.923476"><ele>0</ele></trkpt>
      <trkpt lat="33.814243" lon="10.923604"><ele>0</ele></trkpt>
      <trkpt lat="33.814074" lon="10.923682"><ele>0</ele></trkpt>
      <trkpt lat="33.813993" lon="10.923688"><ele>0</ele></trkpt>
      <trkpt lat="33.813937" lon="10.923658"><ele>0</ele></trkpt>
      <trkpt lat="33.813766" lon="10.9235"><ele>0</ele></trkpt>
      <trkpt lat="33.81374" lon="10.923436"><ele>0</ele></trkpt>
      <trkpt lat="33.813731" lon="10.923358"><ele>0</ele></trkpt>
      <trkpt lat="33.813734" lon="10.923334"><ele>0</ele></trkpt>
      <trkpt lat="33.813712" lon="10.923321"><ele>0</ele></trkpt>
      <trkpt lat="33.813678" lon="10.923199"><ele>0</ele></trkpt>
      <trkpt lat="33.813628" lon="10.922959"><ele>0</ele></trkpt>
      <trkpt lat="33.813606" lon="10.922795"><ele>0</ele></trkpt>
      <trkpt lat="33.8136" lon="10.922706"><ele>0</ele></trkpt>
      <trkpt lat="33.813605" lon="10.922648"><ele>0</ele></trkpt>
      <trkpt lat="33.813605" lon="10.922501"><ele>0</ele></trkpt>
      <trkpt lat="33.813602" lon="10.92237"><ele>0</ele></trkpt>
      <trkpt lat="33.813626" lon="10.921941"><ele>0</ele></trkpt>
      <trkpt lat="33.813628" lon="10.921497"><ele>0</ele></trkpt>
      <trkpt lat="33.813712" lon="10.921189"><ele>0</ele></trkpt>
      <trkpt lat="33.813715" lon="10.921114"><ele>0</ele></trkpt>
      <trkpt lat="33.81369" lon="10.920949"><ele>0</ele></trkpt>
      <trkpt lat="33.813584" lon="10.920596"><ele>0</ele></trkpt>
      <trkpt lat="33.813544" lon="10.920288"><ele>0</ele></trkpt>
      <trkpt lat="33.813496" lon="10.920196"><ele>0</ele></trkpt>
      <trkpt lat="33.813428" lon="10.920101"><ele>0</ele></trkpt>
      <trkpt lat="33.813035" lon="10.91934"><ele>0</ele></trkpt>
      <trkpt lat="33.81295" lon="10.919102"><ele>0</ele></trkpt>
      <trkpt lat="33.812928" lon="10.919005"><ele>0</ele></trkpt>
      <trkpt lat="33.812904" lon="10.918893"><ele>0</ele></trkpt>
      <trkpt lat="33.812819" lon="10.91867"><ele>0</ele></trkpt>
      <trkpt lat="33.81276" lon="10.918463"><ele>0</ele></trkpt>
      <trkpt lat="33.81275" lon="10.918348"><ele>0</ele></trkpt>
      <trkpt lat="33.812758" lon="10.918168"><ele>0</ele></trkpt>
      <trkpt lat="33.812753" lon="10.918085"><ele>0</ele></trkpt>
      <trkpt lat="33.812921" lon="10.917909"><ele>0</ele></trkpt>
      <trkpt lat="33.812993" lon="10.91785"><ele>0</ele></trkpt>
      <trkpt lat="33.813207" lon="10.917757"><ele>0</ele></trkpt>
      <trkpt lat="33.813606" lon="10.917535"><ele>0</ele></trkpt>
      <trkpt lat="33.813716" lon="10.917427"><ele>0</ele></trkpt>
      <trkpt lat="33.813748" lon="10.917369"><ele>0</ele></trkpt>
      <trkpt lat="33.81377" lon="10.917313"><ele>0</ele></trkpt>
      <trkpt lat="33.813769" lon="10.917265"><ele>0</ele></trkpt>
      <trkpt lat="33.813701" lon="10.916986"><ele>0</ele></trkpt>
      <trkpt lat="33.813669" lon="10.916805"><ele>0</ele></trkpt>
      <trkpt lat="33.81367" lon="10.916748"><ele>0</ele></trkpt>
      <trkpt lat="33.813684" lon="10.916644"><ele>0</ele></trkpt>
      <trkpt lat="33.813707" lon="10.916545"><ele>0</ele></trkpt>
      <trkpt lat="33.813714" lon="10.916477"><ele>0</ele></trkpt>
      <trkpt lat="33.813757" lon="10.916351"><ele>0</ele></trkpt>
      <trkpt lat="33.813862" lon="10.916123"><ele>0</ele></trkpt>
      <trkpt lat="33.81388" lon="10.916017"><ele>0</ele></trkpt>
      <trkpt lat="33.813933" lon="10.915936"><ele>0</ele></trkpt>
      <trkpt lat="33.813975" lon="10.915834"><ele>0</ele></trkpt>
      <trkpt lat="33.814037" lon="10.915648"><ele>0</ele></trkpt>
      <trkpt lat="33.814106" lon="10.915466"><ele>0</ele></trkpt>
      <trkpt lat="33.814245" lon="10.915108"><ele>0</ele></trkpt>
      <trkpt lat="33.814277" lon="10.915002"><ele>0</ele></trkpt>
      <trkpt lat="33.814318" lon="10.9147"><ele>0</ele></trkpt>
      <trkpt lat="33.814338" lon="10.914505"><ele>0</ele></trkpt>
      <trkpt lat="33.814365" lon="10.914219"><ele>0</ele></trkpt>
      <trkpt lat="33.814389" lon="10.914124"><ele>0</ele></trkpt>
      <trkpt lat="33.814422" lon="10.91404"><ele>0</ele></trkpt>
      <trkpt lat="33.814726" lon="10.914526"><ele>0</ele></trkpt>
      <trkpt lat="33.814791" lon="10.914609"><ele>0</ele></trkpt>
      <trkpt lat="33.81494" lon="10.914768"><ele>0</ele></trkpt>
      <trkpt lat="33.815081" lon="10.915006"><ele>0</ele></trkpt>
      <trkpt lat="33.815134" lon="10.915113"><ele>0</ele></trkpt>
      <trkpt lat="33.815361" lon="10.915449"><ele>0</ele></trkpt>
      <trkpt lat="33.815452" lon="10.915379"><ele>0</ele></trkpt>
      <trkpt lat="33.815771" lon="10.915096"><ele>0</ele></trkpt>
      <trkpt lat="33.815845" lon="10.915038"><ele>0</ele></trkpt>
      <trkpt lat="33.815895" lon="10.915022"><ele>0</ele></trkpt>
      <trkpt lat="33.81593" lon="10.915023"><ele>0</ele></trkpt>
      <trkpt lat="33.815979" lon="10.915057"><ele>0</ele></trkpt>
      <trkpt lat="33.816115" lon="10.915283"><ele>0</ele></trkpt>
      <trkpt lat="33.816162" lon="10.915388"><ele>0</ele></trkpt>
      <trkpt lat="33.816186" lon="10.915558"><ele>0</ele></trkpt>
      <trkpt lat="33.816202" lon="10.915611"><ele>0</ele></trkpt>
      <trkpt lat="33.816549" lon="10.916236"><ele>0</ele></trkpt>
      <trkpt lat="33.816691" lon="10.916464"><ele>0</ele></trkpt>
      <trkpt lat="33.816739" lon="10.916588"><ele>0</ele></trkpt>
      <trkpt lat="33.816803" lon="10.916703"><ele>0</ele></trkpt>
      <trkpt lat="33.816868" lon="10.916799"><ele>0</ele></trkpt>
      <trkpt lat="33.816901" lon="10.916787"><ele>0</ele></trkpt>
      <trkpt lat="33.816946" lon="10.916759"><ele>0</ele></trkpt>
      <trkpt lat="33.817054" lon="10.916646"><ele>0</ele></trkpt>
      <trkpt lat="33.817223" lon="10.916454"><ele>0</ele></trkpt>
      <trkpt lat="33.817526" lon="10.916118"><ele>0</ele></trkpt>
      <trkpt lat="33.817723" lon="10.915882"><ele>0</ele></trkpt>
      <trkpt lat="33.817942" lon="10.915641"><ele>0</ele></trkpt>
      <trkpt lat="33.818105" lon="10.915506"><ele>0</ele></trkpt>
      <trkpt lat="33.818392" lon="10.915248"><ele>0</ele></trkpt>
      <trkpt lat="33.818563" lon="10.915078"><ele>0</ele></trkpt>
      <trkpt lat="33.81862" lon="10.915003"><ele>0</ele></trkpt>
      <trkpt lat="33.818735" lon="10.914826"><ele>0</ele></trkpt>
      <trkpt lat="33.818803" lon="10.914743"><ele>0</ele></trkpt>
      <trkpt lat="33.818895" lon="10.914591"><ele>0</ele></trkpt>
      <trkpt lat="33.819014" lon="10.914355"><ele>0</ele></trkpt>
      <trkpt lat="33.81915" lon="10.914241"><ele>0</ele></trkpt>
      <trkpt lat="33.81922" lon="10.914191"><ele>0</ele></trkpt>
      <trkpt lat="33.819501" lon="10.913911"><ele>0</ele></trkpt>
      <trkpt lat="33.819661" lon="10.91377"><ele>0</ele></trkpt>
      <trkpt lat="33.819841" lon="10.913653"><ele>0</ele></trkpt>
      <trkpt lat="33.820051" lon="10.913494"><ele>0</ele></trkpt>
      <trkpt lat="33.820099" lon="10.913449"><ele>0</ele></trkpt>
      <trkpt lat="33.820156" lon="10.913372"><ele>0</ele></trkpt>
      <trkpt lat="33.82038" lon="10.913246"><ele>0</ele></trkpt>
      <trkpt lat="33.820427" lon="10.913256"><ele>0</ele></trkpt>
      <trkpt lat="33.82046" lon="10.913277"><ele>0</ele></trkpt>
      <trkpt lat="33.820518" lon="10.913357"><ele>0</ele></trkpt>
      <trkpt lat="33.820547" lon="10.913377"><ele>0</ele></trkpt>
      <trkpt lat="33.820573" lon="10.913383"><ele>0</ele></trkpt>
      <trkpt lat="33.82072" lon="10.913316"><ele>0</ele></trkpt>
      <trkpt lat="33.821294" lon="10.912995"><ele>0</ele></trkpt>
      <trkpt lat="33.82138" lon="10.912958"><ele>0</ele></trkpt>
      <trkpt lat="33.82155" lon="10.91283"><ele>0</ele></trkpt>
      <trkpt lat="33.821602" lon="10.9128"><ele>0</ele></trkpt>
      <trkpt lat="33.821652" lon="10.912792"><ele>0</ele></trkpt>
      <trkpt lat="33.821762" lon="10.912829"><ele>0</ele></trkpt>
      <trkpt lat="33.821817" lon="10.912819"><ele>0</ele></trkpt>
      <trkpt lat="33.822025" lon="10.912736"><ele>0</ele></trkpt>
      <trkpt lat="33.822126" lon="10.91267"><ele>0</ele></trkpt>
      <trkpt lat="33.822197" lon="10.912538"><ele>0</ele></trkpt>
      <trkpt lat="33.82226" lon="10.912481"><ele>0</ele></trkpt>
      <trkpt lat="33.822358" lon="10.912436"><ele>0</ele></trkpt>
      <trkpt lat="33.82247" lon="10.912414"><ele>0</ele></trkpt>
      <trkpt lat="33.822753" lon="10.912298"><ele>0</ele></trkpt>
      <trkpt lat="33.822861" lon="10.912236"><ele>0</ele></trkpt>
      <trkpt lat="33.822976" lon="10.912138"><ele>0</ele></trkpt>
      <trkpt lat="33.823118" lon="10.91204"><ele>0</ele></trkpt>
      <trkpt lat="33.823229" lon="10.912006"><ele>0</ele></trkpt>
      <trkpt lat="33.823352" lon="10.911935"><ele>0</ele></trkpt>
      <trkpt lat="33.823409" lon="10.912236"><ele>0</ele></trkpt>
      <trkpt lat="33.823516" lon="10.912547"><ele>0</ele></trkpt>
      <trkpt lat="33.823701" lon="10.913004"><ele>0</ele></trkpt>
      <trkpt lat="33.823855" lon="10.913418"><ele>0</ele></trkpt>
      <trkpt lat="33.823912" lon="10.913658"><ele>0</ele></trkpt>
      <trkpt lat="33.82394" lon="10.913819"><ele>0</ele></trkpt>
      <trkpt lat="33.823963" lon="10.914003"><ele>0</ele></trkpt></trkseg></trk></gpx>