<?xml version="1.0" encoding="UTF-8"?><gpx version="1.1" creator="Heripia 3.7.404" xmlns="http://www.topografix.com/GPX/1/1" xmlns:xsi="http://www.w3.org/2001/XMLSchema-instance" xsi:schemaLocation="http://www.topografix.com/GPX/1/1 http://www.topografix.com/GPX/1/1/gpx.xsd">
    <metadata>
        <name>Circuit de Trojette - Fours à chaux historiques à Mosquée Ben Aissa</name>
        <desc>Circuit généré par Heripia — heripia.com</desc>
        <link href="https://heripia.com/">
            <text>Heripia [HW-ID:HW-01M2NSAMPXGM9C950KMRVXBK3V]</text>
        </link>
    </metadata>
    <wpt lat="33.8093837" lon="11.0236934">
      <name>Trojette - Fours à chaux historiques</name>
      <desc></desc>
    </wpt>
    <wpt lat="33.809407066170884" lon="11.022803811461296">
      <name>Mosquée Trojette</name>
      <desc></desc>
    </wpt>
    <wpt lat="33.805472" lon="11.013472">
      <name>Mosquée Bouziri</name>
      <desc>Ancienne mosquée malékite, fondée par la communauté ibadite nokkarite</desc>
    </wpt>
    <wpt lat="33.80474" lon="11.01386">
      <name>Mausolée Fkih Kacem El Bouziri</name>
      <desc></desc>
    </wpt>
    <wpt lat="33.802417" lon="11.016861">
      <name>Mosquée Moulay Taïeb</name>
      <desc></desc>
    </wpt>
    <wpt lat="33.802444" lon="11.005528">
      <name>Mosquée Ben Achour</name>
      <desc></desc>
    </wpt>
    <wpt lat="33.807992" lon="10.991508">
      <name>Mosquée Ben Aissa</name>
      <desc></desc>
    </wpt><trk><name>Circuit de Trojette - Fours à chaux historiques à Mosquée Ben Aissa</name><desc><![CDATA[Circuit généré par Heripia — heripia.com]]></desc><trkseg><trkpt lat="33.809143" lon="11.023595"><ele>0</ele></trkpt>
      <trkpt lat="33.809195" lon="11.023322"><ele>0</ele></trkpt>
      <trkpt lat="33.809236" lon="11.023038"><ele>0</ele></trkpt>
      <trkpt lat="33.809254" lon="11.022925"><ele>0</ele></trkpt>
      <trkpt lat="33.809271" lon="11.022465"><ele>0</ele></trkpt>
      <trkpt lat="33.809302" lon="11.022296"><ele>0</ele></trkpt>
      <trkpt lat="33.809326" lon="11.02213"><ele>0</ele></trkpt>
      <trkpt lat="33.809343" lon="11.021943"><ele>0</ele></trkpt>
      <trkpt lat="33.809341" lon="11.021766"><ele>0</ele></trkpt>
      <trkpt lat="33.809318" lon="11.021608"><ele>0</ele></trkpt>
      <trkpt lat="33.809298" lon="11.021547"><ele>0</ele></trkpt>
      <trkpt lat="33.809275" lon="11.021508"><ele>0</ele></trkpt>
      <trkpt lat="33.809079" lon="11.021336"><ele>0</ele></trkpt>
      <trkpt lat="33.809055" lon="11.021238"><ele>0</ele></trkpt>
      <trkpt lat="33.809022" lon="11.020966"><ele>0</ele></trkpt>
      <trkpt lat="33.808976" lon="11.020268"><ele>0</ele></trkpt>
      <trkpt lat="33.808971" lon="11.019994"><ele>0</ele></trkpt>
      <trkpt lat="33.808961" lon="11.019828"><ele>0</ele></trkpt>
      <trkpt lat="33.80896" lon="11.019366"><ele>0</ele></trkpt>
      <trkpt lat="33.808941" lon="11.019196"><ele>0</ele></trkpt>
      <trkpt lat="33.808907" lon="11.019006"><ele>0</ele></trkpt>
      <trkpt lat="33.808819" lon="11.018676"><ele>0</ele></trkpt>
      <trkpt lat="33.808783" lon="11.018567"><ele>0</ele></trkpt>
      <trkpt lat="33.808726" lon="11.018379"><ele>0</ele></trkpt>
      <trkpt lat="33.808621" lon="11.017965"><ele>0</ele></trkpt>
      <trkpt lat="33.808569" lon="11.017821"><ele>0</ele></trkpt>
      <trkpt lat="33.808528" lon="11.017715"><ele>0</ele></trkpt>
      <trkpt lat="33.808493" lon="11.017594"><ele>0</ele></trkpt>
      <trkpt lat="33.808363" lon="11.017406"><ele>0</ele></trkpt>
      <trkpt lat="33.808333" lon="11.017314"><ele>0</ele></trkpt>
      <trkpt lat="33.808306" lon="11.017201"><ele>0</ele></trkpt>
      <trkpt lat="33.808221" lon="11.01671"><ele>0</ele></trkpt>
      <trkpt lat="33.808211" lon="11.016583"><ele>0</ele></trkpt>
      <trkpt lat="33.808193" lon="11.016477"><ele>0</ele></trkpt>
      <trkpt lat="33.808159" lon="11.016369"><ele>0</ele></trkpt>
      <trkpt lat="33.808105" lon="11.016239"><ele>0</ele></trkpt>
      <trkpt lat="33.808004" lon="11.015623"><ele>0</ele></trkpt>
      <trkpt lat="33.807962" lon="11.01539"><ele>0</ele></trkpt>
      <trkpt lat="33.807844" lon="11.014871"><ele>0</ele></trkpt>
      <trkpt lat="33.807737" lon="11.014567"><ele>0</ele></trkpt>
      <trkpt lat="33.80765" lon="11.014264"><ele>0</ele></trkpt>
      <trkpt lat="33.807594" lon="11.01411"><ele>0</ele></trkpt>
      <trkpt lat="33.807584" lon="11.014054"><ele>0</ele></trkpt>
      <trkpt lat="33.807582" lon="11.013929"><ele>0</ele></trkpt>
      <trkpt lat="33.807591" lon="11.013881"><ele>0</ele></trkpt>
      <trkpt lat="33.807597" lon="11.013793"><ele>0</ele></trkpt>
      <trkpt lat="33.807584" lon="11.013735"><ele>0</ele></trkpt>
      <trkpt lat="33.807558" lon="11.013701"><ele>0</ele></trkpt>
      <trkpt lat="33.807514" lon="11.013674"><ele>0</ele></trkpt>
      <trkpt lat="33.807341" lon="11.013615"><ele>0</ele></trkpt>
      <trkpt lat="33.807103" lon="11.013496"><ele>0</ele></trkpt>
      <trkpt lat="33.80673" lon="11.013357"><ele>0</ele></trkpt>
      <trkpt lat="33.806594" lon="11.013293"><ele>0</ele></trkpt>
      <trkpt lat="33.806541" lon="11.013335"><ele>0</ele></trkpt>
      <trkpt lat="33.806429" lon="11.013389"><ele>0</ele></trkpt>
      <trkpt lat="33.806197" lon="11.01352"><ele>0</ele></trkpt>
      <trkpt lat="33.806131" lon="11.013548"><ele>0</ele></trkpt>
      <trkpt lat="33.806042" lon="11.013578"><ele>0</ele></trkpt>
      <trkpt lat="33.805846" lon="11.013617"><ele>0</ele></trkpt>
      <trkpt lat="33.805586" lon="11.013686"><ele>0</ele></trkpt>
      <trkpt lat="33.805442" lon="11.013651"><ele>0</ele></trkpt>
      <trkpt lat="33.80537" lon="11.013652"><ele>0</ele></trkpt>
      <trkpt lat="33.805337" lon="11.013645"><ele>0</ele></trkpt>
      <trkpt lat="33.805318" lon="11.013633"><ele>0</ele></trkpt>
      <trkpt lat="33.80528" lon="11.013578"><ele>0</ele></trkpt>
      <trkpt lat="33.805295" lon="11.013547"><ele>0</ele></trkpt>
      <trkpt lat="33.805326" lon="11.013429"><ele>0</ele></trkpt>
      <trkpt lat="33.805295" lon="11.013547"><ele>0</ele></trkpt>
      <trkpt lat="33.80528" lon="11.013578"><ele>0</ele></trkpt>
      <trkpt lat="33.805209" lon="11.013645"><ele>0</ele></trkpt>
      <trkpt lat="33.805191" lon="11.013678"><ele>0</ele></trkpt>
      <trkpt lat="33.804693" lon="11.013653"><ele>0</ele></trkpt>
      <trkpt lat="33.804678" lon="11.013659"><ele>0</ele></trkpt>
      <trkpt lat="33.804595" lon="11.01378"><ele>0</ele></trkpt>
      <trkpt lat="33.804588" lon="11.013809"><ele>0</ele></trkpt>
      <trkpt lat="33.804594" lon="11.013835"><ele>0</ele></trkpt>
      <trkpt lat="33.804619" lon="11.013867"><ele>0</ele></trkpt>
      <trkpt lat="33.804594" lon="11.013835"><ele>0</ele></trkpt>
      <trkpt lat="33.804588" lon="11.013809"><ele>0</ele></trkpt>
      <trkpt lat="33.804595" lon="11.01378"><ele>0</ele></trkpt>
      <trkpt lat="33.804678" lon="11.013659"><ele>0</ele></trkpt>
      <trkpt lat="33.804693" lon="11.013653"><ele>0</ele></trkpt>
      <trkpt lat="33.805191" lon="11.013678"><ele>0</ele></trkpt>
      <trkpt lat="33.805166" lon="11.013797"><ele>0</ele></trkpt>
      <trkpt lat="33.805154" lon="11.013925"><ele>0</ele></trkpt>
      <trkpt lat="33.805165" lon="11.013957"><ele>0</ele></trkpt>
      <trkpt lat="33.805185" lon="11.013978"><ele>0</ele></trkpt>
      <trkpt lat="33.805232" lon="11.014001"><ele>0</ele></trkpt>
      <trkpt lat="33.805248" lon="11.014027"><ele>0</ele></trkpt>
      <trkpt lat="33.805256" lon="11.014067"><ele>0</ele></trkpt>
      <trkpt lat="33.805308" lon="11.014178"><ele>0</ele></trkpt>
      <trkpt lat="33.805377" lon="11.014712"><ele>0</ele></trkpt>
      <trkpt lat="33.805374" lon="11.0148"><ele>0</ele></trkpt>
      <trkpt lat="33.805246" lon="11.015134"><ele>0</ele></trkpt>
      <trkpt lat="33.805232" lon="11.015214"><ele>0</ele></trkpt>
      <trkpt lat="33.805251" lon="11.015291"><ele>0</ele></trkpt>
      <trkpt lat="33.805248" lon="11.015557"><ele>0</ele></trkpt>
      <trkpt lat="33.805256" lon="11.015604"><ele>0</ele></trkpt>
      <trkpt lat="33.805289" lon="11.015672"><ele>0</ele></trkpt>
      <trkpt lat="33.805304" lon="11.015855"><ele>0</ele></trkpt>
      <trkpt lat="33.805332" lon="11.016021"><ele>0</ele></trkpt>
      <trkpt lat="33.805321" lon="11.016188"><ele>0</ele></trkpt>
      <trkpt lat="33.805289" lon="11.016405"><ele>0</ele></trkpt>
      <trkpt lat="33.80524" lon="11.016639"><ele>0</ele></trkpt>
      <trkpt lat="33.805211" lon="11.016692"><ele>0</ele></trkpt>
      <trkpt lat="33.805115" lon="11.016673"><ele>0</ele></trkpt>
      <trkpt lat="33.804715" lon="11.01667"><ele>0</ele></trkpt>
      <trkpt lat="33.804641" lon="11.016647"><ele>0</ele></trkpt>
      <trkpt lat="33.804417" lon="11.016592"><ele>0</ele></trkpt>
      <trkpt lat="33.804265" lon="11.016567"><ele>0</ele></trkpt>
      <trkpt lat="33.804101" lon="11.016553"><ele>0</ele></trkpt>
      <trkpt lat="33.804" lon="11.016541"><ele>0</ele></trkpt>
      <trkpt lat="33.803732" lon="11.016491"><ele>0</ele></trkpt>
      <trkpt lat="33.803463" lon="11.016454"><ele>0</ele></trkpt>
      <trkpt lat="33.80317" lon="11.016457"><ele>0</ele></trkpt>
      <trkpt lat="33.802969" lon="11.016435"><ele>0</ele></trkpt>
      <trkpt lat="33.802824" lon="11.016389"><ele>0</ele></trkpt>
      <trkpt lat="33.80276" lon="11.016338"><ele>0</ele></trkpt>
      <trkpt lat="33.802661" lon="11.016291"><ele>0</ele></trkpt>
      <trkpt lat="33.802644" lon="11.016379"><ele>0</ele></trkpt>
      <trkpt lat="33.802645" lon="11.016588"><ele>0</ele></trkpt>
      <trkpt lat="33.802652" lon="11.01681"><ele>0</ele></trkpt>
      <trkpt lat="33.802645" lon="11.016588"><ele>0</ele></trkpt>
      <trkpt lat="33.802644" lon="11.016379"><ele>0</ele></trkpt>
      <trkpt lat="33.802661" lon="11.016291"><ele>0</ele></trkpt>
      <trkpt lat="33.802615" lon="11.016271"><ele>0</ele></trkpt>
      <trkpt lat="33.802322" lon="11.016258"><ele>0</ele></trkpt>
      <trkpt lat="33.802304" lon="11.016253"><ele>0</ele></trkpt>
      <trkpt lat="33.802224" lon="11.016203"><ele>0</ele></trkpt>
      <trkpt lat="33.802191" lon="11.016185"><ele>0</ele></trkpt>
      <trkpt lat="33.802099" lon="11.016165"><ele>0</ele></trkpt>
      <trkpt lat="33.801731" lon="11.01618"><ele>0</ele></trkpt>
      <trkpt lat="33.800937" lon="11.016083"><ele>0</ele></trkpt>
      <trkpt lat="33.8009" lon="11.016074"><ele>0</ele></trkpt>
      <trkpt lat="33.800808" lon="11.016014"><ele>0</ele></trkpt>
      <trkpt lat="33.800715" lon="11.015917"><ele>0</ele></trkpt>
      <trkpt lat="33.800651" lon="11.015839"><ele>0</ele></trkpt>
      <trkpt lat="33.800664" lon="11.01571"><ele>0</ele></trkpt>
      <trkpt lat="33.800685" lon="11.01505"><ele>0</ele></trkpt>
      <trkpt lat="33.800701" lon="11.014656"><ele>0</ele></trkpt>
      <trkpt lat="33.800693" lon="11.014424"><ele>0</ele></trkpt>
      <trkpt lat="33.800666" lon="11.01399"><ele>0</ele></trkpt>
      <trkpt lat="33.800691" lon="11.013185"><ele>0</ele></trkpt>
      <trkpt lat="33.80069" lon="11.012885"><ele>0</ele></trkpt>
      <trkpt lat="33.800681" lon="11.012729"><ele>0</ele></trkpt>
      <trkpt lat="33.800665" lon="11.012631"><ele>0</ele></trkpt>
      <trkpt lat="33.800629" lon="11.012313"><ele>0</ele></trkpt>
      <trkpt lat="33.800595" lon="11.012015"><ele>0</ele></trkpt>
      <trkpt lat="33.800562" lon="11.011721"><ele>0</ele></trkpt>
      <trkpt lat="33.800543" lon="11.011591"><ele>0</ele></trkpt>
      <trkpt lat="33.800528" lon="11.011408"><ele>0</ele></trkpt>
      <trkpt lat="33.800534" lon="11.011128"><ele>0</ele></trkpt>
      <trkpt lat="33.800571" lon="11.010719"><ele>0</ele></trkpt>
      <trkpt lat="33.800602" lon="11.010392"><ele>0</ele></trkpt>
      <trkpt lat="33.800644" lon="11.010041"><ele>0</ele></trkpt>
      <trkpt lat="33.800669" lon="11.009887"><ele>0</ele></trkpt>
      <trkpt lat="33.800698" lon="11.009773"><ele>0</ele></trkpt>
      <trkpt lat="33.800776" lon="11.009543"><ele>0</ele></trkpt>
      <trkpt lat="33.800787" lon="11.009489"><ele>0</ele></trkpt>
      <trkpt lat="33.800787" lon="11.009387"><ele>0</ele></trkpt>
      <trkpt lat="33.800749" lon="11.009031"><ele>0</ele></trkpt>
      <trkpt lat="33.800717" lon="11.008864"><ele>0</ele></trkpt>
      <trkpt lat="33.800695" lon="11.008797"><ele>0</ele></trkpt>
      <trkpt lat="33.80075" lon="11.008659"><ele>0</ele></trkpt>
      <trkpt lat="33.800936" lon="11.007916"><ele>0</ele></trkpt>
      <trkpt lat="33.800959" lon="11.007838"><ele>0</ele></trkpt>
      <trkpt lat="33.801057" lon="11.007474"><ele>0</ele></trkpt>
      <trkpt lat="33.801142" lon="11.007186"><ele>0</ele></trkpt>
      <trkpt lat="33.80117" lon="11.007123"><ele>0</ele></trkpt>
      <trkpt lat="33.801238" lon="11.007022"><ele>0</ele></trkpt>
      <trkpt lat="33.801346" lon="11.006887"><ele>0</ele></trkpt>
      <trkpt lat="33.801412" lon="11.006825"><ele>0</ele></trkpt>
      <trkpt lat="33.80148" lon="11.006763"><ele>0</ele></trkpt>
      <trkpt lat="33.801968" lon="11.006362"><ele>0</ele></trkpt>
      <trkpt lat="33.802171" lon="11.006167"><ele>0</ele></trkpt>
      <trkpt lat="33.802279" lon="11.006027"><ele>0</ele></trkpt>
      <trkpt lat="33.802421" lon="11.0058"><ele>0</ele></trkpt>
      <trkpt lat="33.802483" lon="11.005677"><ele>0</ele></trkpt>
      <trkpt lat="33.80255" lon="11.005541"><ele>0</ele></trkpt>
      <trkpt lat="33.802634" lon="11.005324"><ele>0</ele></trkpt>
      <trkpt lat="33.802675" lon="11.005192"><ele>0</ele></trkpt>
      <trkpt lat="33.802707" lon="11.005103"><ele>0</ele></trkpt>
      <trkpt lat="33.803352" lon="11.00499"><ele>0</ele></trkpt>
      <trkpt lat="33.803424" lon="11.004972"><ele>0</ele></trkpt>
      <trkpt lat="33.803569" lon="11.004915"><ele>0</ele></trkpt>
      <trkpt lat="33.803734" lon="11.004834"><ele>0</ele></trkpt>
      <trkpt lat="33.803895" lon="11.004778"><ele>0</ele></trkpt>
      <trkpt lat="33.804474" lon="11.004539"><ele>0</ele></trkpt>
      <trkpt lat="33.804576" lon="11.004487"><ele>0</ele></trkpt>
      <trkpt lat="33.804694" lon="11.004409"><ele>0</ele></trkpt>
      <trkpt lat="33.804746" lon="11.004394"><ele>0</ele></trkpt>
      <trkpt lat="33.804795" lon="11.004397"><ele>0</ele></trkpt>
      <trkpt lat="33.804969" lon="11.004457"><ele>0</ele></trkpt>
      <trkpt lat="33.805002" lon="11.004461"><ele>0</ele></trkpt>
      <trkpt lat="33.805133" lon="11.004439"><ele>0</ele></trkpt>
      <trkpt lat="33.805478" lon="11.004351"><ele>0</ele></trkpt>
      <trkpt lat="33.80544" lon="11.004297"><ele>0</ele></trkpt>
      <trkpt lat="33.805424" lon="11.00425"><ele>0</ele></trkpt>
      <trkpt lat="33.805409" lon="11.004153"><ele>0</ele></trkpt>
      <trkpt lat="33.805392" lon="11.003917"><ele>0</ele></trkpt>
      <trkpt lat="33.805343" lon="11.003439"><ele>0</ele></trkpt>
      <trkpt lat="33.805287" lon="11.002977"><ele>0</ele></trkpt>
      <trkpt lat="33.805274" lon="11.002909"><ele>0</ele></trkpt>
      <trkpt lat="33.80524" lon="11.002773"><ele>0</ele></trkpt>
      <trkpt lat="33.805054" lon="11.002171"><ele>0</ele></trkpt>
      <trkpt lat="33.804948" lon="11.001813"><ele>0</ele></trkpt>
      <trkpt lat="33.8049" lon="11.001709"><ele>0</ele></trkpt>
      <trkpt lat="33.804783" lon="11.001556"><ele>0</ele></trkpt>
      <trkpt lat="33.804721" lon="11.001392"><ele>0</ele></trkpt>
      <trkpt lat="33.804701" lon="11.00124"><ele>0</ele></trkpt>
      <trkpt lat="33.804651" lon="11.00104"><ele>0</ele></trkpt>
      <trkpt lat="33.804702" lon="11.000756"><ele>0</ele></trkpt>
      <trkpt lat="33.804614" lon="11.0006"><ele>0</ele></trkpt>
      <trkpt lat="33.804565" lon="11.000488"><ele>0</ele></trkpt>
      <trkpt lat="33.80449" lon="11.000325"><ele>0</ele></trkpt>
      <trkpt lat="33.804429" lon="11.000103"><ele>0</ele></trkpt>
      <trkpt lat="33.804402" lon="10.999902"><ele>0</ele></trkpt>
      <trkpt lat="33.804347" lon="10.999285"><ele>0</ele></trkpt>
      <trkpt lat="33.804284" lon="10.998758"><ele>0</ele></trkpt>
      <trkpt lat="33.804203" lon="10.998216"><ele>0</ele></trkpt>
      <trkpt lat="33.805142" lon="10.998124"><ele>0</ele></trkpt>
      <trkpt lat="33.80502" lon="10.997102"><ele>0</ele></trkpt>
      <trkpt lat="33.804993" lon="10.996761"><ele>0</ele></trkpt>
      <trkpt lat="33.805156" lon="10.996689"><ele>0</ele></trkpt>
      <trkpt lat="33.805402" lon="10.996615"><ele>0</ele></trkpt>
      <trkpt lat="33.80564" lon="10.996563"><ele>0</ele></trkpt>
      <trkpt lat="33.805873" lon="10.996496"><ele>0</ele></trkpt>
      <trkpt lat="33.806058" lon="10.996427"><ele>0</ele></trkpt>
      <trkpt lat="33.806107" lon="10.99638"><ele>0</ele></trkpt>
      <trkpt lat="33.806155" lon="10.996293"><ele>0</ele></trkpt>
      <trkpt lat="33.806186" lon="10.996209"><ele>0</ele></trkpt>
      <trkpt lat="33.806186" lon="10.995923"><ele>0</ele></trkpt>
      <trkpt lat="33.806135" lon="10.995276"><ele>0</ele></trkpt>
      <trkpt lat="33.806112" lon="10.994641"><ele>0</ele></trkpt>
      <trkpt lat="33.806213" lon="10.994631"><ele>0</ele></trkpt>
      <trkpt lat="33.806176" lon="10.993753"><ele>0</ele></trkpt>
      <trkpt lat="33.806165" lon="10.993569"><ele>0</ele></trkpt>
      <trkpt lat="33.806145" lon="10.993436"><ele>0</ele></trkpt>
      <trkpt lat="33.806135" lon="10.993409"><ele>0</ele></trkpt>
      <trkpt lat="33.806092" lon="10.99327"><ele>0</ele></trkpt>
      <trkpt lat="33.806019" lon="10.992981"><ele>0</ele></trkpt>
      <trkpt lat="33.805947" lon="10.992597"><ele>0</ele></trkpt>
      <trkpt lat="33.805936" lon="10.992436"><ele>0</ele></trkpt>
      <trkpt lat="33.805924" lon="10.992023"><ele>0</ele></trkpt>
      <trkpt lat="33.806112" lon="10.991981"><ele>0</ele></trkpt>
      <trkpt lat="33.806364" lon="10.9919"><ele>0</ele></trkpt>
      <trkpt lat="33.806676" lon="10.991779"><ele>0</ele></trkpt>
      <trkpt lat="33.806946" lon="10.991722"><ele>0</ele></trkpt>
      <trkpt lat="33.806971" lon="10.991707"><ele>0</ele></trkpt>
      <trkpt lat="33.806979" lon="10.99168"><ele>0</ele></trkpt>
      <trkpt lat="33.80714" lon="10.991707"><ele>0</ele></trkpt>
      <trkpt lat="33.807264" lon="10.991738"><ele>0</ele></trkpt>
      <trkpt lat="33.807299" lon="10.991735"><ele>0</ele></trkpt>
      <trkpt lat="33.807391" lon="10.991708"><ele>0</ele></trkpt>
      <trkpt lat="33.807492" lon="10.991671"><ele>0</ele></trkpt>
      <trkpt lat="33.807558" lon="10.991631"><ele>0</ele></trkpt>
      <trkpt lat="33.80761" lon="10.991759"><ele>0</ele></trkpt>
      <trkpt lat="33.80763" lon="10.991792"><ele>0</ele></trkpt>
      <trkpt lat="33.807724" lon="10.991917"><ele>0</ele></trkpt>
      <trkpt lat="33.807785" lon="10.991959"><ele>0</ele></trkpt>
      <trkpt lat="33.807841" lon="10.991957"><ele>0</ele></trkpt>
      <trkpt lat="33.808272" lon="10.991754"><ele>0</ele></trkpt>
      <trkpt lat="33.808168" lon="10.991397"><ele>0</ele></trkpt></trkseg></trk></gpx>