<?xml version="1.0" encoding="UTF-8"?><gpx version="1.1" creator="Heripia 3.7.409" xmlns="http://www.topografix.com/GPX/1/1" xmlns:xsi="http://www.w3.org/2001/XMLSchema-instance" xsi:schemaLocation="http://www.topografix.com/GPX/1/1 http://www.topografix.com/GPX/1/1/gpx.xsd">
    <metadata>
        <name>Circuit de Mosquée Maariss à Mosquée Sidi Jmour</name>
        <desc>Circuit généré par Heripia — heripia.com</desc>
        <link href="https://heripia.com/">
            <text>Heripia [HW-ID:HW-01M2Z725C8KGR3E0N6VEPKZ9B9]</text>
        </link>
    </metadata>
    <wpt lat="33.818889734342896" lon="10.789266228675842">
      <name>Mosquée Maariss</name>
      <desc></desc>
    </wpt>
    <wpt lat="33.8243617" lon="10.7754974">
      <name>Mosquée Alamat</name>
      <desc></desc>
    </wpt>
    <wpt lat="33.82744960392072" lon="10.7724729180336">
      <name>Mosquée El Omma</name>
      <desc></desc>
    </wpt>
    <wpt lat="33.83390258834589" lon="10.768149111717975">
      <name>Jardin Magid</name>
      <desc></desc>
    </wpt>
    <wpt lat="33.83784614865581" lon="10.76461304938539">
      <name>Mosquée al Baraka</name>
      <desc></desc>
    </wpt>
    <wpt lat="33.831417" lon="10.748056">
      <name>Mosquée Sidi Jmour</name>
      <desc></desc>
    </wpt><trk><name>Circuit de Mosquée Maariss à Mosquée Sidi Jmour</name><desc><![CDATA[Circuit allant de la mosquée Maariss en ruines à la mosquée Sidi Jmour.
N'hésitez pas à manger dans un des restaurants en bord de mer tout proche

Circuit généré par Heripia — heripia.com]]></desc><trkseg><trkpt lat="33.817679" lon="10.789263"><ele>0</ele></trkpt>
      <trkpt lat="33.817637" lon="10.789332"><ele>0</ele></trkpt>
      <trkpt lat="33.817538" lon="10.789525"><ele>0</ele></trkpt>
      <trkpt lat="33.817422" lon="10.789718"><ele>0</ele></trkpt>
      <trkpt lat="33.817414" lon="10.789714"><ele>0</ele></trkpt>
      <trkpt lat="33.81737" lon="10.789725"><ele>0</ele></trkpt>
      <trkpt lat="33.816716" lon="10.789038"><ele>0</ele></trkpt>
      <trkpt lat="33.81662" lon="10.78894"><ele>0</ele></trkpt>
      <trkpt lat="33.816366" lon="10.788751"><ele>0</ele></trkpt>
      <trkpt lat="33.816066" lon="10.788497"><ele>0</ele></trkpt>
      <trkpt lat="33.816032" lon="10.788455"><ele>0</ele></trkpt>
      <trkpt lat="33.815973" lon="10.78834"><ele>0</ele></trkpt>
      <trkpt lat="33.815758" lon="10.78785"><ele>0</ele></trkpt>
      <trkpt lat="33.815698" lon="10.78773"><ele>0</ele></trkpt>
      <trkpt lat="33.815431" lon="10.787265"><ele>0</ele></trkpt>
      <trkpt lat="33.815367" lon="10.787107"><ele>0</ele></trkpt>
      <trkpt lat="33.815329" lon="10.787007"><ele>0</ele></trkpt>
      <trkpt lat="33.815011" lon="10.786317"><ele>0</ele></trkpt>
      <trkpt lat="33.814889" lon="10.786104"><ele>0</ele></trkpt>
      <trkpt lat="33.814875" lon="10.786119"><ele>0</ele></trkpt>
      <trkpt lat="33.814274" lon="10.785513"><ele>0</ele></trkpt>
      <trkpt lat="33.814236" lon="10.785455"><ele>0</ele></trkpt>
      <trkpt lat="33.814223" lon="10.785383"><ele>0</ele></trkpt>
      <trkpt lat="33.81422" lon="10.785243"><ele>0</ele></trkpt>
      <trkpt lat="33.81423" lon="10.785049"><ele>0</ele></trkpt>
      <trkpt lat="33.814327" lon="10.78485"><ele>0</ele></trkpt>
      <trkpt lat="33.814374" lon="10.78475"><ele>0</ele></trkpt>
      <trkpt lat="33.81449" lon="10.784397"><ele>0</ele></trkpt>
      <trkpt lat="33.814478" lon="10.784221"><ele>0</ele></trkpt>
      <trkpt lat="33.814493" lon="10.784123"><ele>0</ele></trkpt>
      <trkpt lat="33.814469" lon="10.784027"><ele>0</ele></trkpt>
      <trkpt lat="33.814478" lon="10.78383"><ele>0</ele></trkpt>
      <trkpt lat="33.814557" lon="10.783556"><ele>0</ele></trkpt>
      <trkpt lat="33.814619" lon="10.783379"><ele>0</ele></trkpt>
      <trkpt lat="33.814799" lon="10.782985"><ele>0</ele></trkpt>
      <trkpt lat="33.814881" lon="10.782833"><ele>0</ele></trkpt>
      <trkpt lat="33.815207" lon="10.782425"><ele>0</ele></trkpt>
      <trkpt lat="33.815337" lon="10.782225"><ele>0</ele></trkpt>
      <trkpt lat="33.815416" lon="10.782036"><ele>0</ele></trkpt>
      <trkpt lat="33.81545" lon="10.781925"><ele>0</ele></trkpt>
      <trkpt lat="33.815475" lon="10.781814"><ele>0</ele></trkpt>
      <trkpt lat="33.815518" lon="10.78182"><ele>0</ele></trkpt>
      <trkpt lat="33.815564" lon="10.781815"><ele>0</ele></trkpt>
      <trkpt lat="33.81561" lon="10.781799"><ele>0</ele></trkpt>
      <trkpt lat="33.815663" lon="10.781769"><ele>0</ele></trkpt>
      <trkpt lat="33.816375" lon="10.781269"><ele>0</ele></trkpt>
      <trkpt lat="33.816395" lon="10.781232"><ele>0</ele></trkpt>
      <trkpt lat="33.816408" lon="10.78119"><ele>0</ele></trkpt>
      <trkpt lat="33.816409" lon="10.781139"><ele>0</ele></trkpt>
      <trkpt lat="33.816406" lon="10.78108"><ele>0</ele></trkpt>
      <trkpt lat="33.816388" lon="10.781011"><ele>0</ele></trkpt>
      <trkpt lat="33.816316" lon="10.78079"><ele>0</ele></trkpt>
      <trkpt lat="33.816206" lon="10.780535"><ele>0</ele></trkpt>
      <trkpt lat="33.816177" lon="10.780455"><ele>0</ele></trkpt>
      <trkpt lat="33.816098" lon="10.780102"><ele>0</ele></trkpt>
      <trkpt lat="33.81607" lon="10.780012"><ele>0</ele></trkpt>
      <trkpt lat="33.815929" lon="10.77968"><ele>0</ele></trkpt>
      <trkpt lat="33.815861" lon="10.779465"><ele>0</ele></trkpt>
      <trkpt lat="33.815837" lon="10.779342"><ele>0</ele></trkpt>
      <trkpt lat="33.816044" lon="10.779169"><ele>0</ele></trkpt>
      <trkpt lat="33.816318" lon="10.779"><ele>0</ele></trkpt>
      <trkpt lat="33.81654" lon="10.778893"><ele>0</ele></trkpt>
      <trkpt lat="33.816837" lon="10.778768"><ele>0</ele></trkpt>
      <trkpt lat="33.817622" lon="10.778401"><ele>0</ele></trkpt>
      <trkpt lat="33.817886" lon="10.778254"><ele>0</ele></trkpt>
      <trkpt lat="33.81802" lon="10.778147"><ele>0</ele></trkpt>
      <trkpt lat="33.818225" lon="10.777985"><ele>0</ele></trkpt>
      <trkpt lat="33.818352" lon="10.777873"><ele>0</ele></trkpt>
      <trkpt lat="33.818682" lon="10.77752"><ele>0</ele></trkpt>
      <trkpt lat="33.818755" lon="10.777433"><ele>0</ele></trkpt>
      <trkpt lat="33.818828" lon="10.777333"><ele>0</ele></trkpt>
      <trkpt lat="33.819008" lon="10.777018"><ele>0</ele></trkpt>
      <trkpt lat="33.819263" lon="10.776585"><ele>0</ele></trkpt>
      <trkpt lat="33.819307" lon="10.776496"><ele>0</ele></trkpt>
      <trkpt lat="33.819401" lon="10.776255"><ele>0</ele></trkpt>
      <trkpt lat="33.819467" lon="10.77602"><ele>0</ele></trkpt>
      <trkpt lat="33.819529" lon="10.775741"><ele>0</ele></trkpt>
      <trkpt lat="33.819616" lon="10.77548"><ele>0</ele></trkpt>
      <trkpt lat="33.819709" lon="10.775301"><ele>0</ele></trkpt>
      <trkpt lat="33.819945" lon="10.774892"><ele>0</ele></trkpt>
      <trkpt lat="33.820082" lon="10.774629"><ele>0</ele></trkpt>
      <trkpt lat="33.820166" lon="10.774498"><ele>0</ele></trkpt>
      <trkpt lat="33.820287" lon="10.774371"><ele>0</ele></trkpt>
      <trkpt lat="33.820388" lon="10.774285"><ele>0</ele></trkpt>
      <trkpt lat="33.820677" lon="10.774121"><ele>0</ele></trkpt>
      <trkpt lat="33.821128" lon="10.773786"><ele>0</ele></trkpt>
      <trkpt lat="33.821485" lon="10.773445"><ele>0</ele></trkpt>
      <trkpt lat="33.821558" lon="10.773338"><ele>0</ele></trkpt>
      <trkpt lat="33.821652" lon="10.773249"><ele>0</ele></trkpt>
      <trkpt lat="33.82169" lon="10.773305"><ele>0</ele></trkpt>
      <trkpt lat="33.822223" lon="10.773739"><ele>0</ele></trkpt>
      <trkpt lat="33.822396" lon="10.77387"><ele>0</ele></trkpt>
      <trkpt lat="33.822624" lon="10.774071"><ele>0</ele></trkpt>
      <trkpt lat="33.822667" lon="10.774121"><ele>0</ele></trkpt>
      <trkpt lat="33.822683" lon="10.774153"><ele>0</ele></trkpt>
      <trkpt lat="33.822758" lon="10.774187"><ele>0</ele></trkpt>
      <trkpt lat="33.822927" lon="10.774324"><ele>0</ele></trkpt>
      <trkpt lat="33.823205" lon="10.774526"><ele>0</ele></trkpt>
      <trkpt lat="33.823324" lon="10.774655"><ele>0</ele></trkpt>
      <trkpt lat="33.82343" lon="10.774833"><ele>0</ele></trkpt>
      <trkpt lat="33.823506" lon="10.774985"><ele>0</ele></trkpt>
      <trkpt lat="33.823559" lon="10.775064"><ele>0</ele></trkpt>
      <trkpt lat="33.823627" lon="10.775144"><ele>0</ele></trkpt>
      <trkpt lat="33.823693" lon="10.775205"><ele>0</ele></trkpt>
      <trkpt lat="33.823761" lon="10.775254"><ele>0</ele></trkpt>
      <trkpt lat="33.823945" lon="10.775414"><ele>0</ele></trkpt>
      <trkpt lat="33.824017" lon="10.775468"><ele>0</ele></trkpt>
      <trkpt lat="33.82407" lon="10.775521"><ele>0</ele></trkpt>
      <trkpt lat="33.824196" lon="10.775539"><ele>0</ele></trkpt>
      <trkpt lat="33.824252" lon="10.775535"><ele>0</ele></trkpt>
      <trkpt lat="33.824275" lon="10.775559"><ele>0</ele></trkpt>
      <trkpt lat="33.824252" lon="10.775535"><ele>0</ele></trkpt>
      <trkpt lat="33.824253" lon="10.775498"><ele>0</ele></trkpt>
      <trkpt lat="33.82436" lon="10.775139"><ele>0</ele></trkpt>
      <trkpt lat="33.824502" lon="10.774816"><ele>0</ele></trkpt>
      <trkpt lat="33.82453" lon="10.774729"><ele>0</ele></trkpt>
      <trkpt lat="33.824586" lon="10.774458"><ele>0</ele></trkpt>
      <trkpt lat="33.824616" lon="10.774391"><ele>0</ele></trkpt>
      <trkpt lat="33.82464" lon="10.774355"><ele>0</ele></trkpt>
      <trkpt lat="33.824683" lon="10.774271"><ele>0</ele></trkpt>
      <trkpt lat="33.824725" lon="10.774219"><ele>0</ele></trkpt>
      <trkpt lat="33.824782" lon="10.774184"><ele>0</ele></trkpt>
      <trkpt lat="33.824927" lon="10.774149"><ele>0</ele></trkpt>
      <trkpt lat="33.82501" lon="10.774143"><ele>0</ele></trkpt>
      <trkpt lat="33.825073" lon="10.774148"><ele>0</ele></trkpt>
      <trkpt lat="33.825129" lon="10.774179"><ele>0</ele></trkpt>
      <trkpt lat="33.825142" lon="10.774226"><ele>0</ele></trkpt>
      <trkpt lat="33.825159" lon="10.77425"><ele>0</ele></trkpt>
      <trkpt lat="33.825244" lon="10.774328"><ele>0</ele></trkpt>
      <trkpt lat="33.825277" lon="10.77434"><ele>0</ele></trkpt>
      <trkpt lat="33.825303" lon="10.774332"><ele>0</ele></trkpt>
      <trkpt lat="33.82532" lon="10.774317"><ele>0</ele></trkpt>
      <trkpt lat="33.825713" lon="10.77374"><ele>0</ele></trkpt>
      <trkpt lat="33.825734" lon="10.773724"><ele>0</ele></trkpt>
      <trkpt lat="33.825771" lon="10.773735"><ele>0</ele></trkpt>
      <trkpt lat="33.825818" lon="10.773764"><ele>0</ele></trkpt>
      <trkpt lat="33.82601" lon="10.773934"><ele>0</ele></trkpt>
      <trkpt lat="33.826031" lon="10.773939"><ele>0</ele></trkpt>
      <trkpt lat="33.826056" lon="10.773933"><ele>0</ele></trkpt>
      <trkpt lat="33.826103" lon="10.773899"><ele>0</ele></trkpt>
      <trkpt lat="33.826231" lon="10.773705"><ele>0</ele></trkpt>
      <trkpt lat="33.826411" lon="10.773472"><ele>0</ele></trkpt>
      <trkpt lat="33.826444" lon="10.773408"><ele>0</ele></trkpt>
      <trkpt lat="33.826466" lon="10.773319"><ele>0</ele></trkpt>
      <trkpt lat="33.826492" lon="10.773258"><ele>0</ele></trkpt>
      <trkpt lat="33.826621" lon="10.77305"><ele>0</ele></trkpt>
      <trkpt lat="33.826795" lon="10.773048"><ele>0</ele></trkpt>
      <trkpt lat="33.82691" lon="10.773015"><ele>0</ele></trkpt>
      <trkpt lat="33.826934" lon="10.773002"><ele>0</ele></trkpt>
      <trkpt lat="33.827332" lon="10.772663"><ele>0</ele></trkpt>
      <trkpt lat="33.827342" lon="10.772638"><ele>0</ele></trkpt>
      <trkpt lat="33.82734" lon="10.772613"><ele>0</ele></trkpt>
      <trkpt lat="33.827327" lon="10.772585"><ele>0</ele></trkpt>
      <trkpt lat="33.82719" lon="10.77229"><ele>0</ele></trkpt>
      <trkpt lat="33.827211" lon="10.772284"><ele>0</ele></trkpt>
      <trkpt lat="33.827526" lon="10.772209"><ele>0</ele></trkpt>
      <trkpt lat="33.827678" lon="10.772136"><ele>0</ele></trkpt>
      <trkpt lat="33.827774" lon="10.772079"><ele>0</ele></trkpt>
      <trkpt lat="33.827912" lon="10.772014"><ele>0</ele></trkpt>
      <trkpt lat="33.828017" lon="10.771974"><ele>0</ele></trkpt>
      <trkpt lat="33.828177" lon="10.77195"><ele>0</ele></trkpt>
      <trkpt lat="33.828313" lon="10.7719"><ele>0</ele></trkpt>
      <trkpt lat="33.828524" lon="10.771788"><ele>0</ele></trkpt>
      <trkpt lat="33.828809" lon="10.771602"><ele>0</ele></trkpt>
      <trkpt lat="33.828839" lon="10.77156"><ele>0</ele></trkpt>
      <trkpt lat="33.828854" lon="10.77148"><ele>0</ele></trkpt>
      <trkpt lat="33.828851" lon="10.771443"><ele>0</ele></trkpt>
      <trkpt lat="33.828807" lon="10.771264"><ele>0</ele></trkpt>
      <trkpt lat="33.828814" lon="10.771229"><ele>0</ele></trkpt>
      <trkpt lat="33.82884" lon="10.771179"><ele>0</ele></trkpt>
      <trkpt lat="33.828891" lon="10.771142"><ele>0</ele></trkpt>
      <trkpt lat="33.829301" lon="10.770916"><ele>0</ele></trkpt>
      <trkpt lat="33.829352" lon="10.770908"><ele>0</ele></trkpt>
      <trkpt lat="33.829372" lon="10.770917"><ele>0</ele></trkpt>
      <trkpt lat="33.829537" lon="10.771189"><ele>0</ele></trkpt>
      <trkpt lat="33.829735" lon="10.771122"><ele>0</ele></trkpt>
      <trkpt lat="33.829915" lon="10.771082"><ele>0</ele></trkpt>
      <trkpt lat="33.830251" lon="10.771049"><ele>0</ele></trkpt>
      <trkpt lat="33.830621" lon="10.770945"><ele>0</ele></trkpt>
      <trkpt lat="33.830814" lon="10.770928"><ele>0</ele></trkpt>
      <trkpt lat="33.83106" lon="10.770923"><ele>0</ele></trkpt>
      <trkpt lat="33.831296" lon="10.770954"><ele>0</ele></trkpt>
      <trkpt lat="33.831518" lon="10.770961"><ele>0</ele></trkpt>
      <trkpt lat="33.831709" lon="10.770923"><ele>0</ele></trkpt>
      <trkpt lat="33.831991" lon="10.77083"><ele>0</ele></trkpt>
      <trkpt lat="33.832262" lon="10.770713"><ele>0</ele></trkpt>
      <trkpt lat="33.832408" lon="10.77067"><ele>0</ele></trkpt>
      <trkpt lat="33.832657" lon="10.770674"><ele>0</ele></trkpt>
      <trkpt lat="33.832806" lon="10.770717"><ele>0</ele></trkpt>
      <trkpt lat="33.832955" lon="10.770721"><ele>0</ele></trkpt>
      <trkpt lat="33.833194" lon="10.770429"><ele>0</ele></trkpt>
      <trkpt lat="33.833294" lon="10.770277"><ele>0</ele></trkpt>
      <trkpt lat="33.833411" lon="10.769876"><ele>0</ele></trkpt>
      <trkpt lat="33.83345" lon="10.769794"><ele>0</ele></trkpt>
      <trkpt lat="33.83375" lon="10.769595"><ele>0</ele></trkpt>
      <trkpt lat="33.834181" lon="10.769346"><ele>0</ele></trkpt>
      <trkpt lat="33.834591" lon="10.769081"><ele>0</ele></trkpt>
      <trkpt lat="33.834831" lon="10.768939"><ele>0</ele></trkpt>
      <trkpt lat="33.834937" lon="10.768856"><ele>0</ele></trkpt>
      <trkpt lat="33.834977" lon="10.768811"><ele>0</ele></trkpt>
      <trkpt lat="33.834966" lon="10.768637"><ele>0</ele></trkpt>
      <trkpt lat="33.834854" lon="10.768271"><ele>0</ele></trkpt>
      <trkpt lat="33.834845" lon="10.76821"><ele>0</ele></trkpt>
      <trkpt lat="33.83485" lon="10.768147"><ele>0</ele></trkpt>
      <trkpt lat="33.834875" lon="10.768078"><ele>0</ele></trkpt>
      <trkpt lat="33.834988" lon="10.767846"><ele>0</ele></trkpt>
      <trkpt lat="33.835035" lon="10.767766"><ele>0</ele></trkpt>
      <trkpt lat="33.835103" lon="10.767679"><ele>0</ele></trkpt>
      <trkpt lat="33.835153" lon="10.767628"><ele>0</ele></trkpt>
      <trkpt lat="33.83558" lon="10.767274"><ele>0</ele></trkpt>
      <trkpt lat="33.835735" lon="10.767133"><ele>0</ele></trkpt>
      <trkpt lat="33.835893" lon="10.766957"><ele>0</ele></trkpt>
      <trkpt lat="33.835937" lon="10.766908"><ele>0</ele></trkpt>
      <trkpt lat="33.836023" lon="10.766793"><ele>0</ele></trkpt>
      <trkpt lat="33.836128" lon="10.766614"><ele>0</ele></trkpt>
      <trkpt lat="33.8362" lon="10.766471"><ele>0</ele></trkpt>
      <trkpt lat="33.836297" lon="10.766213"><ele>0</ele></trkpt>
      <trkpt lat="33.836351" lon="10.766091"><ele>0</ele></trkpt>
      <trkpt lat="33.836435" lon="10.765925"><ele>0</ele></trkpt>
      <trkpt lat="33.836795" lon="10.765387"><ele>0</ele></trkpt>
      <trkpt lat="33.836838" lon="10.765289"><ele>0</ele></trkpt>
      <trkpt lat="33.836927" lon="10.765051"><ele>0</ele></trkpt>
      <trkpt lat="33.837019" lon="10.764857"><ele>0</ele></trkpt>
      <trkpt lat="33.837105" lon="10.76472"><ele>0</ele></trkpt>
      <trkpt lat="33.837164" lon="10.764637"><ele>0</ele></trkpt>
      <trkpt lat="33.837333" lon="10.764493"><ele>0</ele></trkpt>
      <trkpt lat="33.837394" lon="10.764435"><ele>0</ele></trkpt>
      <trkpt lat="33.837451" lon="10.764365"><ele>0</ele></trkpt>
      <trkpt lat="33.83754" lon="10.764322"><ele>0</ele></trkpt>
      <trkpt lat="33.837653" lon="10.764292"><ele>0</ele></trkpt>
      <trkpt lat="33.837735" lon="10.764263"><ele>0</ele></trkpt>
      <trkpt lat="33.837653" lon="10.764292"><ele>0</ele></trkpt>
      <trkpt lat="33.837592" lon="10.764281"><ele>0</ele></trkpt>
      <trkpt lat="33.837554" lon="10.764256"><ele>0</ele></trkpt>
      <trkpt lat="33.837496" lon="10.764175"><ele>0</ele></trkpt>
      <trkpt lat="33.837485" lon="10.764094"><ele>0</ele></trkpt>
      <trkpt lat="33.837406" lon="10.763681"><ele>0</ele></trkpt>
      <trkpt lat="33.837389" lon="10.763494"><ele>0</ele></trkpt>
      <trkpt lat="33.837366" lon="10.763335"><ele>0</ele></trkpt>
      <trkpt lat="33.837333" lon="10.763219"><ele>0</ele></trkpt>
      <trkpt lat="33.837293" lon="10.763119"><ele>0</ele></trkpt>
      <trkpt lat="33.837258" lon="10.763001"><ele>0</ele></trkpt>
      <trkpt lat="33.837198" lon="10.762498"><ele>0</ele></trkpt>
      <trkpt lat="33.83714" lon="10.76215"><ele>0</ele></trkpt>
      <trkpt lat="33.837119" lon="10.762044"><ele>0</ele></trkpt>
      <trkpt lat="33.837041" lon="10.761705"><ele>0</ele></trkpt>
      <trkpt lat="33.837021" lon="10.761602"><ele>0</ele></trkpt>
      <trkpt lat="33.836999" lon="10.761131"><ele>0</ele></trkpt>
      <trkpt lat="33.836929" lon="10.760624"><ele>0</ele></trkpt>
      <trkpt lat="33.836843" lon="10.760228"><ele>0</ele></trkpt>
      <trkpt lat="33.836838" lon="10.760158"><ele>0</ele></trkpt>
      <trkpt lat="33.836846" lon="10.760129"><ele>0</ele></trkpt>
      <trkpt lat="33.836864" lon="10.760104"><ele>0</ele></trkpt>
      <trkpt lat="33.837048" lon="10.759973"><ele>0</ele></trkpt>
      <trkpt lat="33.837249" lon="10.759798"><ele>0</ele></trkpt>
      <trkpt lat="33.837306" lon="10.759738"><ele>0</ele></trkpt>
      <trkpt lat="33.837405" lon="10.759606"><ele>0</ele></trkpt>
      <trkpt lat="33.837482" lon="10.759491"><ele>0</ele></trkpt>
      <trkpt lat="33.837618" lon="10.759324"><ele>0</ele></trkpt>
      <trkpt lat="33.837821" lon="10.759047"><ele>0</ele></trkpt>
      <trkpt lat="33.837863" lon="10.759"><ele>0</ele></trkpt>
      <trkpt lat="33.838083" lon="10.758808"><ele>0</ele></trkpt>
      <trkpt lat="33.83818" lon="10.758708"><ele>0</ele></trkpt>
      <trkpt lat="33.838236" lon="10.75866"><ele>0</ele></trkpt>
      <trkpt lat="33.837788" lon="10.757971"><ele>0</ele></trkpt>
      <trkpt lat="33.837626" lon="10.757748"><ele>0</ele></trkpt>
      <trkpt lat="33.837484" lon="10.757534"><ele>0</ele></trkpt>
      <trkpt lat="33.836628" lon="10.756334"><ele>0</ele></trkpt>
      <trkpt lat="33.836259" lon="10.755788"><ele>0</ele></trkpt>
      <trkpt lat="33.835823" lon="10.755113"><ele>0</ele></trkpt>
      <trkpt lat="33.835433" lon="10.754424"><ele>0</ele></trkpt>
      <trkpt lat="33.835111" lon="10.753829"><ele>0</ele></trkpt>
      <trkpt lat="33.834695" lon="10.753068"><ele>0</ele></trkpt>
      <trkpt lat="33.834038" lon="10.751882"><ele>0</ele></trkpt>
      <trkpt lat="33.833923" lon="10.75171"><ele>0</ele></trkpt>
      <trkpt lat="33.833797" lon="10.751544"><ele>0</ele></trkpt>
      <trkpt lat="33.833609" lon="10.751336"><ele>0</ele></trkpt>
      <trkpt lat="33.83336" lon="10.751078"><ele>0</ele></trkpt>
      <trkpt lat="33.833145" lon="10.75084"><ele>0</ele></trkpt>
      <trkpt lat="33.833093" lon="10.750773"><ele>0</ele></trkpt>
      <trkpt lat="33.832968" lon="10.750543"><ele>0</ele></trkpt>
      <trkpt lat="33.832822" lon="10.750252"><ele>0</ele></trkpt>
      <trkpt lat="33.832721" lon="10.750035"><ele>0</ele></trkpt>
      <trkpt lat="33.832555" lon="10.749707"><ele>0</ele></trkpt>
      <trkpt lat="33.83243" lon="10.749479"><ele>0</ele></trkpt>
      <trkpt lat="33.832415" lon="10.749429"><ele>0</ele></trkpt>
      <trkpt lat="33.832414" lon="10.749382"><ele>0</ele></trkpt>
      <trkpt lat="33.83244" lon="10.749281"><ele>0</ele></trkpt>
      <trkpt lat="33.83225" lon="10.749321"><ele>0</ele></trkpt>
      <trkpt lat="33.832139" lon="10.749201"><ele>0</ele></trkpt>
      <trkpt lat="33.831926" lon="10.748951"><ele>0</ele></trkpt>
      <trkpt lat="33.83187" lon="10.748876"><ele>0</ele></trkpt>
      <trkpt lat="33.831702" lon="10.748597"><ele>0</ele></trkpt>
      <trkpt lat="33.831609" lon="10.748399"><ele>0</ele></trkpt>
      <trkpt lat="33.831515" lon="10.748372"><ele>0</ele></trkpt>
      <trkpt lat="33.831469" lon="10.748374"><ele>0</ele></trkpt></trkseg></trk></gpx>