<?xml version="1.0" encoding="UTF-8"?><gpx version="1.1" creator="Heripia 3.7.409" xmlns="http://www.topografix.com/GPX/1/1" xmlns:xsi="http://www.w3.org/2001/XMLSchema-instance" xsi:schemaLocation="http://www.topografix.com/GPX/1/1 http://www.topografix.com/GPX/1/1/gpx.xsd">
    <metadata>
        <name>Circuit de Mosquée Amghar à Borj Ajim</name>
        <desc>Circuit généré par Heripia — heripia.com</desc>
        <link href="https://heripia.com/">
            <text>Heripia [HW-ID:HW-01M2YVCXXE40XMVFH74MSCWDEF]</text>
        </link>
    </metadata>
    <wpt lat="33.74086" lon="10.735">
      <name>Mosquée Amghar</name>
      <desc>Ancienne mosquée servant aujourd&apos;hui d&apos;abri poour les pêcheurs. A servi de décor dans la saga Star Wars. Fresque Invader sur un de ses murs</desc>
      <link href="https://routes.discovertunisia.com/storymap/data/download/Site_08_Mosqu%C3%A9e%20Amghar.pdf
Répertoire J. Fathallah, n° 273 | http://palaisbenayed.com/wp-content/uploads/2021/03/r%C3%A9pertoire-des-mosqu%C3%A9es-de-Djerba.pdf">
        <text>Lien vers le site</text>
      </link>
    </wpt>
    <wpt lat="33.7358968" lon="10.7461277">
      <name>Mosquée El Faqia Amor</name>
      <desc></desc>
    </wpt>
    <wpt lat="33.735889" lon="10.747509">
      <name>Mosquée Ettouil</name>
      <desc>Mosquée ibadite wahbite dont la date de construction estimée se situe aux environs du 17ème siècle, entre 1680 et 1720.Monument historique classé (INP, 2022).</desc>
      <link href="https://fr.wikipedia.org/wiki/Fichier:Mosqu%C3%A9e_Ettouil_01.jpg
Répertoire J. Fathallah, n° 260 | http://palaisbenayed.com/wp-content/uploads/2021/03/r%C3%A9pertoire-des-mosqu%C3%A9es-de-Djerba.pdf">
        <text>Lien vers le site</text>
      </link>
    </wpt>
    <wpt lat="33.73099196399276" lon="10.752058554446307">
      <name>Mosquée Saïd Jrab</name>
      <desc></desc>
    </wpt>
    <wpt lat="33.733528" lon="10.759222">
      <name>Mosquée Limes</name>
      <desc></desc>
    </wpt>
    <wpt lat="33.7288674" lon="10.7590638">
      <name>Mosquée Ben Ouiren</name>
      <desc></desc>
    </wpt>
    <wpt lat="33.725446" lon="10.751489">
      <name>Mosquée El Fguira</name>
      <desc>Mosquée ibadite wahbite construite en 1117 de l’hégire, soit 1705 de notre ère</desc>
    </wpt>
    <wpt lat="33.72404" lon="10.750008">
      <name>Lieu de Tournage Star Wars – Cantina Extérieure</name>
      <desc>Un des lieux de tournage de Star Wars</desc>
      <link href="https://galaxytours.com/starwars-tunisia-film-sites/ajim/">
        <text>Lien vers le site</text>
      </link>
    </wpt>
    <wpt lat="33.724257" lon="10.748454">
      <name>Mosquée El Hawanit</name>
      <desc></desc>
    </wpt>
    <wpt lat="33.72475" lon="10.747667">
      <name>Mosquée Neuve</name>
      <desc>Mosquée malékite construite au 20ème siècle</desc>
    </wpt>
    <wpt lat="33.720723389971724" lon="10.744851529598238">
      <name>Restaurant MBAREK</name>
      <desc></desc>
    </wpt>
    <wpt lat="33.71986" lon="10.74423">
      <name>Borj Ajim</name>
      <desc>L&apos;accès est restreint et demande des autorisations</desc>
      <link href="https://www.uib.com.tn/accueil/pages-intermediaires/les-forts-de-djerba-un-patrimoine-fragile">
        <text>Lien vers le site</text>
      </link>
    </wpt><trk><name>Circuit de Mosquée Amghar à Borj Ajim</name><desc><![CDATA[Circuit généré par Heripia — heripia.com]]></desc><trkseg><trkpt lat="33.740853" lon="10.735029"><ele>0</ele></trkpt>
      <trkpt lat="33.740824" lon="10.735046"><ele>0</ele></trkpt>
      <trkpt lat="33.740791" lon="10.735089"><ele>0</ele></trkpt>
      <trkpt lat="33.74077" lon="10.735139"><ele>0</ele></trkpt>
      <trkpt lat="33.740751" lon="10.735235"><ele>0</ele></trkpt>
      <trkpt lat="33.740729" lon="10.735421"><ele>0</ele></trkpt>
      <trkpt lat="33.740695" lon="10.735574"><ele>0</ele></trkpt>
      <trkpt lat="33.74067" lon="10.735817"><ele>0</ele></trkpt>
      <trkpt lat="33.740376" lon="10.73587"><ele>0</ele></trkpt>
      <trkpt lat="33.740016" lon="10.735951"><ele>0</ele></trkpt>
      <trkpt lat="33.739623" lon="10.736053"><ele>0</ele></trkpt>
      <trkpt lat="33.739268" lon="10.736171"><ele>0</ele></trkpt>
      <trkpt lat="33.738976" lon="10.736287"><ele>0</ele></trkpt>
      <trkpt lat="33.7387" lon="10.736426"><ele>0</ele></trkpt>
      <trkpt lat="33.737815" lon="10.736938"><ele>0</ele></trkpt>
      <trkpt lat="33.736933" lon="10.73733"><ele>0</ele></trkpt>
      <trkpt lat="33.736851" lon="10.737356"><ele>0</ele></trkpt>
      <trkpt lat="33.736364" lon="10.737516"><ele>0</ele></trkpt>
      <trkpt lat="33.735158" lon="10.737871"><ele>0</ele></trkpt>
      <trkpt lat="33.735121" lon="10.737927"><ele>0</ele></trkpt>
      <trkpt lat="33.735102" lon="10.737971"><ele>0</ele></trkpt>
      <trkpt lat="33.735084" lon="10.738039"><ele>0</ele></trkpt>
      <trkpt lat="33.735147" lon="10.738432"><ele>0</ele></trkpt>
      <trkpt lat="33.735242" lon="10.738853"><ele>0</ele></trkpt>
      <trkpt lat="33.735363" lon="10.739433"><ele>0</ele></trkpt>
      <trkpt lat="33.735446" lon="10.739756"><ele>0</ele></trkpt>
      <trkpt lat="33.73557" lon="10.740383"><ele>0</ele></trkpt>
      <trkpt lat="33.735682" lon="10.741041"><ele>0</ele></trkpt>
      <trkpt lat="33.735703" lon="10.741208"><ele>0</ele></trkpt>
      <trkpt lat="33.735746" lon="10.741666"><ele>0</ele></trkpt>
      <trkpt lat="33.735755" lon="10.741797"><ele>0</ele></trkpt>
      <trkpt lat="33.735748" lon="10.741862"><ele>0</ele></trkpt>
      <trkpt lat="33.735739" lon="10.741909"><ele>0</ele></trkpt>
      <trkpt lat="33.735732" lon="10.741948"><ele>0</ele></trkpt>
      <trkpt lat="33.735729" lon="10.742086"><ele>0</ele></trkpt>
      <trkpt lat="33.735805" lon="10.742769"><ele>0</ele></trkpt>
      <trkpt lat="33.73587" lon="10.743265"><ele>0</ele></trkpt>
      <trkpt lat="33.73588" lon="10.743342"><ele>0</ele></trkpt>
      <trkpt lat="33.735897" lon="10.744354"><ele>0</ele></trkpt>
      <trkpt lat="33.735895" lon="10.744675"><ele>0</ele></trkpt>
      <trkpt lat="33.735876" lon="10.745163"><ele>0</ele></trkpt>
      <trkpt lat="33.735874" lon="10.745183"><ele>0</ele></trkpt>
      <trkpt lat="33.735851" lon="10.745467"><ele>0</ele></trkpt>
      <trkpt lat="33.735824" lon="10.745612"><ele>0</ele></trkpt>
      <trkpt lat="33.735728" lon="10.745953"><ele>0</ele></trkpt>
      <trkpt lat="33.735703" lon="10.746079"><ele>0</ele></trkpt>
      <trkpt lat="33.735679" lon="10.746234"><ele>0</ele></trkpt>
      <trkpt lat="33.735645" lon="10.746572"><ele>0</ele></trkpt>
      <trkpt lat="33.73563" lon="10.746743"><ele>0</ele></trkpt>
      <trkpt lat="33.735563" lon="10.746738"><ele>0</ele></trkpt>
      <trkpt lat="33.735259" lon="10.746807"><ele>0</ele></trkpt>
      <trkpt lat="33.735236" lon="10.746835"><ele>0</ele></trkpt>
      <trkpt lat="33.735212" lon="10.746956"><ele>0</ele></trkpt>
      <trkpt lat="33.735214" lon="10.747041"><ele>0</ele></trkpt>
      <trkpt lat="33.735367" lon="10.747319"><ele>0</ele></trkpt>
      <trkpt lat="33.735427" lon="10.747453"><ele>0</ele></trkpt>
      <trkpt lat="33.735488" lon="10.747609"><ele>0</ele></trkpt>
      <trkpt lat="33.735599" lon="10.747939"><ele>0</ele></trkpt>
      <trkpt lat="33.735891" lon="10.747766"><ele>0</ele></trkpt>
      <trkpt lat="33.735932" lon="10.747763"><ele>0</ele></trkpt>
      <trkpt lat="33.736254" lon="10.747969"><ele>0</ele></trkpt>
      <trkpt lat="33.736239" lon="10.748004"><ele>0</ele></trkpt>
      <trkpt lat="33.736128" lon="10.748248"><ele>0</ele></trkpt>
      <trkpt lat="33.735936" lon="10.748619"><ele>0</ele></trkpt>
      <trkpt lat="33.735832" lon="10.748759"><ele>0</ele></trkpt>
      <trkpt lat="33.73585" lon="10.748922"><ele>0</ele></trkpt>
      <trkpt lat="33.735857" lon="10.749223"><ele>0</ele></trkpt>
      <trkpt lat="33.735855" lon="10.749469"><ele>0</ele></trkpt>
      <trkpt lat="33.735223" lon="10.749628"><ele>0</ele></trkpt>
      <trkpt lat="33.735176" lon="10.749632"><ele>0</ele></trkpt>
      <trkpt lat="33.735104" lon="10.74959"><ele>0</ele></trkpt>
      <trkpt lat="33.73503" lon="10.749614"><ele>0</ele></trkpt>
      <trkpt lat="33.734608" lon="10.749717"><ele>0</ele></trkpt>
      <trkpt lat="33.734123" lon="10.749876"><ele>0</ele></trkpt>
      <trkpt lat="33.733979" lon="10.74994"><ele>0</ele></trkpt>
      <trkpt lat="33.733725" lon="10.750083"><ele>0</ele></trkpt>
      <trkpt lat="33.733259" lon="10.750354"><ele>0</ele></trkpt>
      <trkpt lat="33.732156" lon="10.751182"><ele>0</ele></trkpt>
      <trkpt lat="33.73148" lon="10.751742"><ele>0</ele></trkpt>
      <trkpt lat="33.731164" lon="10.752035"><ele>0</ele></trkpt>
      <trkpt lat="33.730957" lon="10.752239"><ele>0</ele></trkpt>
      <trkpt lat="33.731081" lon="10.752466"><ele>0</ele></trkpt>
      <trkpt lat="33.731118" lon="10.752478"><ele>0</ele></trkpt>
      <trkpt lat="33.731172" lon="10.752472"><ele>0</ele></trkpt>
      <trkpt lat="33.73115" lon="10.75253"><ele>0</ele></trkpt>
      <trkpt lat="33.731143" lon="10.752585"><ele>0</ele></trkpt>
      <trkpt lat="33.731362" lon="10.753043"><ele>0</ele></trkpt>
      <trkpt lat="33.73179" lon="10.753973"><ele>0</ele></trkpt>
      <trkpt lat="33.731886" lon="10.754224"><ele>0</ele></trkpt>
      <trkpt lat="33.731951" lon="10.754371"><ele>0</ele></trkpt>
      <trkpt lat="33.732007" lon="10.754477"><ele>0</ele></trkpt>
      <trkpt lat="33.732068" lon="10.754565"><ele>0</ele></trkpt>
      <trkpt lat="33.732162" lon="10.754664"><ele>0</ele></trkpt>
      <trkpt lat="33.732258" lon="10.754742"><ele>0</ele></trkpt>
      <trkpt lat="33.732452" lon="10.754902"><ele>0</ele></trkpt>
      <trkpt lat="33.732127" lon="10.755198"><ele>0</ele></trkpt>
      <trkpt lat="33.732054" lon="10.755248"><ele>0</ele></trkpt>
      <trkpt lat="33.731815" lon="10.75536"><ele>0</ele></trkpt>
      <trkpt lat="33.731415" lon="10.755541"><ele>0</ele></trkpt>
      <trkpt lat="33.731282" lon="10.755562"><ele>0</ele></trkpt>
      <trkpt lat="33.731263" lon="10.755552"><ele>0</ele></trkpt>
      <trkpt lat="33.731079" lon="10.755508"><ele>0</ele></trkpt>
      <trkpt lat="33.731107" lon="10.755552"><ele>0</ele></trkpt>
      <trkpt lat="33.731391" lon="10.755934"><ele>0</ele></trkpt>
      <trkpt lat="33.731596" lon="10.756179"><ele>0</ele></trkpt>
      <trkpt lat="33.731993" lon="10.756598"><ele>0</ele></trkpt>
      <trkpt lat="33.732196" lon="10.756846"><ele>0</ele></trkpt>
      <trkpt lat="33.732409" lon="10.757131"><ele>0</ele></trkpt>
      <trkpt lat="33.732439" lon="10.757172"><ele>0</ele></trkpt>
      <trkpt lat="33.732581" lon="10.757391"><ele>0</ele></trkpt>
      <trkpt lat="33.732825" lon="10.757864"><ele>0</ele></trkpt>
      <trkpt lat="33.732885" lon="10.757999"><ele>0</ele></trkpt>
      <trkpt lat="33.733009" lon="10.758336"><ele>0</ele></trkpt>
      <trkpt lat="33.733068" lon="10.758461"><ele>0</ele></trkpt>
      <trkpt lat="33.733145" lon="10.758597"><ele>0</ele></trkpt>
      <trkpt lat="33.733231" lon="10.758704"><ele>0</ele></trkpt>
      <trkpt lat="33.733329" lon="10.758789"><ele>0</ele></trkpt>
      <trkpt lat="33.733358" lon="10.75884"><ele>0</ele></trkpt>
      <trkpt lat="33.733371" lon="10.758887"><ele>0</ele></trkpt>
      <trkpt lat="33.733373" lon="10.758964"><ele>0</ele></trkpt>
      <trkpt lat="33.733439" lon="10.758896"><ele>0</ele></trkpt>
      <trkpt lat="33.733462" lon="10.758881"><ele>0</ele></trkpt>
      <trkpt lat="33.733602" lon="10.75911"><ele>0</ele></trkpt>
      <trkpt lat="33.733462" lon="10.758881"><ele>0</ele></trkpt>
      <trkpt lat="33.733439" lon="10.758896"><ele>0</ele></trkpt>
      <trkpt lat="33.733373" lon="10.758964"><ele>0</ele></trkpt>
      <trkpt lat="33.733371" lon="10.758887"><ele>0</ele></trkpt>
      <trkpt lat="33.733358" lon="10.75884"><ele>0</ele></trkpt>
      <trkpt lat="33.733329" lon="10.758789"><ele>0</ele></trkpt>
      <trkpt lat="33.733231" lon="10.758704"><ele>0</ele></trkpt>
      <trkpt lat="33.733145" lon="10.758597"><ele>0</ele></trkpt>
      <trkpt lat="33.733068" lon="10.758461"><ele>0</ele></trkpt>
      <trkpt lat="33.733009" lon="10.758336"><ele>0</ele></trkpt>
      <trkpt lat="33.732647" lon="10.758562"><ele>0</ele></trkpt>
      <trkpt lat="33.732608" lon="10.758577"><ele>0</ele></trkpt>
      <trkpt lat="33.732566" lon="10.758583"><ele>0</ele></trkpt>
      <trkpt lat="33.732257" lon="10.758509"><ele>0</ele></trkpt>
      <trkpt lat="33.732169" lon="10.758502"><ele>0</ele></trkpt>
      <trkpt lat="33.731863" lon="10.758597"><ele>0</ele></trkpt>
      <trkpt lat="33.731682" lon="10.758664"><ele>0</ele></trkpt>
      <trkpt lat="33.731386" lon="10.758752"><ele>0</ele></trkpt>
      <trkpt lat="33.731104" lon="10.75879"><ele>0</ele></trkpt>
      <trkpt lat="33.731007" lon="10.758796"><ele>0</ele></trkpt>
      <trkpt lat="33.730872" lon="10.758786"><ele>0</ele></trkpt>
      <trkpt lat="33.730688" lon="10.758758"><ele>0</ele></trkpt>
      <trkpt lat="33.730609" lon="10.758752"><ele>0</ele></trkpt>
      <trkpt lat="33.730549" lon="10.758756"><ele>0</ele></trkpt>
      <trkpt lat="33.730496" lon="10.758775"><ele>0</ele></trkpt>
      <trkpt lat="33.730184" lon="10.758946"><ele>0</ele></trkpt>
      <trkpt lat="33.730103" lon="10.758998"><ele>0</ele></trkpt>
      <trkpt lat="33.729841" lon="10.759169"><ele>0</ele></trkpt>
      <trkpt lat="33.729458" lon="10.758597"><ele>0</ele></trkpt>
      <trkpt lat="33.729392" lon="10.758598"><ele>0</ele></trkpt>
      <trkpt lat="33.729354" lon="10.758608"><ele>0</ele></trkpt>
      <trkpt lat="33.729289" lon="10.758638"><ele>0</ele></trkpt>
      <trkpt lat="33.729237" lon="10.758685"><ele>0</ele></trkpt>
      <trkpt lat="33.729209" lon="10.758859"><ele>0</ele></trkpt>
      <trkpt lat="33.729217" lon="10.75895"><ele>0</ele></trkpt>
      <trkpt lat="33.729233" lon="10.759113"><ele>0</ele></trkpt>
      <trkpt lat="33.729245" lon="10.759321"><ele>0</ele></trkpt>
      <trkpt lat="33.728689" lon="10.758162"><ele>0</ele></trkpt>
      <trkpt lat="33.72855" lon="10.757795"><ele>0</ele></trkpt>
      <trkpt lat="33.728479" lon="10.757559"><ele>0</ele></trkpt>
      <trkpt lat="33.728731" lon="10.757452"><ele>0</ele></trkpt>
      <trkpt lat="33.728881" lon="10.757403"><ele>0</ele></trkpt>
      <trkpt lat="33.729039" lon="10.757337"><ele>0</ele></trkpt>
      <trkpt lat="33.729362" lon="10.757137"><ele>0</ele></trkpt>
      <trkpt lat="33.729563" lon="10.757019"><ele>0</ele></trkpt>
      <trkpt lat="33.729992" lon="10.756768"><ele>0</ele></trkpt>
      <trkpt lat="33.730013" lon="10.756712"><ele>0</ele></trkpt>
      <trkpt lat="33.730015" lon="10.756609"><ele>0</ele></trkpt>
      <trkpt lat="33.729867" lon="10.756248"><ele>0</ele></trkpt>
      <trkpt lat="33.729715" lon="10.755897"><ele>0</ele></trkpt>
      <trkpt lat="33.729599" lon="10.755639"><ele>0</ele></trkpt>
      <trkpt lat="33.729496" lon="10.755437"><ele>0</ele></trkpt>
      <trkpt lat="33.729341" lon="10.755202"><ele>0</ele></trkpt>
      <trkpt lat="33.729201" lon="10.754949"><ele>0</ele></trkpt>
      <trkpt lat="33.729124" lon="10.754761"><ele>0</ele></trkpt>
      <trkpt lat="33.729074" lon="10.754619"><ele>0</ele></trkpt>
      <trkpt lat="33.728967" lon="10.754307"><ele>0</ele></trkpt>
      <trkpt lat="33.728909" lon="10.754159"><ele>0</ele></trkpt>
      <trkpt lat="33.728879" lon="10.754096"><ele>0</ele></trkpt>
      <trkpt lat="33.728825" lon="10.754005"><ele>0</ele></trkpt>
      <trkpt lat="33.728714" lon="10.753832"><ele>0</ele></trkpt>
      <trkpt lat="33.728649" lon="10.753777"><ele>0</ele></trkpt>
      <trkpt lat="33.728429" lon="10.753506"><ele>0</ele></trkpt>
      <trkpt lat="33.728335" lon="10.75338"><ele>0</ele></trkpt>
      <trkpt lat="33.728309" lon="10.753338"><ele>0</ele></trkpt>
      <trkpt lat="33.728172" lon="10.753004"><ele>0</ele></trkpt>
      <trkpt lat="33.72816" lon="10.752955"><ele>0</ele></trkpt>
      <trkpt lat="33.728124" lon="10.75272"><ele>0</ele></trkpt>
      <trkpt lat="33.728084" lon="10.752803"><ele>0</ele></trkpt>
      <trkpt lat="33.72801" lon="10.752897"><ele>0</ele></trkpt>
      <trkpt lat="33.7278" lon="10.752504"><ele>0</ele></trkpt>
      <trkpt lat="33.727709" lon="10.752357"><ele>0</ele></trkpt>
      <trkpt lat="33.727654" lon="10.752292"><ele>0</ele></trkpt>
      <trkpt lat="33.727465" lon="10.752102"><ele>0</ele></trkpt>
      <trkpt lat="33.727338" lon="10.75199"><ele>0</ele></trkpt>
      <trkpt lat="33.727084" lon="10.751729"><ele>0</ele></trkpt>
      <trkpt lat="33.726987" lon="10.751642"><ele>0</ele></trkpt>
      <trkpt lat="33.726534" lon="10.751426"><ele>0</ele></trkpt>
      <trkpt lat="33.726456" lon="10.751404"><ele>0</ele></trkpt>
      <trkpt lat="33.726391" lon="10.751403"><ele>0</ele></trkpt>
      <trkpt lat="33.726195" lon="10.751422"><ele>0</ele></trkpt>
      <trkpt lat="33.726131" lon="10.751404"><ele>0</ele></trkpt>
      <trkpt lat="33.726117" lon="10.751407"><ele>0</ele></trkpt>
      <trkpt lat="33.725844" lon="10.751538"><ele>0</ele></trkpt>
      <trkpt lat="33.725747" lon="10.751315"><ele>0</ele></trkpt>
      <trkpt lat="33.725659" lon="10.751142"><ele>0</ele></trkpt>
      <trkpt lat="33.725462" lon="10.751261"><ele>0</ele></trkpt>
      <trkpt lat="33.72536" lon="10.751335"><ele>0</ele></trkpt>
      <trkpt lat="33.725327" lon="10.751386"><ele>0</ele></trkpt>
      <trkpt lat="33.725139" lon="10.751547"><ele>0</ele></trkpt>
      <trkpt lat="33.724633" lon="10.751883"><ele>0</ele></trkpt>
      <trkpt lat="33.724333" lon="10.752062"><ele>0</ele></trkpt>
      <trkpt lat="33.724291" lon="10.751879"><ele>0</ele></trkpt>
      <trkpt lat="33.724212" lon="10.751475"><ele>0</ele></trkpt>
      <trkpt lat="33.724198" lon="10.751357"><ele>0</ele></trkpt>
      <trkpt lat="33.724051" lon="10.751312"><ele>0</ele></trkpt>
      <trkpt lat="33.724012" lon="10.751281"><ele>0</ele></trkpt>
      <trkpt lat="33.723966" lon="10.751227"><ele>0</ele></trkpt>
      <trkpt lat="33.723852" lon="10.751037"><ele>0</ele></trkpt>
      <trkpt lat="33.723587" lon="10.750494"><ele>0</ele></trkpt>
      <trkpt lat="33.723766" lon="10.750358"><ele>0</ele></trkpt>
      <trkpt lat="33.723821" lon="10.750325"><ele>0</ele></trkpt>
      <trkpt lat="33.723827" lon="10.750219"><ele>0</ele></trkpt>
      <trkpt lat="33.723851" lon="10.750101"><ele>0</ele></trkpt>
      <trkpt lat="33.723898" lon="10.750011"><ele>0</ele></trkpt>
      <trkpt lat="33.723963" lon="10.749919"><ele>0</ele></trkpt>
      <trkpt lat="33.724074" lon="10.749788"><ele>0</ele></trkpt>
      <trkpt lat="33.724052" lon="10.749681"><ele>0</ele></trkpt>
      <trkpt lat="33.724054" lon="10.74957"><ele>0</ele></trkpt>
      <trkpt lat="33.724072" lon="10.749485"><ele>0</ele></trkpt>
      <trkpt lat="33.72412" lon="10.749381"><ele>0</ele></trkpt>
      <trkpt lat="33.723976" lon="10.749123"><ele>0</ele></trkpt>
      <trkpt lat="33.723925" lon="10.749013"><ele>0</ele></trkpt>
      <trkpt lat="33.723874" lon="10.748936"><ele>0</ele></trkpt>
      <trkpt lat="33.724159" lon="10.748668"><ele>0</ele></trkpt>
      <trkpt lat="33.724178" lon="10.748693"><ele>0</ele></trkpt>
      <trkpt lat="33.724221" lon="10.748656"><ele>0</ele></trkpt>
      <trkpt lat="33.724259" lon="10.748642"><ele>0</ele></trkpt>
      <trkpt lat="33.724284" lon="10.748637"><ele>0</ele></trkpt>
      <trkpt lat="33.724353" lon="10.748627"><ele>0</ele></trkpt>
      <trkpt lat="33.724451" lon="10.748577"><ele>0</ele></trkpt>
      <trkpt lat="33.72447" lon="10.748584"><ele>0</ele></trkpt>
      <trkpt lat="33.724496" lon="10.748619"><ele>0</ele></trkpt>
      <trkpt lat="33.724514" lon="10.748627"><ele>0</ele></trkpt>
      <trkpt lat="33.724531" lon="10.748626"><ele>0</ele></trkpt>
      <trkpt lat="33.724723" lon="10.748429"><ele>0</ele></trkpt>
      <trkpt lat="33.724754" lon="10.74848"><ele>0</ele></trkpt>
      <trkpt lat="33.724763" lon="10.748443"><ele>0</ele></trkpt>
      <trkpt lat="33.724781" lon="10.748411"><ele>0</ele></trkpt>
      <trkpt lat="33.724806" lon="10.748387"><ele>0</ele></trkpt>
      <trkpt lat="33.724836" lon="10.748373"><ele>0</ele></trkpt>
      <trkpt lat="33.724864" lon="10.748371"><ele>0</ele></trkpt>
      <trkpt lat="33.724832" lon="10.748296"><ele>0</ele></trkpt>
      <trkpt lat="33.724785" lon="10.74817"><ele>0</ele></trkpt>
      <trkpt lat="33.724734" lon="10.74804"><ele>0</ele></trkpt>
      <trkpt lat="33.724584" lon="10.74779"><ele>0</ele></trkpt>
      <trkpt lat="33.724163" lon="10.747119"><ele>0</ele></trkpt>
      <trkpt lat="33.724663" lon="10.746533"><ele>0</ele></trkpt>
      <trkpt lat="33.724643" lon="10.746507"><ele>0</ele></trkpt>
      <trkpt lat="33.724397" lon="10.746204"><ele>0</ele></trkpt>
      <trkpt lat="33.723944" lon="10.745627"><ele>0</ele></trkpt>
      <trkpt lat="33.723761" lon="10.745361"><ele>0</ele></trkpt>
      <trkpt lat="33.723638" lon="10.745135"><ele>0</ele></trkpt>
      <trkpt lat="33.723608" lon="10.745082"><ele>0</ele></trkpt>
      <trkpt lat="33.723398" lon="10.745259"><ele>0</ele></trkpt>
      <trkpt lat="33.723372" lon="10.745272"><ele>0</ele></trkpt>
      <trkpt lat="33.723346" lon="10.745275"><ele>0</ele></trkpt>
      <trkpt lat="33.723323" lon="10.745269"><ele>0</ele></trkpt>
      <trkpt lat="33.723301" lon="10.745254"><ele>0</ele></trkpt>
      <trkpt lat="33.723137" lon="10.745027"><ele>0</ele></trkpt>
      <trkpt lat="33.722854" lon="10.745327"><ele>0</ele></trkpt>
      <trkpt lat="33.722574" lon="10.745603"><ele>0</ele></trkpt>
      <trkpt lat="33.721841" lon="10.744544"><ele>0</ele></trkpt>
      <trkpt lat="33.721644" lon="10.744804"><ele>0</ele></trkpt>
      <trkpt lat="33.721272" lon="10.744435"><ele>0</ele></trkpt>
      <trkpt lat="33.721232" lon="10.744484"><ele>0</ele></trkpt>
      <trkpt lat="33.720926" lon="10.744965"><ele>0</ele></trkpt>
      <trkpt lat="33.720518" lon="10.744605"><ele>0</ele></trkpt>
      <trkpt lat="33.720383" lon="10.744816"><ele>0</ele></trkpt>
      <trkpt lat="33.720224" lon="10.745098"><ele>0</ele></trkpt>
      <trkpt lat="33.71984" lon="10.744771"><ele>0</ele></trkpt>
      <trkpt lat="33.719963" lon="10.744546"><ele>0</ele></trkpt>
      <trkpt lat="33.719843" lon="10.74443"><ele>0</ele></trkpt>
      <trkpt lat="33.719748" lon="10.744351"><ele>0</ele></trkpt></trkseg></trk></gpx>