<?xml version="1.0" encoding="UTF-8"?><gpx version="1.1" creator="Heripia 3.7.387" xmlns="http://www.topografix.com/GPX/1/1" xmlns:xsi="http://www.w3.org/2001/XMLSchema-instance" xsi:schemaLocation="http://www.topografix.com/GPX/1/1 http://www.topografix.com/GPX/1/1/gpx.xsd">
    <metadata>
        <name>Circuit de Mosquée Braa à Mosquée Hadherbach</name>
        <desc>Circuit généré par Heripia — heripia.com</desc>
        <link href="https://heripia.com/">
            <text>Heripia [HW-ID:HW-01KKDSEVGXXB4Q4GMRC9YJDET6]</text>
        </link>
    </metadata>
    <wpt lat="33.791889" lon="10.951278">
      <name>Mosquée Braa</name>
      <desc></desc>
    </wpt>
    <wpt lat="33.796345" lon="10.964379">
      <name>Mosquée El Kateb</name>
      <desc></desc>
    </wpt>
    <wpt lat="33.79195986809296" lon="10.970237553119661">
      <name>Mausolée Sidi Saïd</name>
      <desc></desc>
    </wpt>
    <wpt lat="33.795488" lon="10.9775885">
      <name>Mosquée Errhama</name>
      <desc></desc>
    </wpt>
    <wpt lat="33.801556" lon="10.984389">
      <name>Mosquée Hadherbach</name>
      <desc></desc>
      <link href="http://palaisbenayed.com/la-mosquee-hadher-bach-%D8%AC%D8%A7%D9%85%D8%B9-%D8%AD%D8%A7%D8%B6%D8%B1-%D8%A8%D8%A7%D8%B4
Répertoire J. Fathallah, n° 223 | http://palaisbenayed.com/wp-content/uploads/2021/03/r%C3%A9pertoire-des-mosqu%C3%A9es-de-Djerba.pdf">
        <text>Lien vers le site</text>
      </link>
    </wpt><trk><name>Circuit de Mosquée Braa à Mosquée Hadherbach</name><desc><![CDATA[Circuit généré par Heripia — heripia.com]]></desc><trkseg><trkpt lat="33.791972" lon="10.951425"><ele>0</ele></trkpt>
      <trkpt lat="33.791882" lon="10.951528"><ele>0</ele></trkpt>
      <trkpt lat="33.791839" lon="10.951561"><ele>0</ele></trkpt>
      <trkpt lat="33.791781" lon="10.951579"><ele>0</ele></trkpt>
      <trkpt lat="33.791641" lon="10.951567"><ele>0</ele></trkpt>
      <trkpt lat="33.791593" lon="10.951551"><ele>0</ele></trkpt>
      <trkpt lat="33.791521" lon="10.951504"><ele>0</ele></trkpt>
      <trkpt lat="33.791689" lon="10.951812"><ele>0</ele></trkpt>
      <trkpt lat="33.791861" lon="10.952086"><ele>0</ele></trkpt>
      <trkpt lat="33.791876" lon="10.952121"><ele>0</ele></trkpt>
      <trkpt lat="33.791879" lon="10.952149"><ele>0</ele></trkpt>
      <trkpt lat="33.791869" lon="10.952198"><ele>0</ele></trkpt>
      <trkpt lat="33.79168" lon="10.952463"><ele>0</ele></trkpt>
      <trkpt lat="33.7916" lon="10.952585"><ele>0</ele></trkpt>
      <trkpt lat="33.791501" lon="10.952714"><ele>0</ele></trkpt>
      <trkpt lat="33.791578" lon="10.952782"><ele>0</ele></trkpt>
      <trkpt lat="33.791643" lon="10.952853"><ele>0</ele></trkpt>
      <trkpt lat="33.791681" lon="10.952897"><ele>0</ele></trkpt>
      <trkpt lat="33.791724" lon="10.952967"><ele>0</ele></trkpt>
      <trkpt lat="33.791833" lon="10.953167"><ele>0</ele></trkpt>
      <trkpt lat="33.791879" lon="10.953289"><ele>0</ele></trkpt>
      <trkpt lat="33.79191" lon="10.953416"><ele>0</ele></trkpt>
      <trkpt lat="33.791949" lon="10.953533"><ele>0</ele></trkpt>
      <trkpt lat="33.792074" lon="10.953748"><ele>0</ele></trkpt>
      <trkpt lat="33.792249" lon="10.954005"><ele>0</ele></trkpt>
      <trkpt lat="33.792274" lon="10.954034"><ele>0</ele></trkpt>
      <trkpt lat="33.792322" lon="10.954052"><ele>0</ele></trkpt>
      <trkpt lat="33.792346" lon="10.954075"><ele>0</ele></trkpt>
      <trkpt lat="33.792456" lon="10.954265"><ele>0</ele></trkpt>
      <trkpt lat="33.792478" lon="10.954292"><ele>0</ele></trkpt>
      <trkpt lat="33.792546" lon="10.954323"><ele>0</ele></trkpt>
      <trkpt lat="33.792611" lon="10.954366"><ele>0</ele></trkpt>
      <trkpt lat="33.792709" lon="10.954586"><ele>0</ele></trkpt>
      <trkpt lat="33.792752" lon="10.954704"><ele>0</ele></trkpt>
      <trkpt lat="33.792771" lon="10.954799"><ele>0</ele></trkpt>
      <trkpt lat="33.792747" lon="10.954865"><ele>0</ele></trkpt>
      <trkpt lat="33.792746" lon="10.954929"><ele>0</ele></trkpt>
      <trkpt lat="33.792754" lon="10.95496"><ele>0</ele></trkpt>
      <trkpt lat="33.792759" lon="10.954981"><ele>0</ele></trkpt>
      <trkpt lat="33.792851" lon="10.95515"><ele>0</ele></trkpt>
      <trkpt lat="33.792865" lon="10.955205"><ele>0</ele></trkpt>
      <trkpt lat="33.79287" lon="10.955263"><ele>0</ele></trkpt>
      <trkpt lat="33.792864" lon="10.955417"><ele>0</ele></trkpt>
      <trkpt lat="33.79285" lon="10.955524"><ele>0</ele></trkpt>
      <trkpt lat="33.792789" lon="10.955723"><ele>0</ele></trkpt>
      <trkpt lat="33.792744" lon="10.955962"><ele>0</ele></trkpt>
      <trkpt lat="33.792658" lon="10.956247"><ele>0</ele></trkpt>
      <trkpt lat="33.792547" lon="10.95653"><ele>0</ele></trkpt>
      <trkpt lat="33.792361" lon="10.956822"><ele>0</ele></trkpt>
      <trkpt lat="33.792327" lon="10.956864"><ele>0</ele></trkpt>
      <trkpt lat="33.792114" lon="10.957215"><ele>0</ele></trkpt>
      <trkpt lat="33.791927" lon="10.957575"><ele>0</ele></trkpt>
      <trkpt lat="33.792246" lon="10.958019"><ele>0</ele></trkpt>
      <trkpt lat="33.792536" lon="10.958353"><ele>0</ele></trkpt>
      <trkpt lat="33.793065" lon="10.958992"><ele>0</ele></trkpt>
      <trkpt lat="33.792904" lon="10.959623"><ele>0</ele></trkpt>
      <trkpt lat="33.792866" lon="10.959852"><ele>0</ele></trkpt>
      <trkpt lat="33.792861" lon="10.96001"><ele>0</ele></trkpt>
      <trkpt lat="33.793352" lon="10.960042"><ele>0</ele></trkpt>
      <trkpt lat="33.793449" lon="10.960041"><ele>0</ele></trkpt>
      <trkpt lat="33.793615" lon="10.960045"><ele>0</ele></trkpt>
      <trkpt lat="33.794016" lon="10.960042"><ele>0</ele></trkpt>
      <trkpt lat="33.794778" lon="10.960051"><ele>0</ele></trkpt>
      <trkpt lat="33.795041" lon="10.960093"><ele>0</ele></trkpt>
      <trkpt lat="33.795654" lon="10.960238"><ele>0</ele></trkpt>
      <trkpt lat="33.795718" lon="10.960264"><ele>0</ele></trkpt>
      <trkpt lat="33.795703" lon="10.960513"><ele>0</ele></trkpt>
      <trkpt lat="33.795682" lon="10.960667"><ele>0</ele></trkpt>
      <trkpt lat="33.795642" lon="10.960823"><ele>0</ele></trkpt>
      <trkpt lat="33.79608" lon="10.960933"><ele>0</ele></trkpt>
      <trkpt lat="33.796211" lon="10.960975"><ele>0</ele></trkpt>
      <trkpt lat="33.796341" lon="10.961089"><ele>0</ele></trkpt>
      <trkpt lat="33.796514" lon="10.961101"><ele>0</ele></trkpt>
      <trkpt lat="33.796672" lon="10.961034"><ele>0</ele></trkpt>
      <trkpt lat="33.796933" lon="10.961052"><ele>0</ele></trkpt>
      <trkpt lat="33.797073" lon="10.961061"><ele>0</ele></trkpt>
      <trkpt lat="33.796977" lon="10.96222"><ele>0</ele></trkpt>
      <trkpt lat="33.796961" lon="10.962588"><ele>0</ele></trkpt>
      <trkpt lat="33.796962" lon="10.962798"><ele>0</ele></trkpt>
      <trkpt lat="33.796969" lon="10.962889"><ele>0</ele></trkpt>
      <trkpt lat="33.796997" lon="10.963043"><ele>0</ele></trkpt>
      <trkpt lat="33.796991" lon="10.963262"><ele>0</ele></trkpt>
      <trkpt lat="33.796961" lon="10.963451"><ele>0</ele></trkpt>
      <trkpt lat="33.796948" lon="10.963479"><ele>0</ele></trkpt>
      <trkpt lat="33.796944" lon="10.963512"><ele>0</ele></trkpt>
      <trkpt lat="33.796948" lon="10.963544"><ele>0</ele></trkpt>
      <trkpt lat="33.796961" lon="10.963573"><ele>0</ele></trkpt>
      <trkpt lat="33.79698" lon="10.963595"><ele>0</ele></trkpt>
      <trkpt lat="33.797005" lon="10.963609"><ele>0</ele></trkpt>
      <trkpt lat="33.79683" lon="10.963624"><ele>0</ele></trkpt>
      <trkpt lat="33.796828" lon="10.963992"><ele>0</ele></trkpt>
      <trkpt lat="33.796702" lon="10.964005"><ele>0</ele></trkpt>
      <trkpt lat="33.796695" lon="10.964014"><ele>0</ele></trkpt>
      <trkpt lat="33.796708" lon="10.96421"><ele>0</ele></trkpt>
      <trkpt lat="33.796514" lon="10.964244"><ele>0</ele></trkpt>
      <trkpt lat="33.796516" lon="10.964401"><ele>0</ele></trkpt>
      <trkpt lat="33.796514" lon="10.964244"><ele>0</ele></trkpt>
      <trkpt lat="33.796512" lon="10.964218"><ele>0</ele></trkpt>
      <trkpt lat="33.796494" lon="10.963693"><ele>0</ele></trkpt>
      <trkpt lat="33.796193" lon="10.963781"><ele>0</ele></trkpt>
      <trkpt lat="33.796115" lon="10.964114"><ele>0</ele></trkpt>
      <trkpt lat="33.796014" lon="10.964479"><ele>0</ele></trkpt>
      <trkpt lat="33.795937" lon="10.964733"><ele>0</ele></trkpt>
      <trkpt lat="33.795741" lon="10.965306"><ele>0</ele></trkpt>
      <trkpt lat="33.795532" lon="10.965882"><ele>0</ele></trkpt>
      <trkpt lat="33.795366" lon="10.966394"><ele>0</ele></trkpt>
      <trkpt lat="33.795277" lon="10.966701"><ele>0</ele></trkpt>
      <trkpt lat="33.795243" lon="10.966838"><ele>0</ele></trkpt>
      <trkpt lat="33.795221" lon="10.966919"><ele>0</ele></trkpt>
      <trkpt lat="33.795133" lon="10.966915"><ele>0</ele></trkpt>
      <trkpt lat="33.794981" lon="10.966961"><ele>0</ele></trkpt>
      <trkpt lat="33.794928" lon="10.966978"><ele>0</ele></trkpt>
      <trkpt lat="33.79462" lon="10.967136"><ele>0</ele></trkpt>
      <trkpt lat="33.794351" lon="10.967191"><ele>0</ele></trkpt>
      <trkpt lat="33.794307" lon="10.967215"><ele>0</ele></trkpt>
      <trkpt lat="33.794323" lon="10.967385"><ele>0</ele></trkpt>
      <trkpt lat="33.794319" lon="10.967468"><ele>0</ele></trkpt>
      <trkpt lat="33.794285" lon="10.967687"><ele>0</ele></trkpt>
      <trkpt lat="33.794291" lon="10.967851"><ele>0</ele></trkpt>
      <trkpt lat="33.79432" lon="10.967946"><ele>0</ele></trkpt>
      <trkpt lat="33.794351" lon="10.968005"><ele>0</ele></trkpt>
      <trkpt lat="33.794391" lon="10.96814"><ele>0</ele></trkpt>
      <trkpt lat="33.794411" lon="10.968363"><ele>0</ele></trkpt>
      <trkpt lat="33.794492" lon="10.968398"><ele>0</ele></trkpt>
      <trkpt lat="33.794455" lon="10.968484"><ele>0</ele></trkpt>
      <trkpt lat="33.794425" lon="10.968587"><ele>0</ele></trkpt>
      <trkpt lat="33.794397" lon="10.968705"><ele>0</ele></trkpt>
      <trkpt lat="33.794371" lon="10.968868"><ele>0</ele></trkpt>
      <trkpt lat="33.794343" lon="10.969026"><ele>0</ele></trkpt>
      <trkpt lat="33.794282" lon="10.969477"><ele>0</ele></trkpt>
      <trkpt lat="33.794259" lon="10.969702"><ele>0</ele></trkpt>
      <trkpt lat="33.794222" lon="10.969857"><ele>0</ele></trkpt>
      <trkpt lat="33.794194" lon="10.970008"><ele>0</ele></trkpt>
      <trkpt lat="33.794093" lon="10.970616"><ele>0</ele></trkpt>
      <trkpt lat="33.794024" lon="10.970962"><ele>0</ele></trkpt>
      <trkpt lat="33.79395" lon="10.971376"><ele>0</ele></trkpt>
      <trkpt lat="33.793846" lon="10.971886"><ele>0</ele></trkpt>
      <trkpt lat="33.793787" lon="10.971858"><ele>0</ele></trkpt>
      <trkpt lat="33.793726" lon="10.971839"><ele>0</ele></trkpt>
      <trkpt lat="33.79323" lon="10.971758"><ele>0</ele></trkpt>
      <trkpt lat="33.793165" lon="10.97173"><ele>0</ele></trkpt>
      <trkpt lat="33.79312" lon="10.971697"><ele>0</ele></trkpt>
      <trkpt lat="33.793038" lon="10.971579"><ele>0</ele></trkpt>
      <trkpt lat="33.792975" lon="10.971504"><ele>0</ele></trkpt>
      <trkpt lat="33.792924" lon="10.971461"><ele>0</ele></trkpt>
      <trkpt lat="33.792882" lon="10.971436"><ele>0</ele></trkpt>
      <trkpt lat="33.792538" lon="10.971326"><ele>0</ele></trkpt>
      <trkpt lat="33.792253" lon="10.971245"><ele>0</ele></trkpt>
      <trkpt lat="33.792149" lon="10.971215"><ele>0</ele></trkpt>
      <trkpt lat="33.792253" lon="10.971245"><ele>0</ele></trkpt>
      <trkpt lat="33.792538" lon="10.971326"><ele>0</ele></trkpt>
      <trkpt lat="33.792882" lon="10.971436"><ele>0</ele></trkpt>
      <trkpt lat="33.792924" lon="10.971461"><ele>0</ele></trkpt>
      <trkpt lat="33.792975" lon="10.971504"><ele>0</ele></trkpt>
      <trkpt lat="33.793038" lon="10.971579"><ele>0</ele></trkpt>
      <trkpt lat="33.79312" lon="10.971697"><ele>0</ele></trkpt>
      <trkpt lat="33.793165" lon="10.97173"><ele>0</ele></trkpt>
      <trkpt lat="33.79323" lon="10.971758"><ele>0</ele></trkpt>
      <trkpt lat="33.793726" lon="10.971839"><ele>0</ele></trkpt>
      <trkpt lat="33.793787" lon="10.971858"><ele>0</ele></trkpt>
      <trkpt lat="33.793846" lon="10.971886"><ele>0</ele></trkpt>
      <trkpt lat="33.793876" lon="10.971916"><ele>0</ele></trkpt>
      <trkpt lat="33.793913" lon="10.971937"><ele>0</ele></trkpt>
      <trkpt lat="33.794052" lon="10.971939"><ele>0</ele></trkpt>
      <trkpt lat="33.794103" lon="10.971943"><ele>0</ele></trkpt>
      <trkpt lat="33.794128" lon="10.971952"><ele>0</ele></trkpt>
      <trkpt lat="33.794279" lon="10.972107"><ele>0</ele></trkpt>
      <trkpt lat="33.794307" lon="10.972198"><ele>0</ele></trkpt>
      <trkpt lat="33.794474" lon="10.972884"><ele>0</ele></trkpt>
      <trkpt lat="33.7945" lon="10.972957"><ele>0</ele></trkpt>
      <trkpt lat="33.79454" lon="10.973044"><ele>0</ele></trkpt>
      <trkpt lat="33.794649" lon="10.973227"><ele>0</ele></trkpt>
      <trkpt lat="33.794732" lon="10.973349"><ele>0</ele></trkpt>
      <trkpt lat="33.794941" lon="10.973568"><ele>0</ele></trkpt>
      <trkpt lat="33.795046" lon="10.973692"><ele>0</ele></trkpt>
      <trkpt lat="33.795117" lon="10.973788"><ele>0</ele></trkpt>
      <trkpt lat="33.795138" lon="10.973835"><ele>0</ele></trkpt>
      <trkpt lat="33.795175" lon="10.974012"><ele>0</ele></trkpt>
      <trkpt lat="33.795216" lon="10.974315"><ele>0</ele></trkpt>
      <trkpt lat="33.795242" lon="10.974649"><ele>0</ele></trkpt>
      <trkpt lat="33.795197" lon="10.974966"><ele>0</ele></trkpt>
      <trkpt lat="33.79519" lon="10.975156"><ele>0</ele></trkpt>
      <trkpt lat="33.795201" lon="10.975313"><ele>0</ele></trkpt>
      <trkpt lat="33.795354" lon="10.976286"><ele>0</ele></trkpt>
      <trkpt lat="33.795419" lon="10.976876"><ele>0</ele></trkpt>
      <trkpt lat="33.795417" lon="10.976996"><ele>0</ele></trkpt>
      <trkpt lat="33.795425" lon="10.977242"><ele>0</ele></trkpt>
      <trkpt lat="33.79544" lon="10.977332"><ele>0</ele></trkpt>
      <trkpt lat="33.795486" lon="10.977538"><ele>0</ele></trkpt>
      <trkpt lat="33.795498" lon="10.977584"><ele>0</ele></trkpt>
      <trkpt lat="33.795598" lon="10.977937"><ele>0</ele></trkpt>
      <trkpt lat="33.795678" lon="10.978454"><ele>0</ele></trkpt>
      <trkpt lat="33.795699" lon="10.978649"><ele>0</ele></trkpt>
      <trkpt lat="33.79569" lon="10.978999"><ele>0</ele></trkpt>
      <trkpt lat="33.795672" lon="10.979426"><ele>0</ele></trkpt>
      <trkpt lat="33.795583" lon="10.980058"><ele>0</ele></trkpt>
      <trkpt lat="33.795558" lon="10.98041"><ele>0</ele></trkpt>
      <trkpt lat="33.79553" lon="10.980583"><ele>0</ele></trkpt>
      <trkpt lat="33.795776" lon="10.98064"><ele>0</ele></trkpt>
      <trkpt lat="33.795935" lon="10.980659"><ele>0</ele></trkpt>
      <trkpt lat="33.796361" lon="10.980748"><ele>0</ele></trkpt>
      <trkpt lat="33.797019" lon="10.980868"><ele>0</ele></trkpt>
      <trkpt lat="33.796984" lon="10.981499"><ele>0</ele></trkpt>
      <trkpt lat="33.79699" lon="10.981618"><ele>0</ele></trkpt>
      <trkpt lat="33.797009" lon="10.981729"><ele>0</ele></trkpt>
      <trkpt lat="33.797066" lon="10.981923"><ele>0</ele></trkpt>
      <trkpt lat="33.796986" lon="10.982001"><ele>0</ele></trkpt>
      <trkpt lat="33.79696" lon="10.982049"><ele>0</ele></trkpt>
      <trkpt lat="33.796942" lon="10.982443"><ele>0</ele></trkpt>
      <trkpt lat="33.79691" lon="10.982757"><ele>0</ele></trkpt>
      <trkpt lat="33.796921" lon="10.983163"><ele>0</ele></trkpt>
      <trkpt lat="33.796999" lon="10.983443"><ele>0</ele></trkpt>
      <trkpt lat="33.797117" lon="10.983694"><ele>0</ele></trkpt>
      <trkpt lat="33.79717" lon="10.983831"><ele>0</ele></trkpt>
      <trkpt lat="33.797207" lon="10.984009"><ele>0</ele></trkpt>
      <trkpt lat="33.797253" lon="10.984161"><ele>0</ele></trkpt>
      <trkpt lat="33.797319" lon="10.984322"><ele>0</ele></trkpt>
      <trkpt lat="33.797406" lon="10.984483"><ele>0</ele></trkpt>
      <trkpt lat="33.797446" lon="10.9846"><ele>0</ele></trkpt>
      <trkpt lat="33.797467" lon="10.984725"><ele>0</ele></trkpt>
      <trkpt lat="33.797494" lon="10.98504"><ele>0</ele></trkpt>
      <trkpt lat="33.797489" lon="10.985182"><ele>0</ele></trkpt>
      <trkpt lat="33.797448" lon="10.985421"><ele>0</ele></trkpt>
      <trkpt lat="33.797424" lon="10.985466"><ele>0</ele></trkpt>
      <trkpt lat="33.797391" lon="10.985495"><ele>0</ele></trkpt>
      <trkpt lat="33.797261" lon="10.985544"><ele>0</ele></trkpt>
      <trkpt lat="33.797209" lon="10.985575"><ele>0</ele></trkpt>
      <trkpt lat="33.797174" lon="10.985616"><ele>0</ele></trkpt>
      <trkpt lat="33.797261" lon="10.986017"><ele>0</ele></trkpt>
      <trkpt lat="33.797339" lon="10.986464"><ele>0</ele></trkpt>
      <trkpt lat="33.797368" lon="10.986584"><ele>0</ele></trkpt>
      <trkpt lat="33.797413" lon="10.986673"><ele>0</ele></trkpt>
      <trkpt lat="33.797429" lon="10.986724"><ele>0</ele></trkpt>
      <trkpt lat="33.797444" lon="10.98688"><ele>0</ele></trkpt>
      <trkpt lat="33.797509" lon="10.987179"><ele>0</ele></trkpt>
      <trkpt lat="33.797619" lon="10.98738"><ele>0</ele></trkpt>
      <trkpt lat="33.797649" lon="10.9874"><ele>0</ele></trkpt>
      <trkpt lat="33.797701" lon="10.987404"><ele>0</ele></trkpt>
      <trkpt lat="33.798018" lon="10.98736"><ele>0</ele></trkpt>
      <trkpt lat="33.79811" lon="10.987342"><ele>0</ele></trkpt>
      <trkpt lat="33.798152" lon="10.987343"><ele>0</ele></trkpt>
      <trkpt lat="33.798216" lon="10.987367"><ele>0</ele></trkpt>
      <trkpt lat="33.798302" lon="10.987317"><ele>0</ele></trkpt>
      <trkpt lat="33.798323" lon="10.987259"><ele>0</ele></trkpt>
      <trkpt lat="33.798333" lon="10.987104"><ele>0</ele></trkpt>
      <trkpt lat="33.798327" lon="10.986882"><ele>0</ele></trkpt>
      <trkpt lat="33.798349" lon="10.986787"><ele>0</ele></trkpt>
      <trkpt lat="33.798377" lon="10.986727"><ele>0</ele></trkpt>
      <trkpt lat="33.798513" lon="10.986551"><ele>0</ele></trkpt>
      <trkpt lat="33.798535" lon="10.986513"><ele>0</ele></trkpt>
      <trkpt lat="33.798561" lon="10.986306"><ele>0</ele></trkpt>
      <trkpt lat="33.798594" lon="10.986224"><ele>0</ele></trkpt>
      <trkpt lat="33.798656" lon="10.986135"><ele>0</ele></trkpt>
      <trkpt lat="33.798713" lon="10.986096"><ele>0</ele></trkpt>
      <trkpt lat="33.798764" lon="10.986072"><ele>0</ele></trkpt>
      <trkpt lat="33.798934" lon="10.986027"><ele>0</ele></trkpt>
      <trkpt lat="33.799112" lon="10.985974"><ele>0</ele></trkpt>
      <trkpt lat="33.79918" lon="10.985942"><ele>0</ele></trkpt>
      <trkpt lat="33.799349" lon="10.985829"><ele>0</ele></trkpt>
      <trkpt lat="33.799407" lon="10.985807"><ele>0</ele></trkpt>
      <trkpt lat="33.799509" lon="10.985785"><ele>0</ele></trkpt>
      <trkpt lat="33.799616" lon="10.985783"><ele>0</ele></trkpt>
      <trkpt lat="33.799892" lon="10.985756"><ele>0</ele></trkpt>
      <trkpt lat="33.79995" lon="10.985726"><ele>0</ele></trkpt>
      <trkpt lat="33.800018" lon="10.985682"><ele>0</ele></trkpt>
      <trkpt lat="33.800219" lon="10.985491"><ele>0</ele></trkpt>
      <trkpt lat="33.800712" lon="10.985053"><ele>0</ele></trkpt>
      <trkpt lat="33.80091" lon="10.984926"><ele>0</ele></trkpt>
      <trkpt lat="33.800975" lon="10.984892"><ele>0</ele></trkpt>
      <trkpt lat="33.801116" lon="10.98485"><ele>0</ele></trkpt>
      <trkpt lat="33.801152" lon="10.984823"><ele>0</ele></trkpt>
      <trkpt lat="33.801349" lon="10.984734"><ele>0</ele></trkpt>
      <trkpt lat="33.801722" lon="10.984589"><ele>0</ele></trkpt></trkseg></trk></gpx>