<?xml version="1.0" encoding="UTF-8"?><gpx version="1.1" creator="Heripia 3.7.391" xmlns="http://www.topografix.com/GPX/1/1" xmlns:xsi="http://www.w3.org/2001/XMLSchema-instance" xsi:schemaLocation="http://www.topografix.com/GPX/1/1 http://www.topografix.com/GPX/1/1/gpx.xsd">
    <metadata>
        <name>Circuit de Mosquée AsSalam à Mosquée Al-Hajar</name>
        <desc>Circuit généré par Heripia — heripia.com</desc>
        <link href="https://heripia.com/">
            <text>Heripia [HW-ID:HW-1771578509993]</text>
        </link>
    </metadata>
    <wpt lat="33.763551" lon="11.01767">
      <name>Mosquée AsSalam</name>
      <desc></desc>
    </wpt>
    <wpt lat="33.782083" lon="11.010306">
      <name>Mosquée Arkou</name>
      <desc></desc>
    </wpt>
    <wpt lat="33.785139" lon="11.006139">
      <name>Huilerie Omar Ben Hamza</name>
      <desc></desc>
    </wpt>
    <wpt lat="33.784694" lon="10.999944">
      <name>Mosquée El Azmouni</name>
      <desc></desc>
    </wpt>
    <wpt lat="33.791639" lon="10.999861">
      <name>Mausolée Omi Mené</name>
      <desc></desc>
    </wpt>
    <wpt lat="33.794417" lon="10.995083">
      <name>Mosquée Ben Amara</name>
      <desc></desc>
    </wpt>
    <wpt lat="33.80739830042143" lon="10.991703271865847">
      <name>Taxi de Midoun</name>
      <desc></desc>
    </wpt>
    <wpt lat="33.76172488185075" lon="11.006959684785162">
      <name>Mosquée Al-Hajar</name>
      <desc></desc>
    </wpt><trk><name>Circuit de Mosquée AsSalam à Mosquée Al-Hajar</name><desc><![CDATA[Circuit généré par Heripia — heripia.com]]></desc><trkseg><trkpt lat="33.763581" lon="11.01742"><ele>0</ele></trkpt>
      <trkpt lat="33.763794" lon="11.017326"><ele>0</ele></trkpt>
      <trkpt lat="33.764207" lon="11.017116"><ele>0</ele></trkpt>
      <trkpt lat="33.764249" lon="11.017102"><ele>0</ele></trkpt>
      <trkpt lat="33.764269" lon="11.017105"><ele>0</ele></trkpt>
      <trkpt lat="33.764284" lon="11.017116"><ele>0</ele></trkpt>
      <trkpt lat="33.764319" lon="11.017162"><ele>0</ele></trkpt>
      <trkpt lat="33.764394" lon="11.017306"><ele>0</ele></trkpt>
      <trkpt lat="33.764566" lon="11.017681"><ele>0</ele></trkpt>
      <trkpt lat="33.765097" lon="11.017299"><ele>0</ele></trkpt>
      <trkpt lat="33.765223" lon="11.0172"><ele>0</ele></trkpt>
      <trkpt lat="33.765865" lon="11.018089"><ele>0</ele></trkpt>
      <trkpt lat="33.766072" lon="11.017943"><ele>0</ele></trkpt>
      <trkpt lat="33.766387" lon="11.017762"><ele>0</ele></trkpt>
      <trkpt lat="33.766598" lon="11.017623"><ele>0</ele></trkpt>
      <trkpt lat="33.766696" lon="11.017524"><ele>0</ele></trkpt>
      <trkpt lat="33.767019" lon="11.017156"><ele>0</ele></trkpt>
      <trkpt lat="33.767256" lon="11.016907"><ele>0</ele></trkpt>
      <trkpt lat="33.767771" lon="11.016398"><ele>0</ele></trkpt>
      <trkpt lat="33.769101" lon="11.014943"><ele>0</ele></trkpt>
      <trkpt lat="33.769273" lon="11.014744"><ele>0</ele></trkpt>
      <trkpt lat="33.769667" lon="11.014329"><ele>0</ele></trkpt>
      <trkpt lat="33.769878" lon="11.014051"><ele>0</ele></trkpt>
      <trkpt lat="33.770409" lon="11.013503"><ele>0</ele></trkpt>
      <trkpt lat="33.770517" lon="11.013383"><ele>0</ele></trkpt>
      <trkpt lat="33.770571" lon="11.013334"><ele>0</ele></trkpt>
      <trkpt lat="33.770618" lon="11.013304"><ele>0</ele></trkpt>
      <trkpt lat="33.770776" lon="11.013235"><ele>0</ele></trkpt>
      <trkpt lat="33.771106" lon="11.013114"><ele>0</ele></trkpt>
      <trkpt lat="33.77134" lon="11.013034"><ele>0</ele></trkpt>
      <trkpt lat="33.771399" lon="11.01302"><ele>0</ele></trkpt>
      <trkpt lat="33.771467" lon="11.013013"><ele>0</ele></trkpt>
      <trkpt lat="33.771576" lon="11.013025"><ele>0</ele></trkpt>
      <trkpt lat="33.771627" lon="11.013047"><ele>0</ele></trkpt>
      <trkpt lat="33.771668" lon="11.013077"><ele>0</ele></trkpt>
      <trkpt lat="33.771764" lon="11.013116"><ele>0</ele></trkpt>
      <trkpt lat="33.771839" lon="11.013132"><ele>0</ele></trkpt>
      <trkpt lat="33.771886" lon="11.013131"><ele>0</ele></trkpt>
      <trkpt lat="33.772144" lon="11.013254"><ele>0</ele></trkpt>
      <trkpt lat="33.772431" lon="11.013418"><ele>0</ele></trkpt>
      <trkpt lat="33.772688" lon="11.01355"><ele>0</ele></trkpt>
      <trkpt lat="33.772755" lon="11.013596"><ele>0</ele></trkpt>
      <trkpt lat="33.772797" lon="11.013615"><ele>0</ele></trkpt>
      <trkpt lat="33.773275" lon="11.013807"><ele>0</ele></trkpt>
      <trkpt lat="33.773314" lon="11.013835"><ele>0</ele></trkpt>
      <trkpt lat="33.773343" lon="11.013872"><ele>0</ele></trkpt>
      <trkpt lat="33.77344" lon="11.014028"><ele>0</ele></trkpt>
      <trkpt lat="33.773456" lon="11.014047"><ele>0</ele></trkpt>
      <trkpt lat="33.773494" lon="11.014073"><ele>0</ele></trkpt>
      <trkpt lat="33.773546" lon="11.014085"><ele>0</ele></trkpt>
      <trkpt lat="33.773594" lon="11.014079"><ele>0</ele></trkpt>
      <trkpt lat="33.77369" lon="11.014009"><ele>0</ele></trkpt>
      <trkpt lat="33.773739" lon="11.013988"><ele>0</ele></trkpt>
      <trkpt lat="33.773774" lon="11.013988"><ele>0</ele></trkpt>
      <trkpt lat="33.773806" lon="11.013998"><ele>0</ele></trkpt>
      <trkpt lat="33.773858" lon="11.01403"><ele>0</ele></trkpt>
      <trkpt lat="33.773888" lon="11.014064"><ele>0</ele></trkpt>
      <trkpt lat="33.773913" lon="11.014106"><ele>0</ele></trkpt>
      <trkpt lat="33.77395" lon="11.014191"><ele>0</ele></trkpt>
      <trkpt lat="33.773979" lon="11.014283"><ele>0</ele></trkpt>
      <trkpt lat="33.774043" lon="11.014577"><ele>0</ele></trkpt>
      <trkpt lat="33.774108" lon="11.014823"><ele>0</ele></trkpt>
      <trkpt lat="33.774332" lon="11.014749"><ele>0</ele></trkpt>
      <trkpt lat="33.774792" lon="11.014567"><ele>0</ele></trkpt>
      <trkpt lat="33.775789" lon="11.014139"><ele>0</ele></trkpt>
      <trkpt lat="33.776012" lon="11.014035"><ele>0</ele></trkpt>
      <trkpt lat="33.776284" lon="11.013923"><ele>0</ele></trkpt>
      <trkpt lat="33.776442" lon="11.013791"><ele>0</ele></trkpt>
      <trkpt lat="33.776699" lon="11.013497"><ele>0</ele></trkpt>
      <trkpt lat="33.776888" lon="11.013352"><ele>0</ele></trkpt>
      <trkpt lat="33.777114" lon="11.013217"><ele>0</ele></trkpt>
      <trkpt lat="33.777359" lon="11.013055"><ele>0</ele></trkpt>
      <trkpt lat="33.77794" lon="11.012765"><ele>0</ele></trkpt>
      <trkpt lat="33.778094" lon="11.012705"><ele>0</ele></trkpt>
      <trkpt lat="33.778143" lon="11.012675"><ele>0</ele></trkpt>
      <trkpt lat="33.779062" lon="11.012141"><ele>0</ele></trkpt>
      <trkpt lat="33.779201" lon="11.012071"><ele>0</ele></trkpt>
      <trkpt lat="33.779394" lon="11.01199"><ele>0</ele></trkpt>
      <trkpt lat="33.779497" lon="11.011933"><ele>0</ele></trkpt>
      <trkpt lat="33.77968" lon="11.011791"><ele>0</ele></trkpt>
      <trkpt lat="33.779852" lon="11.011636"><ele>0</ele></trkpt>
      <trkpt lat="33.780423" lon="11.01122"><ele>0</ele></trkpt>
      <trkpt lat="33.780544" lon="11.011081"><ele>0</ele></trkpt>
      <trkpt lat="33.780654" lon="11.01094"><ele>0</ele></trkpt>
      <trkpt lat="33.780749" lon="11.010812"><ele>0</ele></trkpt>
      <trkpt lat="33.780869" lon="11.01068"><ele>0</ele></trkpt>
      <trkpt lat="33.781026" lon="11.01054"><ele>0</ele></trkpt>
      <trkpt lat="33.781369" lon="11.010274"><ele>0</ele></trkpt>
      <trkpt lat="33.781599" lon="11.010078"><ele>0</ele></trkpt>
      <trkpt lat="33.781793" lon="11.009926"><ele>0</ele></trkpt>
      <trkpt lat="33.781843" lon="11.00989"><ele>0</ele></trkpt>
      <trkpt lat="33.781968" lon="11.009828"><ele>0</ele></trkpt>
      <trkpt lat="33.782165" lon="11.009748"><ele>0</ele></trkpt>
      <trkpt lat="33.782203" lon="11.010383"><ele>0</ele></trkpt>
      <trkpt lat="33.782146" lon="11.010416"><ele>0</ele></trkpt>
      <trkpt lat="33.782203" lon="11.010383"><ele>0</ele></trkpt>
      <trkpt lat="33.782165" lon="11.009748"><ele>0</ele></trkpt>
      <trkpt lat="33.782145" lon="11.009399"><ele>0</ele></trkpt>
      <trkpt lat="33.78235" lon="11.009073"><ele>0</ele></trkpt>
      <trkpt lat="33.782466" lon="11.008894"><ele>0</ele></trkpt>
      <trkpt lat="33.782583" lon="11.008741"><ele>0</ele></trkpt>
      <trkpt lat="33.782855" lon="11.008408"><ele>0</ele></trkpt>
      <trkpt lat="33.782936" lon="11.008329"><ele>0</ele></trkpt>
      <trkpt lat="33.783081" lon="11.008217"><ele>0</ele></trkpt>
      <trkpt lat="33.783443" lon="11.007987"><ele>0</ele></trkpt>
      <trkpt lat="33.783583" lon="11.007852"><ele>0</ele></trkpt>
      <trkpt lat="33.783706" lon="11.007756"><ele>0</ele></trkpt>
      <trkpt lat="33.784112" lon="11.007483"><ele>0</ele></trkpt>
      <trkpt lat="33.784199" lon="11.0074"><ele>0</ele></trkpt>
      <trkpt lat="33.784292" lon="11.007302"><ele>0</ele></trkpt>
      <trkpt lat="33.784417" lon="11.007283"><ele>0</ele></trkpt>
      <trkpt lat="33.784462" lon="11.00726"><ele>0</ele></trkpt>
      <trkpt lat="33.784553" lon="11.007184"><ele>0</ele></trkpt>
      <trkpt lat="33.784681" lon="11.00709"><ele>0</ele></trkpt>
      <trkpt lat="33.784725" lon="11.007066"><ele>0</ele></trkpt>
      <trkpt lat="33.784796" lon="11.007045"><ele>0</ele></trkpt>
      <trkpt lat="33.785019" lon="11.007019"><ele>0</ele></trkpt>
      <trkpt lat="33.785124" lon="11.006987"><ele>0</ele></trkpt>
      <trkpt lat="33.785267" lon="11.006915"><ele>0</ele></trkpt>
      <trkpt lat="33.785498" lon="11.006838"><ele>0</ele></trkpt>
      <trkpt lat="33.78562" lon="11.006746"><ele>0</ele></trkpt>
      <trkpt lat="33.785843" lon="11.006626"><ele>0</ele></trkpt>
      <trkpt lat="33.786456" lon="11.006351"><ele>0</ele></trkpt>
      <trkpt lat="33.786602" lon="11.006241"><ele>0</ele></trkpt>
      <trkpt lat="33.786615" lon="11.006226"><ele>0</ele></trkpt>
      <trkpt lat="33.786637" lon="11.006177"><ele>0</ele></trkpt>
      <trkpt lat="33.786642" lon="11.006139"><ele>0</ele></trkpt>
      <trkpt lat="33.786639" lon="11.006084"><ele>0</ele></trkpt>
      <trkpt lat="33.786605" lon="11.006012"><ele>0</ele></trkpt>
      <trkpt lat="33.786548" lon="11.006003"><ele>0</ele></trkpt>
      <trkpt lat="33.786524" lon="11.006008"><ele>0</ele></trkpt>
      <trkpt lat="33.786465" lon="11.00604"><ele>0</ele></trkpt>
      <trkpt lat="33.786154" lon="11.006078"><ele>0</ele></trkpt>
      <trkpt lat="33.785846" lon="11.006075"><ele>0</ele></trkpt>
      <trkpt lat="33.785814" lon="11.006082"><ele>0</ele></trkpt>
      <trkpt lat="33.785736" lon="11.006125"><ele>0</ele></trkpt>
      <trkpt lat="33.785713" lon="11.006131"><ele>0</ele></trkpt>
      <trkpt lat="33.785696" lon="11.006105"><ele>0</ele></trkpt>
      <trkpt lat="33.785662" lon="11.006088"><ele>0</ele></trkpt>
      <trkpt lat="33.785647" lon="11.006072"><ele>0</ele></trkpt>
      <trkpt lat="33.785591" lon="11.005967"><ele>0</ele></trkpt>
      <trkpt lat="33.785466" lon="11.005821"><ele>0</ele></trkpt>
      <trkpt lat="33.78534" lon="11.005741"><ele>0</ele></trkpt>
      <trkpt lat="33.785105" lon="11.005591"><ele>0</ele></trkpt>
      <trkpt lat="33.784914" lon="11.005465"><ele>0</ele></trkpt>
      <trkpt lat="33.78472" lon="11.005353"><ele>0</ele></trkpt>
      <trkpt lat="33.784552" lon="11.005281"><ele>0</ele></trkpt>
      <trkpt lat="33.784098" lon="11.005493"><ele>0</ele></trkpt>
      <trkpt lat="33.784048" lon="11.005371"><ele>0</ele></trkpt>
      <trkpt lat="33.783698" lon="11.004398"><ele>0</ele></trkpt>
      <trkpt lat="33.78366" lon="11.004259"><ele>0</ele></trkpt>
      <trkpt lat="33.78365" lon="11.004178"><ele>0</ele></trkpt>
      <trkpt lat="33.783658" lon="11.004099"><ele>0</ele></trkpt>
      <trkpt lat="33.783667" lon="11.004034"><ele>0</ele></trkpt>
      <trkpt lat="33.78369" lon="11.00397"><ele>0</ele></trkpt>
      <trkpt lat="33.783741" lon="11.003945"><ele>0</ele></trkpt>
      <trkpt lat="33.783775" lon="11.003947"><ele>0</ele></trkpt>
      <trkpt lat="33.783748" lon="11.003908"><ele>0</ele></trkpt>
      <trkpt lat="33.783734" lon="11.003845"><ele>0</ele></trkpt>
      <trkpt lat="33.783817" lon="11.003611"><ele>0</ele></trkpt>
      <trkpt lat="33.78394" lon="11.003369"><ele>0</ele></trkpt>
      <trkpt lat="33.783969" lon="11.003322"><ele>0</ele></trkpt>
      <trkpt lat="33.784003" lon="11.003267"><ele>0</ele></trkpt>
      <trkpt lat="33.784052" lon="11.003152"><ele>0</ele></trkpt>
      <trkpt lat="33.78407" lon="11.003056"><ele>0</ele></trkpt>
      <trkpt lat="33.784071" lon="11.002503"><ele>0</ele></trkpt>
      <trkpt lat="33.784081" lon="11.002405"><ele>0</ele></trkpt>
      <trkpt lat="33.784111" lon="11.002254"><ele>0</ele></trkpt>
      <trkpt lat="33.784198" lon="11.001888"><ele>0</ele></trkpt>
      <trkpt lat="33.784326" lon="11.001406"><ele>0</ele></trkpt>
      <trkpt lat="33.78433" lon="11.001286"><ele>0</ele></trkpt>
      <trkpt lat="33.784322" lon="11.001135"><ele>0</ele></trkpt>
      <trkpt lat="33.784232" lon="11.000826"><ele>0</ele></trkpt>
      <trkpt lat="33.78431" lon="11.000502"><ele>0</ele></trkpt>
      <trkpt lat="33.784368" lon="11.000294"><ele>0</ele></trkpt>
      <trkpt lat="33.78444" lon="10.999962"><ele>0</ele></trkpt>
      <trkpt lat="33.784455" lon="10.999829"><ele>0</ele></trkpt>
      <trkpt lat="33.784608" lon="10.999957"><ele>0</ele></trkpt>
      <trkpt lat="33.784681" lon="10.999986"><ele>0</ele></trkpt>
      <trkpt lat="33.784691" lon="10.99999"><ele>0</ele></trkpt>
      <trkpt lat="33.784773" lon="11.000011"><ele>0</ele></trkpt>
      <trkpt lat="33.785127" lon="11.000045"><ele>0</ele></trkpt>
      <trkpt lat="33.785294" lon="11.000102"><ele>0</ele></trkpt>
      <trkpt lat="33.785355" lon="11.000101"><ele>0</ele></trkpt>
      <trkpt lat="33.785635" lon="11.000152"><ele>0</ele></trkpt>
      <trkpt lat="33.785732" lon="11.000151"><ele>0</ele></trkpt>
      <trkpt lat="33.785821" lon="11.000134"><ele>0</ele></trkpt>
      <trkpt lat="33.786055" lon="11.000058"><ele>0</ele></trkpt>
      <trkpt lat="33.786358" lon="10.999989"><ele>0</ele></trkpt>
      <trkpt lat="33.786723" lon="10.999903"><ele>0</ele></trkpt>
      <trkpt lat="33.787329" lon="10.999632"><ele>0</ele></trkpt>
      <trkpt lat="33.787521" lon="10.999556"><ele>0</ele></trkpt>
      <trkpt lat="33.787617" lon="10.999536"><ele>0</ele></trkpt>
      <trkpt lat="33.787765" lon="10.999518"><ele>0</ele></trkpt>
      <trkpt lat="33.787959" lon="10.999512"><ele>0</ele></trkpt>
      <trkpt lat="33.78798" lon="10.999399"><ele>0</ele></trkpt>
      <trkpt lat="33.788047" lon="10.99911"><ele>0</ele></trkpt>
      <trkpt lat="33.788063" lon="10.999012"><ele>0</ele></trkpt>
      <trkpt lat="33.788064" lon="10.998944"><ele>0</ele></trkpt>
      <trkpt lat="33.788052" lon="10.998885"><ele>0</ele></trkpt>
      <trkpt lat="33.788178" lon="10.998874"><ele>0</ele></trkpt>
      <trkpt lat="33.788406" lon="10.998839"><ele>0</ele></trkpt>
      <trkpt lat="33.788464" lon="10.998839"><ele>0</ele></trkpt>
      <trkpt lat="33.788499" lon="10.998852"><ele>0</ele></trkpt>
      <trkpt lat="33.788539" lon="10.998908"><ele>0</ele></trkpt>
      <trkpt lat="33.788556" lon="10.998944"><ele>0</ele></trkpt>
      <trkpt lat="33.788579" lon="10.998968"><ele>0</ele></trkpt>
      <trkpt lat="33.788675" lon="10.998988"><ele>0</ele></trkpt>
      <trkpt lat="33.788759" lon="10.999031"><ele>0</ele></trkpt>
      <trkpt lat="33.7888" lon="10.999083"><ele>0</ele></trkpt>
      <trkpt lat="33.78883" lon="10.999148"><ele>0</ele></trkpt>
      <trkpt lat="33.788867" lon="10.999234"><ele>0</ele></trkpt>
      <trkpt lat="33.788899" lon="10.999279"><ele>0</ele></trkpt>
      <trkpt lat="33.789088" lon="10.999494"><ele>0</ele></trkpt>
      <trkpt lat="33.789128" lon="10.999525"><ele>0</ele></trkpt>
      <trkpt lat="33.789157" lon="10.999532"><ele>0</ele></trkpt>
      <trkpt lat="33.789193" lon="10.999523"><ele>0</ele></trkpt>
      <trkpt lat="33.789286" lon="10.999476"><ele>0</ele></trkpt>
      <trkpt lat="33.789382" lon="10.999449"><ele>0</ele></trkpt>
      <trkpt lat="33.789417" lon="10.999465"><ele>0</ele></trkpt>
      <trkpt lat="33.789444" lon="10.999492"><ele>0</ele></trkpt>
      <trkpt lat="33.789462" lon="10.99954"><ele>0</ele></trkpt>
      <trkpt lat="33.789463" lon="10.999634"><ele>0</ele></trkpt>
      <trkpt lat="33.789455" lon="10.999706"><ele>0</ele></trkpt>
      <trkpt lat="33.789424" lon="10.99976"><ele>0</ele></trkpt>
      <trkpt lat="33.789381" lon="10.999813"><ele>0</ele></trkpt>
      <trkpt lat="33.789351" lon="10.999874"><ele>0</ele></trkpt>
      <trkpt lat="33.789327" lon="10.999945"><ele>0</ele></trkpt>
      <trkpt lat="33.789276" lon="11.000192"><ele>0</ele></trkpt>
      <trkpt lat="33.789256" lon="11.00023"><ele>0</ele></trkpt>
      <trkpt lat="33.789142" lon="11.000384"><ele>0</ele></trkpt>
      <trkpt lat="33.789121" lon="11.000424"><ele>0</ele></trkpt>
      <trkpt lat="33.78911" lon="11.00048"><ele>0</ele></trkpt>
      <trkpt lat="33.789107" lon="11.000545"><ele>0</ele></trkpt>
      <trkpt lat="33.789122" lon="11.000634"><ele>0</ele></trkpt>
      <trkpt lat="33.789204" lon="11.000608"><ele>0</ele></trkpt>
      <trkpt lat="33.789311" lon="11.000592"><ele>0</ele></trkpt>
      <trkpt lat="33.789417" lon="11.000581"><ele>0</ele></trkpt>
      <trkpt lat="33.789551" lon="11.000585"><ele>0</ele></trkpt>
      <trkpt lat="33.789611" lon="11.000571"><ele>0</ele></trkpt>
      <trkpt lat="33.789718" lon="11.000516"><ele>0</ele></trkpt>
      <trkpt lat="33.789965" lon="11.000341"><ele>0</ele></trkpt>
      <trkpt lat="33.79006" lon="11.000292"><ele>0</ele></trkpt>
      <trkpt lat="33.790242" lon="11.000222"><ele>0</ele></trkpt>
      <trkpt lat="33.790376" lon="11.000198"><ele>0</ele></trkpt>
      <trkpt lat="33.790537" lon="11.00015"><ele>0</ele></trkpt>
      <trkpt lat="33.790639" lon="11.000134"><ele>0</ele></trkpt>
      <trkpt lat="33.790702" lon="11.000064"><ele>0</ele></trkpt>
      <trkpt lat="33.790822" lon="10.999938"><ele>0</ele></trkpt>
      <trkpt lat="33.790909" lon="10.999892"><ele>0</ele></trkpt>
      <trkpt lat="33.791077" lon="10.999837"><ele>0</ele></trkpt>
      <trkpt lat="33.7912" lon="10.999801"><ele>0</ele></trkpt>
      <trkpt lat="33.791484" lon="10.999754"><ele>0</ele></trkpt>
      <trkpt lat="33.791631" lon="10.999719"><ele>0</ele></trkpt>
      <trkpt lat="33.791826" lon="10.999654"><ele>0</ele></trkpt>
      <trkpt lat="33.792082" lon="10.999587"><ele>0</ele></trkpt>
      <trkpt lat="33.792113" lon="10.999577"><ele>0</ele></trkpt>
      <trkpt lat="33.792375" lon="10.999491"><ele>0</ele></trkpt>
      <trkpt lat="33.792765" lon="10.999316"><ele>0</ele></trkpt>
      <trkpt lat="33.792862" lon="10.999257"><ele>0</ele></trkpt>
      <trkpt lat="33.792909" lon="10.999218"><ele>0</ele></trkpt>
      <trkpt lat="33.792993" lon="10.999167"><ele>0</ele></trkpt>
      <trkpt lat="33.793043" lon="10.99914"><ele>0</ele></trkpt>
      <trkpt lat="33.793149" lon="10.9991"><ele>0</ele></trkpt>
      <trkpt lat="33.793296" lon="10.999057"><ele>0</ele></trkpt>
      <trkpt lat="33.793371" lon="10.999036"><ele>0</ele></trkpt>
      <trkpt lat="33.793532" lon="10.998984"><ele>0</ele></trkpt>
      <trkpt lat="33.793772" lon="10.998876"><ele>0</ele></trkpt>
      <trkpt lat="33.79404" lon="10.998723"><ele>0</ele></trkpt>
      <trkpt lat="33.794107" lon="10.998465"><ele>0</ele></trkpt>
      <trkpt lat="33.794184" lon="10.998264"><ele>0</ele></trkpt>
      <trkpt lat="33.794204" lon="10.998156"><ele>0</ele></trkpt>
      <trkpt lat="33.794257" lon="10.997947"><ele>0</ele></trkpt>
      <trkpt lat="33.793977" lon="10.997191"><ele>0</ele></trkpt>
      <trkpt lat="33.793918" lon="10.997004"><ele>0</ele></trkpt>
      <trkpt lat="33.793885" lon="10.99686"><ele>0</ele></trkpt>
      <trkpt lat="33.793892" lon="10.996828"><ele>0</ele></trkpt>
      <trkpt lat="33.793921" lon="10.996786"><ele>0</ele></trkpt>
      <trkpt lat="33.794254" lon="10.996624"><ele>0</ele></trkpt>
      <trkpt lat="33.794591" lon="10.996441"><ele>0</ele></trkpt>
      <trkpt lat="33.794622" lon="10.996411"><ele>0</ele></trkpt>
      <trkpt lat="33.794632" lon="10.996374"><ele>0</ele></trkpt>
      <trkpt lat="33.794629" lon="10.996326"><ele>0</ele></trkpt>
      <trkpt lat="33.794614" lon="10.996258"><ele>0</ele></trkpt>
      <trkpt lat="33.794534" lon="10.995949"><ele>0</ele></trkpt>
      <trkpt lat="33.794442" lon="10.995663"><ele>0</ele></trkpt>
      <trkpt lat="33.794406" lon="10.995585"><ele>0</ele></trkpt>
      <trkpt lat="33.794373" lon="10.995415"><ele>0</ele></trkpt>
      <trkpt lat="33.794341" lon="10.995239"><ele>0</ele></trkpt>
      <trkpt lat="33.79422" lon="10.994827"><ele>0</ele></trkpt>
      <trkpt lat="33.794511" lon="10.994777"><ele>0</ele></trkpt>
      <trkpt lat="33.794911" lon="10.994695"><ele>0</ele></trkpt>
      <trkpt lat="33.794996" lon="10.99508"><ele>0</ele></trkpt>
      <trkpt lat="33.79518" lon="10.995456"><ele>0</ele></trkpt>
      <trkpt lat="33.795243" lon="10.995608"><ele>0</ele></trkpt>
      <trkpt lat="33.795286" lon="10.995694"><ele>0</ele></trkpt>
      <trkpt lat="33.795422" lon="10.996078"><ele>0</ele></trkpt>
      <trkpt lat="33.795446" lon="10.996099"><ele>0</ele></trkpt>
      <trkpt lat="33.795512" lon="10.996094"><ele>0</ele></trkpt>
      <trkpt lat="33.795656" lon="10.996051"><ele>0</ele></trkpt>
      <trkpt lat="33.795959" lon="10.995917"><ele>0</ele></trkpt>
      <trkpt lat="33.795996" lon="10.995909"><ele>0</ele></trkpt>
      <trkpt lat="33.796035" lon="10.995928"><ele>0</ele></trkpt>
      <trkpt lat="33.796058" lon="10.995958"><ele>0</ele></trkpt>
      <trkpt lat="33.79608" lon="10.996013"><ele>0</ele></trkpt>
      <trkpt lat="33.796417" lon="10.997237"><ele>0</ele></trkpt>
      <trkpt lat="33.796449" lon="10.997323"><ele>0</ele></trkpt>
      <trkpt lat="33.796506" lon="10.997433"><ele>0</ele></trkpt>
      <trkpt lat="33.796744" lon="10.997295"><ele>0</ele></trkpt>
      <trkpt lat="33.796838" lon="10.997246"><ele>0</ele></trkpt>
      <trkpt lat="33.79697" lon="10.997184"><ele>0</ele></trkpt>
      <trkpt lat="33.797287" lon="10.99707"><ele>0</ele></trkpt>
      <trkpt lat="33.797635" lon="10.996852"><ele>0</ele></trkpt>
      <trkpt lat="33.797917" lon="10.996707"><ele>0</ele></trkpt>
      <trkpt lat="33.798025" lon="10.996659"><ele>0</ele></trkpt>
      <trkpt lat="33.798171" lon="10.996615"><ele>0</ele></trkpt>
      <trkpt lat="33.798404" lon="10.996524"><ele>0</ele></trkpt>
      <trkpt lat="33.798765" lon="10.996324"><ele>0</ele></trkpt>
      <trkpt lat="33.798913" lon="10.996223"><ele>0</ele></trkpt>
      <trkpt lat="33.799007" lon="10.996142"><ele>0</ele></trkpt>
      <trkpt lat="33.799192" lon="10.995937"><ele>0</ele></trkpt>
      <trkpt lat="33.79941" lon="10.995743"><ele>0</ele></trkpt>
      <trkpt lat="33.799518" lon="10.995612"><ele>0</ele></trkpt>
      <trkpt lat="33.799646" lon="10.995374"><ele>0</ele></trkpt>
      <trkpt lat="33.799846" lon="10.995132"><ele>0</ele></trkpt>
      <trkpt lat="33.800033" lon="10.994878"><ele>0</ele></trkpt>
      <trkpt lat="33.800159" lon="10.99478"><ele>0</ele></trkpt>
      <trkpt lat="33.800196" lon="10.99479"><ele>0</ele></trkpt>
      <trkpt lat="33.800219" lon="10.99481"><ele>0</ele></trkpt>
      <trkpt lat="33.800242" lon="10.994847"><ele>0</ele></trkpt>
      <trkpt lat="33.800258" lon="10.994984"><ele>0</ele></trkpt>
      <trkpt lat="33.800299" lon="10.99511"><ele>0</ele></trkpt>
      <trkpt lat="33.800351" lon="10.995234"><ele>0</ele></trkpt>
      <trkpt lat="33.800392" lon="10.995288"><ele>0</ele></trkpt>
      <trkpt lat="33.8005" lon="10.995545"><ele>0</ele></trkpt>
      <trkpt lat="33.800523" lon="10.995561"><ele>0</ele></trkpt>
      <trkpt lat="33.800552" lon="10.995565"><ele>0</ele></trkpt>
      <trkpt lat="33.800677" lon="10.995525"><ele>0</ele></trkpt>
      <trkpt lat="33.800718" lon="10.995508"><ele>0</ele></trkpt>
      <trkpt lat="33.800748" lon="10.995487"><ele>0</ele></trkpt>
      <trkpt lat="33.800765" lon="10.995448"><ele>0</ele></trkpt>
      <trkpt lat="33.800776" lon="10.99539"><ele>0</ele></trkpt>
      <trkpt lat="33.800781" lon="10.995306"><ele>0</ele></trkpt>
      <trkpt lat="33.8008" lon="10.995272"><ele>0</ele></trkpt>
      <trkpt lat="33.800844" lon="10.995244"><ele>0</ele></trkpt>
      <trkpt lat="33.801032" lon="10.995187"><ele>0</ele></trkpt>
      <trkpt lat="33.801114" lon="10.995163"><ele>0</ele></trkpt>
      <trkpt lat="33.801641" lon="10.995145"><ele>0</ele></trkpt>
      <trkpt lat="33.801885" lon="10.995118"><ele>0</ele></trkpt>
      <trkpt lat="33.802034" lon="10.995079"><ele>0</ele></trkpt>
      <trkpt lat="33.802279" lon="10.994937"><ele>0</ele></trkpt>
      <trkpt lat="33.802369" lon="10.994859"><ele>0</ele></trkpt>
      <trkpt lat="33.802582" lon="10.994632"><ele>0</ele></trkpt>
      <trkpt lat="33.802674" lon="10.994581"><ele>0</ele></trkpt>
      <trkpt lat="33.802753" lon="10.994556"><ele>0</ele></trkpt>
      <trkpt lat="33.803051" lon="10.994506"><ele>0</ele></trkpt>
      <trkpt lat="33.803494" lon="10.994464"><ele>0</ele></trkpt>
      <trkpt lat="33.803545" lon="10.994468"><ele>0</ele></trkpt>
      <trkpt lat="33.803517" lon="10.994039"><ele>0</ele></trkpt>
      <trkpt lat="33.80358" lon="10.993979"><ele>0</ele></trkpt>
      <trkpt lat="33.803671" lon="10.99381"><ele>0</ele></trkpt>
      <trkpt lat="33.803834" lon="10.993611"><ele>0</ele></trkpt>
      <trkpt lat="33.804043" lon="10.993469"><ele>0</ele></trkpt>
      <trkpt lat="33.804138" lon="10.993505"><ele>0</ele></trkpt>
      <trkpt lat="33.804343" lon="10.993606"><ele>0</ele></trkpt>
      <trkpt lat="33.804326" lon="10.993693"><ele>0</ele></trkpt>
      <trkpt lat="33.804551" lon="10.993665"><ele>0</ele></trkpt>
      <trkpt lat="33.80456" lon="10.993708"><ele>0</ele></trkpt>
      <trkpt lat="33.804581" lon="10.993739"><ele>0</ele></trkpt>
      <trkpt lat="33.804604" lon="10.993756"><ele>0</ele></trkpt>
      <trkpt lat="33.804655" lon="10.993762"><ele>0</ele></trkpt>
      <trkpt lat="33.804709" lon="10.993738"><ele>0</ele></trkpt>
      <trkpt lat="33.804914" lon="10.993622"><ele>0</ele></trkpt>
      <trkpt lat="33.805016" lon="10.993556"><ele>0</ele></trkpt>
      <trkpt lat="33.80509" lon="10.993533"><ele>0</ele></trkpt>
      <trkpt lat="33.805267" lon="10.993498"><ele>0</ele></trkpt>
      <trkpt lat="33.805554" lon="10.993457"><ele>0</ele></trkpt>
      <trkpt lat="33.805512" lon="10.993057"><ele>0</ele></trkpt>
      <trkpt lat="33.806019" lon="10.992981"><ele>0</ele></trkpt>
      <trkpt lat="33.805947" lon="10.992597"><ele>0</ele></trkpt>
      <trkpt lat="33.805936" lon="10.992436"><ele>0</ele></trkpt>
      <trkpt lat="33.805924" lon="10.992023"><ele>0</ele></trkpt>
      <trkpt lat="33.806112" lon="10.991981"><ele>0</ele></trkpt>
      <trkpt lat="33.806364" lon="10.9919"><ele>0</ele></trkpt>
      <trkpt lat="33.806676" lon="10.991779"><ele>0</ele></trkpt>
      <trkpt lat="33.806946" lon="10.991722"><ele>0</ele></trkpt>
      <trkpt lat="33.806971" lon="10.991707"><ele>0</ele></trkpt>
      <trkpt lat="33.806979" lon="10.99168"><ele>0</ele></trkpt>
      <trkpt lat="33.80714" lon="10.991707"><ele>0</ele></trkpt>
      <trkpt lat="33.807264" lon="10.991738"><ele>0</ele></trkpt>
      <trkpt lat="33.807299" lon="10.991735"><ele>0</ele></trkpt>
      <trkpt lat="33.807391" lon="10.991708"><ele>0</ele></trkpt>
      <trkpt lat="33.807391" lon="10.991708"><ele>0</ele></trkpt>
      <trkpt lat="33.807299" lon="10.991735"><ele>0</ele></trkpt>
      <trkpt lat="33.807264" lon="10.991738"><ele>0</ele></trkpt>
      <trkpt lat="33.80714" lon="10.991707"><ele>0</ele></trkpt>
      <trkpt lat="33.806979" lon="10.99168"><ele>0</ele></trkpt>
      <trkpt lat="33.806971" lon="10.991707"><ele>0</ele></trkpt>
      <trkpt lat="33.806946" lon="10.991722"><ele>0</ele></trkpt>
      <trkpt lat="33.806676" lon="10.991779"><ele>0</ele></trkpt>
      <trkpt lat="33.806364" lon="10.9919"><ele>0</ele></trkpt>
      <trkpt lat="33.806112" lon="10.991981"><ele>0</ele></trkpt>
      <trkpt lat="33.805924" lon="10.992023"><ele>0</ele></trkpt>
      <trkpt lat="33.805943" lon="10.991745"><ele>0</ele></trkpt>
      <trkpt lat="33.805942" lon="10.991257"><ele>0</ele></trkpt>
      <trkpt lat="33.805927" lon="10.991139"><ele>0</ele></trkpt>
      <trkpt lat="33.805758" lon="10.991166"><ele>0</ele></trkpt>
      <trkpt lat="33.805289" lon="10.99132"><ele>0</ele></trkpt>
      <trkpt lat="33.805193" lon="10.991354"><ele>0</ele></trkpt>
      <trkpt lat="33.805143" lon="10.99139"><ele>0</ele></trkpt>
      <trkpt lat="33.805113" lon="10.991426"><ele>0</ele></trkpt>
      <trkpt lat="33.805072" lon="10.99144"><ele>0</ele></trkpt>
      <trkpt lat="33.805032" lon="10.991447"><ele>0</ele></trkpt>
      <trkpt lat="33.805004" lon="10.991435"><ele>0</ele></trkpt>
      <trkpt lat="33.804984" lon="10.991394"><ele>0</ele></trkpt>
      <trkpt lat="33.80498" lon="10.99136"><ele>0</ele></trkpt>
      <trkpt lat="33.804916" lon="10.991324"><ele>0</ele></trkpt>
      <trkpt lat="33.804885" lon="10.991317"><ele>0</ele></trkpt>
      <trkpt lat="33.804847" lon="10.991271"><ele>0</ele></trkpt>
      <trkpt lat="33.804797" lon="10.991209"><ele>0</ele></trkpt>
      <trkpt lat="33.8047" lon="10.991317"><ele>0</ele></trkpt>
      <trkpt lat="33.804537" lon="10.991463"><ele>0</ele></trkpt>
      <trkpt lat="33.804367" lon="10.991563"><ele>0</ele></trkpt>
      <trkpt lat="33.804296" lon="10.991565"><ele>0</ele></trkpt>
      <trkpt lat="33.804259" lon="10.991463"><ele>0</ele></trkpt>
      <trkpt lat="33.804193" lon="10.991321"><ele>0</ele></trkpt>
      <trkpt lat="33.804126" lon="10.991065"><ele>0</ele></trkpt>
      <trkpt lat="33.804047" lon="10.99057"><ele>0</ele></trkpt>
      <trkpt lat="33.803791" lon="10.990433"><ele>0</ele></trkpt>
      <trkpt lat="33.803674" lon="10.99038"><ele>0</ele></trkpt>
      <trkpt lat="33.803514" lon="10.990329"><ele>0</ele></trkpt>
      <trkpt lat="33.803253" lon="10.99028"><ele>0</ele></trkpt>
      <trkpt lat="33.802893" lon="10.990209"><ele>0</ele></trkpt>
      <trkpt lat="33.80259" lon="10.990132"><ele>0</ele></trkpt>
      <trkpt lat="33.802382" lon="10.99007"><ele>0</ele></trkpt>
      <trkpt lat="33.802165" lon="10.990035"><ele>0</ele></trkpt>
      <trkpt lat="33.801755" lon="10.990027"><ele>0</ele></trkpt>
      <trkpt lat="33.801184" lon="10.990033"><ele>0</ele></trkpt>
      <trkpt lat="33.801138" lon="10.990011"><ele>0</ele></trkpt>
      <trkpt lat="33.801119" lon="10.989991"><ele>0</ele></trkpt>
      <trkpt lat="33.801092" lon="10.989944"><ele>0</ele></trkpt>
      <trkpt lat="33.801103" lon="10.989741"><ele>0</ele></trkpt>
      <trkpt lat="33.801096" lon="10.989661"><ele>0</ele></trkpt>
      <trkpt lat="33.801081" lon="10.989592"><ele>0</ele></trkpt>
      <trkpt lat="33.801052" lon="10.989502"><ele>0</ele></trkpt>
      <trkpt lat="33.801019" lon="10.989432"><ele>0</ele></trkpt>
      <trkpt lat="33.800966" lon="10.989354"><ele>0</ele></trkpt>
      <trkpt lat="33.800703" lon="10.98904"><ele>0</ele></trkpt>
      <trkpt lat="33.800497" lon="10.98877"><ele>0</ele></trkpt>
      <trkpt lat="33.800441" lon="10.988687"><ele>0</ele></trkpt>
      <trkpt lat="33.800406" lon="10.988623"><ele>0</ele></trkpt>
      <trkpt lat="33.80021" lon="10.988482"><ele>0</ele></trkpt>
      <trkpt lat="33.800151" lon="10.988475"><ele>0</ele></trkpt>
      <trkpt lat="33.800076" lon="10.988477"><ele>0</ele></trkpt>
      <trkpt lat="33.799991" lon="10.988528"><ele>0</ele></trkpt>
      <trkpt lat="33.799881" lon="10.988612"><ele>0</ele></trkpt>
      <trkpt lat="33.799824" lon="10.988641"><ele>0</ele></trkpt>
      <trkpt lat="33.799556" lon="10.988705"><ele>0</ele></trkpt>
      <trkpt lat="33.79928" lon="10.988729"><ele>0</ele></trkpt>
      <trkpt lat="33.799095" lon="10.988737"><ele>0</ele></trkpt>
      <trkpt lat="33.799049" lon="10.988659"><ele>0</ele></trkpt>
      <trkpt lat="33.798853" lon="10.988275"><ele>0</ele></trkpt>
      <trkpt lat="33.798752" lon="10.988178"><ele>0</ele></trkpt>
      <trkpt lat="33.798688" lon="10.988132"><ele>0</ele></trkpt>
      <trkpt lat="33.798608" lon="10.988051"><ele>0</ele></trkpt>
      <trkpt lat="33.798538" lon="10.987959"><ele>0</ele></trkpt>
      <trkpt lat="33.798425" lon="10.987844"><ele>0</ele></trkpt>
      <trkpt lat="33.798388" lon="10.987773"><ele>0</ele></trkpt>
      <trkpt lat="33.798267" lon="10.987502"><ele>0</ele></trkpt>
      <trkpt lat="33.798216" lon="10.987367"><ele>0</ele></trkpt>
      <trkpt lat="33.798152" lon="10.987343"><ele>0</ele></trkpt>
      <trkpt lat="33.79811" lon="10.987342"><ele>0</ele></trkpt>
      <trkpt lat="33.798018" lon="10.98736"><ele>0</ele></trkpt>
      <trkpt lat="33.797701" lon="10.987404"><ele>0</ele></trkpt>
      <trkpt lat="33.797649" lon="10.9874"><ele>0</ele></trkpt>
      <trkpt lat="33.797619" lon="10.98738"><ele>0</ele></trkpt>
      <trkpt lat="33.797509" lon="10.987179"><ele>0</ele></trkpt>
      <trkpt lat="33.797444" lon="10.98688"><ele>0</ele></trkpt>
      <trkpt lat="33.797429" lon="10.986724"><ele>0</ele></trkpt>
      <trkpt lat="33.797413" lon="10.986673"><ele>0</ele></trkpt>
      <trkpt lat="33.797368" lon="10.986584"><ele>0</ele></trkpt>
      <trkpt lat="33.797339" lon="10.986464"><ele>0</ele></trkpt>
      <trkpt lat="33.797261" lon="10.986017"><ele>0</ele></trkpt>
      <trkpt lat="33.797174" lon="10.985616"><ele>0</ele></trkpt>
      <trkpt lat="33.797209" lon="10.985575"><ele>0</ele></trkpt>
      <trkpt lat="33.797261" lon="10.985544"><ele>0</ele></trkpt>
      <trkpt lat="33.797391" lon="10.985495"><ele>0</ele></trkpt>
      <trkpt lat="33.797424" lon="10.985466"><ele>0</ele></trkpt>
      <trkpt lat="33.797448" lon="10.985421"><ele>0</ele></trkpt>
      <trkpt lat="33.797489" lon="10.985182"><ele>0</ele></trkpt>
      <trkpt lat="33.797494" lon="10.98504"><ele>0</ele></trkpt>
      <trkpt lat="33.797467" lon="10.984725"><ele>0</ele></trkpt>
      <trkpt lat="33.797446" lon="10.9846"><ele>0</ele></trkpt>
      <trkpt lat="33.797406" lon="10.984483"><ele>0</ele></trkpt>
      <trkpt lat="33.797319" lon="10.984322"><ele>0</ele></trkpt>
      <trkpt lat="33.797253" lon="10.984161"><ele>0</ele></trkpt>
      <trkpt lat="33.797207" lon="10.984009"><ele>0</ele></trkpt>
      <trkpt lat="33.79717" lon="10.983831"><ele>0</ele></trkpt>
      <trkpt lat="33.797117" lon="10.983694"><ele>0</ele></trkpt>
      <trkpt lat="33.796999" lon="10.983443"><ele>0</ele></trkpt>
      <trkpt lat="33.796921" lon="10.983163"><ele>0</ele></trkpt>
      <trkpt lat="33.79691" lon="10.982757"><ele>0</ele></trkpt>
      <trkpt lat="33.796942" lon="10.982443"><ele>0</ele></trkpt>
      <trkpt lat="33.79696" lon="10.982049"><ele>0</ele></trkpt>
      <trkpt lat="33.796986" lon="10.982001"><ele>0</ele></trkpt>
      <trkpt lat="33.797066" lon="10.981923"><ele>0</ele></trkpt>
      <trkpt lat="33.797009" lon="10.981729"><ele>0</ele></trkpt>
      <trkpt lat="33.79699" lon="10.981618"><ele>0</ele></trkpt>
      <trkpt lat="33.796984" lon="10.981499"><ele>0</ele></trkpt>
      <trkpt lat="33.797019" lon="10.980868"><ele>0</ele></trkpt>
      <trkpt lat="33.796361" lon="10.980748"><ele>0</ele></trkpt>
      <trkpt lat="33.795935" lon="10.980659"><ele>0</ele></trkpt>
      <trkpt lat="33.795776" lon="10.98064"><ele>0</ele></trkpt>
      <trkpt lat="33.79553" lon="10.980583"><ele>0</ele></trkpt>
      <trkpt lat="33.795447" lon="10.980556"><ele>0</ele></trkpt>
      <trkpt lat="33.795122" lon="10.980404"><ele>0</ele></trkpt>
      <trkpt lat="33.79491" lon="10.980347"><ele>0</ele></trkpt>
      <trkpt lat="33.794645" lon="10.980241"><ele>0</ele></trkpt>
      <trkpt lat="33.794189" lon="10.980038"><ele>0</ele></trkpt>
      <trkpt lat="33.794081" lon="10.979976"><ele>0</ele></trkpt>
      <trkpt lat="33.794001" lon="10.979915"><ele>0</ele></trkpt>
      <trkpt lat="33.793496" lon="10.979588"><ele>0</ele></trkpt>
      <trkpt lat="33.793325" lon="10.979492"><ele>0</ele></trkpt>
      <trkpt lat="33.793251" lon="10.979436"><ele>0</ele></trkpt>
      <trkpt lat="33.792939" lon="10.979243"><ele>0</ele></trkpt>
      <trkpt lat="33.792769" lon="10.979116"><ele>0</ele></trkpt>
      <trkpt lat="33.792524" lon="10.978876"><ele>0</ele></trkpt>
      <trkpt lat="33.792413" lon="10.978773"><ele>0</ele></trkpt>
      <trkpt lat="33.792332" lon="10.978708"><ele>0</ele></trkpt>
      <trkpt lat="33.792226" lon="10.978637"><ele>0</ele></trkpt>
      <trkpt lat="33.792113" lon="10.978582"><ele>0</ele></trkpt>
      <trkpt lat="33.79188" lon="10.978499"><ele>0</ele></trkpt>
      <trkpt lat="33.791793" lon="10.978449"><ele>0</ele></trkpt>
      <trkpt lat="33.791657" lon="10.978345"><ele>0</ele></trkpt>
      <trkpt lat="33.791569" lon="10.978268"><ele>0</ele></trkpt>
      <trkpt lat="33.79138" lon="10.97808"><ele>0</ele></trkpt>
      <trkpt lat="33.79105" lon="10.977814"><ele>0</ele></trkpt>
      <trkpt lat="33.790905" lon="10.977663"><ele>0</ele></trkpt>
      <trkpt lat="33.790842" lon="10.97757"><ele>0</ele></trkpt>
      <trkpt lat="33.790744" lon="10.977404"><ele>0</ele></trkpt>
      <trkpt lat="33.790658" lon="10.977297"><ele>0</ele></trkpt>
      <trkpt lat="33.790327" lon="10.977024"><ele>0</ele></trkpt>
      <trkpt lat="33.790214" lon="10.976874"><ele>0</ele></trkpt>
      <trkpt lat="33.790016" lon="10.976583"><ele>0</ele></trkpt>
      <trkpt lat="33.789977" lon="10.976523"><ele>0</ele></trkpt>
      <trkpt lat="33.789954" lon="10.976452"><ele>0</ele></trkpt>
      <trkpt lat="33.789944" lon="10.976374"><ele>0</ele></trkpt>
      <trkpt lat="33.789943" lon="10.9763"><ele>0</ele></trkpt>
      <trkpt lat="33.790002" lon="10.975851"><ele>0</ele></trkpt>
      <trkpt lat="33.790001" lon="10.975756"><ele>0</ele></trkpt>
      <trkpt lat="33.789982" lon="10.97572"><ele>0</ele></trkpt>
      <trkpt lat="33.789938" lon="10.975687"><ele>0</ele></trkpt>
      <trkpt lat="33.789862" lon="10.975655"><ele>0</ele></trkpt>
      <trkpt lat="33.789673" lon="10.975602"><ele>0</ele></trkpt>
      <trkpt lat="33.789615" lon="10.9755"><ele>0</ele></trkpt>
      <trkpt lat="33.789591" lon="10.975438"><ele>0</ele></trkpt>
      <trkpt lat="33.789554" lon="10.975383"><ele>0</ele></trkpt>
      <trkpt lat="33.789504" lon="10.975342"><ele>0</ele></trkpt>
      <trkpt lat="33.78944" lon="10.975325"><ele>0</ele></trkpt>
      <trkpt lat="33.789108" lon="10.975313"><ele>0</ele></trkpt>
      <trkpt lat="33.788978" lon="10.97532"><ele>0</ele></trkpt>
      <trkpt lat="33.788833" lon="10.975343"><ele>0</ele></trkpt>
      <trkpt lat="33.788616" lon="10.97535"><ele>0</ele></trkpt>
      <trkpt lat="33.788197" lon="10.975323"><ele>0</ele></trkpt>
      <trkpt lat="33.788126" lon="10.975327"><ele>0</ele></trkpt>
      <trkpt lat="33.78802" lon="10.975347"><ele>0</ele></trkpt>
      <trkpt lat="33.787891" lon="10.975385"><ele>0</ele></trkpt>
      <trkpt lat="33.787529" lon="10.97551"><ele>0</ele></trkpt>
      <trkpt lat="33.787281" lon="10.975584"><ele>0</ele></trkpt>
      <trkpt lat="33.78684" lon="10.975737"><ele>0</ele></trkpt>
      <trkpt lat="33.786707" lon="10.975778"><ele>0</ele></trkpt>
      <trkpt lat="33.786492" lon="10.975829"><ele>0</ele></trkpt>
      <trkpt lat="33.786376" lon="10.975848"><ele>0</ele></trkpt>
      <trkpt lat="33.785958" lon="10.975865"><ele>0</ele></trkpt>
      <trkpt lat="33.785639" lon="10.975842"><ele>0</ele></trkpt>
      <trkpt lat="33.785092" lon="10.975769"><ele>0</ele></trkpt>
      <trkpt lat="33.784934" lon="10.975755"><ele>0</ele></trkpt>
      <trkpt lat="33.784774" lon="10.975755"><ele>0</ele></trkpt>
      <trkpt lat="33.784241" lon="10.975799"><ele>0</ele></trkpt>
      <trkpt lat="33.784067" lon="10.975822"><ele>0</ele></trkpt>
      <trkpt lat="33.78384" lon="10.975862"><ele>0</ele></trkpt>
      <trkpt lat="33.78374" lon="10.975866"><ele>0</ele></trkpt>
      <trkpt lat="33.78348" lon="10.975846"><ele>0</ele></trkpt>
      <trkpt lat="33.78333" lon="10.975847"><ele>0</ele></trkpt>
      <trkpt lat="33.783083" lon="10.975899"><ele>0</ele></trkpt>
      <trkpt lat="33.782957" lon="10.97591"><ele>0</ele></trkpt>
      <trkpt lat="33.782891" lon="10.975898"><ele>0</ele></trkpt>
      <trkpt lat="33.782848" lon="10.975861"><ele>0</ele></trkpt>
      <trkpt lat="33.782828" lon="10.975822"><ele>0</ele></trkpt>
      <trkpt lat="33.782763" lon="10.975582"><ele>0</ele></trkpt>
      <trkpt lat="33.782733" lon="10.975526"><ele>0</ele></trkpt>
      <trkpt lat="33.782673" lon="10.975506"><ele>0</ele></trkpt>
      <trkpt lat="33.782614" lon="10.975495"><ele>0</ele></trkpt>
      <trkpt lat="33.782474" lon="10.975448"><ele>0</ele></trkpt>
      <trkpt lat="33.78212" lon="10.975283"><ele>0</ele></trkpt>
      <trkpt lat="33.782064" lon="10.975213"><ele>0</ele></trkpt>
      <trkpt lat="33.781949" lon="10.974944"><ele>0</ele></trkpt>
      <trkpt lat="33.781905" lon="10.974869"><ele>0</ele></trkpt>
      <trkpt lat="33.781833" lon="10.974784"><ele>0</ele></trkpt>
      <trkpt lat="33.781625" lon="10.97458"><ele>0</ele></trkpt>
      <trkpt lat="33.781583" lon="10.974552"><ele>0</ele></trkpt>
      <trkpt lat="33.781555" lon="10.974546"><ele>0</ele></trkpt>
      <trkpt lat="33.781525" lon="10.974563"><ele>0</ele></trkpt>
      <trkpt lat="33.781361" lon="10.974768"><ele>0</ele></trkpt>
      <trkpt lat="33.781163" lon="10.974992"><ele>0</ele></trkpt>
      <trkpt lat="33.781132" lon="10.974998"><ele>0</ele></trkpt>
      <trkpt lat="33.780889" lon="10.974862"><ele>0</ele></trkpt>
      <trkpt lat="33.780853" lon="10.974872"><ele>0</ele></trkpt>
      <trkpt lat="33.780769" lon="10.974949"><ele>0</ele></trkpt>
      <trkpt lat="33.780625" lon="10.975142"><ele>0</ele></trkpt>
      <trkpt lat="33.780561" lon="10.975181"><ele>0</ele></trkpt>
      <trkpt lat="33.780504" lon="10.975195"><ele>0</ele></trkpt>
      <trkpt lat="33.780442" lon="10.975176"><ele>0</ele></trkpt>
      <trkpt lat="33.780409" lon="10.975188"><ele>0</ele></trkpt>
      <trkpt lat="33.780283" lon="10.975312"><ele>0</ele></trkpt>
      <trkpt lat="33.780201" lon="10.97538"><ele>0</ele></trkpt>
      <trkpt lat="33.780122" lon="10.975483"><ele>0</ele></trkpt>
      <trkpt lat="33.780036" lon="10.975574"><ele>0</ele></trkpt>
      <trkpt lat="33.779972" lon="10.975617"><ele>0</ele></trkpt>
      <trkpt lat="33.779879" lon="10.97565"><ele>0</ele></trkpt>
      <trkpt lat="33.779846" lon="10.975666"><ele>0</ele></trkpt>
      <trkpt lat="33.779829" lon="10.975683"><ele>0</ele></trkpt>
      <trkpt lat="33.779825" lon="10.975723"><ele>0</ele></trkpt>
      <trkpt lat="33.779835" lon="10.97576"><ele>0</ele></trkpt>
      <trkpt lat="33.779897" lon="10.975885"><ele>0</ele></trkpt>
      <trkpt lat="33.7799" lon="10.975908"><ele>0</ele></trkpt>
      <trkpt lat="33.779893" lon="10.975947"><ele>0</ele></trkpt>
      <trkpt lat="33.779865" lon="10.97598"><ele>0</ele></trkpt>
      <trkpt lat="33.779675" lon="10.976107"><ele>0</ele></trkpt>
      <trkpt lat="33.779614" lon="10.976187"><ele>0</ele></trkpt>
      <trkpt lat="33.779547" lon="10.97629"><ele>0</ele></trkpt>
      <trkpt lat="33.779336" lon="10.97657"><ele>0</ele></trkpt>
      <trkpt lat="33.779327" lon="10.976596"><ele>0</ele></trkpt>
      <trkpt lat="33.779335" lon="10.976699"><ele>0</ele></trkpt>
      <trkpt lat="33.779339" lon="10.97695"><ele>0</ele></trkpt>
      <trkpt lat="33.779297" lon="10.977236"><ele>0</ele></trkpt>
      <trkpt lat="33.779271" lon="10.977319"><ele>0</ele></trkpt>
      <trkpt lat="33.779179" lon="10.977532"><ele>0</ele></trkpt>
      <trkpt lat="33.77915" lon="10.977695"><ele>0</ele></trkpt>
      <trkpt lat="33.779118" lon="10.977791"><ele>0</ele></trkpt>
      <trkpt lat="33.779074" lon="10.97788"><ele>0</ele></trkpt>
      <trkpt lat="33.778944" lon="10.978214"><ele>0</ele></trkpt>
      <trkpt lat="33.778792" lon="10.978497"><ele>0</ele></trkpt>
      <trkpt lat="33.778687" lon="10.978772"><ele>0</ele></trkpt>
      <trkpt lat="33.778608" lon="10.978949"><ele>0</ele></trkpt>
      <trkpt lat="33.778576" lon="10.97907"><ele>0</ele></trkpt>
      <trkpt lat="33.77849" lon="10.978996"><ele>0</ele></trkpt>
      <trkpt lat="33.778418" lon="10.97896"><ele>0</ele></trkpt>
      <trkpt lat="33.778321" lon="10.978931"><ele>0</ele></trkpt>
      <trkpt lat="33.778149" lon="10.978892"><ele>0</ele></trkpt>
      <trkpt lat="33.777987" lon="10.978863"><ele>0</ele></trkpt>
      <trkpt lat="33.777919" lon="10.97883"><ele>0</ele></trkpt>
      <trkpt lat="33.777824" lon="10.978752"><ele>0</ele></trkpt>
      <trkpt lat="33.77774" lon="10.97866"><ele>0</ele></trkpt>
      <trkpt lat="33.777624" lon="10.978445"><ele>0</ele></trkpt>
      <trkpt lat="33.77757" lon="10.978413"><ele>0</ele></trkpt>
      <trkpt lat="33.777505" lon="10.978401"><ele>0</ele></trkpt>
      <trkpt lat="33.777438" lon="10.978416"><ele>0</ele></trkpt>
      <trkpt lat="33.777341" lon="10.978465"><ele>0</ele></trkpt>
      <trkpt lat="33.777267" lon="10.978472"><ele>0</ele></trkpt>
      <trkpt lat="33.777133" lon="10.978458"><ele>0</ele></trkpt>
      <trkpt lat="33.777013" lon="10.978421"><ele>0</ele></trkpt>
      <trkpt lat="33.776955" lon="10.978382"><ele>0</ele></trkpt>
      <trkpt lat="33.776879" lon="10.978299"><ele>0</ele></trkpt>
      <trkpt lat="33.77677" lon="10.978218"><ele>0</ele></trkpt>
      <trkpt lat="33.776656" lon="10.978183"><ele>0</ele></trkpt>
      <trkpt lat="33.776609" lon="10.978151"><ele>0</ele></trkpt>
      <trkpt lat="33.776543" lon="10.978121"><ele>0</ele></trkpt>
      <trkpt lat="33.776497" lon="10.978111"><ele>0</ele></trkpt>
      <trkpt lat="33.776386" lon="10.978176"><ele>0</ele></trkpt>
      <trkpt lat="33.775965" lon="10.978482"><ele>0</ele></trkpt>
      <trkpt lat="33.775901" lon="10.978252"><ele>0</ele></trkpt>
      <trkpt lat="33.775815" lon="10.978032"><ele>0</ele></trkpt>
      <trkpt lat="33.775803" lon="10.977877"><ele>0</ele></trkpt>
      <trkpt lat="33.775818" lon="10.977685"><ele>0</ele></trkpt>
      <trkpt lat="33.775808" lon="10.977535"><ele>0</ele></trkpt>
      <trkpt lat="33.775782" lon="10.977417"><ele>0</ele></trkpt>
      <trkpt lat="33.775754" lon="10.97734"><ele>0</ele></trkpt>
      <trkpt lat="33.775678" lon="10.977176"><ele>0</ele></trkpt>
      <trkpt lat="33.775598" lon="10.97695"><ele>0</ele></trkpt>
      <trkpt lat="33.775277" lon="10.977114"><ele>0</ele></trkpt>
      <trkpt lat="33.775111" lon="10.977227"><ele>0</ele></trkpt>
      <trkpt lat="33.774989" lon="10.977333"><ele>0</ele></trkpt>
      <trkpt lat="33.77481" lon="10.977516"><ele>0</ele></trkpt>
      <trkpt lat="33.774727" lon="10.977643"><ele>0</ele></trkpt>
      <trkpt lat="33.774689" lon="10.977756"><ele>0</ele></trkpt>
      <trkpt lat="33.774656" lon="10.977814"><ele>0</ele></trkpt>
      <trkpt lat="33.774616" lon="10.977862"><ele>0</ele></trkpt>
      <trkpt lat="33.774578" lon="10.977889"><ele>0</ele></trkpt>
      <trkpt lat="33.774529" lon="10.977911"><ele>0</ele></trkpt>
      <trkpt lat="33.774462" lon="10.977919"><ele>0</ele></trkpt>
      <trkpt lat="33.774386" lon="10.977949"><ele>0</ele></trkpt>
      <trkpt lat="33.774303" lon="10.978"><ele>0</ele></trkpt>
      <trkpt lat="33.774148" lon="10.978105"><ele>0</ele></trkpt>
      <trkpt lat="33.773918" lon="10.978295"><ele>0</ele></trkpt>
      <trkpt lat="33.77372" lon="10.978496"><ele>0</ele></trkpt>
      <trkpt lat="33.773662" lon="10.97857"><ele>0</ele></trkpt>
      <trkpt lat="33.773506" lon="10.978827"><ele>0</ele></trkpt>
      <trkpt lat="33.773441" lon="10.978919"><ele>0</ele></trkpt>
      <trkpt lat="33.77337" lon="10.978972"><ele>0</ele></trkpt>
      <trkpt lat="33.772807" lon="10.979318"><ele>0</ele></trkpt>
      <trkpt lat="33.772704" lon="10.979365"><ele>0</ele></trkpt>
      <trkpt lat="33.772576" lon="10.979434"><ele>0</ele></trkpt>
      <trkpt lat="33.7725" lon="10.979489"><ele>0</ele></trkpt>
      <trkpt lat="33.772402" lon="10.979611"><ele>0</ele></trkpt>
      <trkpt lat="33.772353" lon="10.979651"><ele>0</ele></trkpt>
      <trkpt lat="33.772309" lon="10.979676"><ele>0</ele></trkpt>
      <trkpt lat="33.772204" lon="10.979694"><ele>0</ele></trkpt>
      <trkpt lat="33.772159" lon="10.97971"><ele>0</ele></trkpt>
      <trkpt lat="33.771998" lon="10.979821"><ele>0</ele></trkpt>
      <trkpt lat="33.771933" lon="10.979839"><ele>0</ele></trkpt>
      <trkpt lat="33.771838" lon="10.979846"><ele>0</ele></trkpt>
      <trkpt lat="33.771492" lon="10.979849"><ele>0</ele></trkpt>
      <trkpt lat="33.771385" lon="10.97986"><ele>0</ele></trkpt>
      <trkpt lat="33.771391" lon="10.979986"><ele>0</ele></trkpt>
      <trkpt lat="33.771383" lon="10.980048"><ele>0</ele></trkpt>
      <trkpt lat="33.771369" lon="10.980087"><ele>0</ele></trkpt>
      <trkpt lat="33.771334" lon="10.980139"><ele>0</ele></trkpt>
      <trkpt lat="33.771021" lon="10.980467"><ele>0</ele></trkpt>
      <trkpt lat="33.770932" lon="10.980577"><ele>0</ele></trkpt>
      <trkpt lat="33.770729" lon="10.980795"><ele>0</ele></trkpt>
      <trkpt lat="33.770561" lon="10.980999"><ele>0</ele></trkpt>
      <trkpt lat="33.77039" lon="10.981162"><ele>0</ele></trkpt>
      <trkpt lat="33.770211" lon="10.981313"><ele>0</ele></trkpt>
      <trkpt lat="33.770106" lon="10.98142"><ele>0</ele></trkpt>
      <trkpt lat="33.769968" lon="10.981578"><ele>0</ele></trkpt>
      <trkpt lat="33.76988" lon="10.981693"><ele>0</ele></trkpt>
      <trkpt lat="33.769688" lon="10.981913"><ele>0</ele></trkpt>
      <trkpt lat="33.769572" lon="10.982061"><ele>0</ele></trkpt>
      <trkpt lat="33.769507" lon="10.982134"><ele>0</ele></trkpt>
      <trkpt lat="33.76939" lon="10.982222"><ele>0</ele></trkpt>
      <trkpt lat="33.769263" lon="10.982301"><ele>0</ele></trkpt>
      <trkpt lat="33.769192" lon="10.982354"><ele>0</ele></trkpt>
      <trkpt lat="33.769032" lon="10.98255"><ele>0</ele></trkpt>
      <trkpt lat="33.768838" lon="10.982713"><ele>0</ele></trkpt>
      <trkpt lat="33.768376" lon="10.983089"><ele>0</ele></trkpt>
      <trkpt lat="33.767994" lon="10.983552"><ele>0</ele></trkpt>
      <trkpt lat="33.767813" lon="10.983728"><ele>0</ele></trkpt>
      <trkpt lat="33.767683" lon="10.983823"><ele>0</ele></trkpt>
      <trkpt lat="33.767408" lon="10.983933"><ele>0</ele></trkpt>
      <trkpt lat="33.767237" lon="10.983976"><ele>0</ele></trkpt>
      <trkpt lat="33.767112" lon="10.984028"><ele>0</ele></trkpt>
      <trkpt lat="33.766894" lon="10.98416"><ele>0</ele></trkpt>
      <trkpt lat="33.766727" lon="10.98425"><ele>0</ele></trkpt>
      <trkpt lat="33.766636" lon="10.984299"><ele>0</ele></trkpt>
      <trkpt lat="33.766548" lon="10.984361"><ele>0</ele></trkpt>
      <trkpt lat="33.766454" lon="10.984442"><ele>0</ele></trkpt>
      <trkpt lat="33.766226" lon="10.984708"><ele>0</ele></trkpt>
      <trkpt lat="33.766061" lon="10.984871"><ele>0</ele></trkpt>
      <trkpt lat="33.765925" lon="10.985109"><ele>0</ele></trkpt>
      <trkpt lat="33.765825" lon="10.985257"><ele>0</ele></trkpt>
      <trkpt lat="33.765707" lon="10.985398"><ele>0</ele></trkpt>
      <trkpt lat="33.765501" lon="10.985585"><ele>0</ele></trkpt>
      <trkpt lat="33.764887" lon="10.986009"><ele>0</ele></trkpt>
      <trkpt lat="33.764793" lon="10.986081"><ele>0</ele></trkpt>
      <trkpt lat="33.764735" lon="10.986135"><ele>0</ele></trkpt>
      <trkpt lat="33.764699" lon="10.986175"><ele>0</ele></trkpt>
      <trkpt lat="33.764683" lon="10.986207"><ele>0</ele></trkpt>
      <trkpt lat="33.764526" lon="10.986327"><ele>0</ele></trkpt>
      <trkpt lat="33.76442" lon="10.986412"><ele>0</ele></trkpt>
      <trkpt lat="33.764272" lon="10.986496"><ele>0</ele></trkpt>
      <trkpt lat="33.764111" lon="10.986596"><ele>0</ele></trkpt>
      <trkpt lat="33.763945" lon="10.986714"><ele>0</ele></trkpt>
      <trkpt lat="33.763836" lon="10.98676"><ele>0</ele></trkpt>
      <trkpt lat="33.763128" lon="10.98698"><ele>0</ele></trkpt>
      <trkpt lat="33.762936" lon="10.987052"><ele>0</ele></trkpt>
      <trkpt lat="33.762726" lon="10.987151"><ele>0</ele></trkpt>
      <trkpt lat="33.762643" lon="10.987202"><ele>0</ele></trkpt>
      <trkpt lat="33.762434" lon="10.987366"><ele>0</ele></trkpt>
      <trkpt lat="33.762391" lon="10.987389"><ele>0</ele></trkpt>
      <trkpt lat="33.762345" lon="10.987502"><ele>0</ele></trkpt>
      <trkpt lat="33.762337" lon="10.987545"><ele>0</ele></trkpt>
      <trkpt lat="33.762308" lon="10.987667"><ele>0</ele></trkpt>
      <trkpt lat="33.76232" lon="10.98774"><ele>0</ele></trkpt>
      <trkpt lat="33.76231" lon="10.987789"><ele>0</ele></trkpt>
      <trkpt lat="33.762283" lon="10.987852"><ele>0</ele></trkpt>
      <trkpt lat="33.762238" lon="10.987928"><ele>0</ele></trkpt>
      <trkpt lat="33.762038" lon="10.988186"><ele>0</ele></trkpt>
      <trkpt lat="33.761868" lon="10.98837"><ele>0</ele></trkpt>
      <trkpt lat="33.761545" lon="10.988696"><ele>0</ele></trkpt>
      <trkpt lat="33.761531" lon="10.98873"><ele>0</ele></trkpt>
      <trkpt lat="33.761501" lon="10.989063"><ele>0</ele></trkpt>
      <trkpt lat="33.761489" lon="10.98914"><ele>0</ele></trkpt>
      <trkpt lat="33.761473" lon="10.989177"><ele>0</ele></trkpt>
      <trkpt lat="33.761445" lon="10.989212"><ele>0</ele></trkpt>
      <trkpt lat="33.761403" lon="10.98924"><ele>0</ele></trkpt>
      <trkpt lat="33.76126" lon="10.9893"><ele>0</ele></trkpt>
      <trkpt lat="33.761218" lon="10.989325"><ele>0</ele></trkpt>
      <trkpt lat="33.761198" lon="10.989341"><ele>0</ele></trkpt>
      <trkpt lat="33.761177" lon="10.989403"><ele>0</ele></trkpt>
      <trkpt lat="33.761166" lon="10.989414"><ele>0</ele></trkpt>
      <trkpt lat="33.761143" lon="10.989421"><ele>0</ele></trkpt>
      <trkpt lat="33.760923" lon="10.989595"><ele>0</ele></trkpt>
      <trkpt lat="33.760859" lon="10.989664"><ele>0</ele></trkpt>
      <trkpt lat="33.760764" lon="10.9898"><ele>0</ele></trkpt>
      <trkpt lat="33.760694" lon="10.98992"><ele>0</ele></trkpt>
      <trkpt lat="33.760654" lon="10.989958"><ele>0</ele></trkpt>
      <trkpt lat="33.760406" lon="10.990098"><ele>0</ele></trkpt>
      <trkpt lat="33.760312" lon="10.990158"><ele>0</ele></trkpt>
      <trkpt lat="33.760229" lon="10.990229"><ele>0</ele></trkpt>
      <trkpt lat="33.760193" lon="10.990272"><ele>0</ele></trkpt>
      <trkpt lat="33.76016" lon="10.990292"><ele>0</ele></trkpt>
      <trkpt lat="33.760116" lon="10.990296"><ele>0</ele></trkpt>
      <trkpt lat="33.760027" lon="10.990235"><ele>0</ele></trkpt></trkseg></trk></gpx>